lon,lat,name,address,pname,cityname,business_area,type,typecode,id,type1,type2,type3,type4
116.08351346272204,39.93158248724095,北京轻工技师学院,中门寺街16号民生大厅,北京市,北京市,门头沟,科教文化服务;学校;高等院校,141201,B0FFHC50JM,科教文化服务,学校,高等院校,
116.11689759105947,40.07440385261072,中国指墨画院,草厂村路2号凤凰岭美术馆附近,北京市,北京市,,科教文化服务;学校;高等院校,141201,B000A8811A,科教文化服务,学校,高等院校,
116.11401189830445,40.09700358709456,北京艺术传媒职业学院,中关村科技园区聂各庄东路10号,北京市,北京市,,科教文化服务;学校;高等院校,141201,B0FFFADYED,科教文化服务,学校,高等院校,
116.12804580424708,40.094102442114625,北京齐鲁音乐学院,苏家坨镇温北路8号,北京市,北京市,,科教文化服务;学校;高等院校,141201,B0FFI2EJUQ,科教文化服务,学校,高等院校,
116.10599911583992,40.07799706237317,首都体育学院附属竞技体育学校,苏家坨镇苏家屯镇草厂村486号首都体育学院凤凰岭校区,北京市,北京市,,科教文化服务;学校;高等院校,141201,B0FFKUQG7J,科教文化服务,学校,高等院校,
116.11689759105947,40.07440385261072,中国艺术研究院研究生院研究生课程班凤凰岭学院,中国书画艺术院(北安河路东),北京市,北京市,,科教文化服务;学校;高等院校,141201,B000A8811C,科教文化服务,学校,高等院校,
116.10599911583992,40.07799706237317,首都体育学院凤凰岭校区,苏家坨镇草场村486号,北京市,北京市,,科教文化服务;学校;高等院校,141201,B000A7QDX7,科教文化服务,学校,高等院校,
116.11689759105947,40.07440385261072,中国艺术研究院美术创作院研究生课程班凤凰岭学院,[],北京市,北京市,,科教文化服务;学校;高等院校,141201,B000A8811D,科教文化服务,学校,高等院校,
116.12464444210002,39.963119813807396,人大附中石景山学校,秀府路,北京市,北京市,,科教文化服务;学校;高等院校,141201,B0FFL0WSRB,科教文化服务,学校,高等院校,
116.1167306462084,39.95487638203758,石景山区老干部大学民俗文化分校,[],北京市,北京市,,科教文化服务;学校;高等院校,141201,B0G0DH9IOY,科教文化服务,学校,高等院校,
116.11688850436533,39.95809741067377,北京工业职业技术学院-第教一学楼,石门路与隆恩寺路交叉口北200米,北京市,北京市,,科教文化服务;学校;高等院校,141201,B0FFHG7QFV,科教文化服务,学校,高等院校,
116.16541729193877,40.1263637876151,大北农发展学院,沙阳路南100米,北京市,北京市,阳坊村,科教文化服务;学校;高等院校,141201,B000A6E6A8,科教文化服务,学校,高等院校,
116.1619442217583,40.09675675727304,中国纪检监察学院,苏家坨稻香湖北路1号,北京市,北京市,,科教文化服务;学校;高等院校,141201,B000A881PW,科教文化服务,学校,高等院校,
116.15834626733287,40.063768297637964,中关村学院二分院,中关村辛庄北路170号,北京市,北京市,,科教文化服务;学校;高等院校,141201,B000A80SYQ,科教文化服务,学校,高等院校,
116.17427879582296,40.04304311077274,中央民族歌舞团艺术培训学校,温泉路与白家疃西路交叉口西100米,北京市,北京市,,科教文化服务;学校;高等院校,141201,B000A81AHX,科教文化服务,学校,高等院校,
116.17427077374795,40.0430410961161,中央民族大学中央民族歌舞团教学区,温泉路与白家疃西路交叉口西100米,北京市,北京市,,科教文化服务;学校;高等院校,141201,B000A81AIT,科教文化服务,学校,高等院校,
116.1742747851656,40.04303910360409,北京师范大学中央民族歌舞团教学区,温泉路与白家疃西路交叉口西100米,北京市,北京市,,科教文化服务;学校;高等院校,141201,B000A81AIS,科教文化服务,学校,高等院校,
116.16498069164176,39.939733258416965,中央财经大学西山校区,金顶山路,北京市,北京市,,科教文化服务;学校;高等院校,141201,B000A7REP4,科教文化服务,学校,高等院校,
116.16989937120682,39.92540301331395,贝尔机器人儿童学院(苹果园校区),苹果园28号院1号楼中铁创业大厦B座二楼201室,北京市,北京市,石景山,科教文化服务;学校;高等院校,141201,B0FFLQ0R2O,科教文化服务,学校,高等院校,
116.19199132573583,39.91036863335189,北京教育学院石景山分院,八角西街95号,北京市,北京市,古城,科教文化服务;学校;高等院校,141201,B000A3A15F,科教文化服务,学校,高等院校,
116.19219049479473,39.91293084506095,中国工业经济管理研修学院,八角街道八角西街61号,北京市,北京市,古城,科教文化服务;学校;高等院校,141201,B000A7RB65,科教文化服务,学校,高等院校,
116.1864160301316,39.91200431191639,石景山区老干部大学(西校区),古城东街47附近,北京市,北京市,石景山,科教文化服务;学校;高等院校,141201,B0FFL4A2MJ,科教文化服务,学校,高等院校,
116.20263363160608,40.135643171946256,北京首航蓝天学院,上庄路白水洼77号,北京市,北京市,,科教文化服务;学校;高等院校,141201,B0FFIFE9OS,科教文化服务,学校,高等院校,
116.23342333790418,40.14268618552504,北京信息科技大学新校区(建设中),X006(满白路),北京市,北京市,,科教文化服务;学校;高等院校,141201,B0FFJ21AA6,科教文化服务,学校,高等院校,
116.20759971191201,40.08883055239786,北京北大资源研修学院,上庄路117号,北京市,北京市,,科教文化服务;学校;高等院校,141201,B000A8XP0A,科教文化服务,学校,高等院校,
116.20787021321902,40.08905086975032,北大青鸟北大资源网络学院,上庄路117号北京北大资源研修学院附近,北京市,北京市,,科教文化服务;学校;高等院校,141201,B0FFKV4F6C,科教文化服务,学校,高等院校,
116.2309869831036,40.064797367751915,用友管理软件学院,区北清路68号用友软件园,北京市,北京市,西北旺,科教文化服务;学校;高等院校,141201,B000AA0VDB,科教文化服务,学校,高等院校,
116.24002851994933,40.08732655683026,北京交通运输职业学院(皇后店校区),西北旺镇皇后店街6号,北京市,北京市,,科教文化服务;学校;高等院校,141201,B0FFM6Q6C9,科教文化服务,学校,高等院校,
116.23279045175833,40.105724282951066,北京亿城大学,东港路附近,北京市,北京市,,科教文化服务;学校;高等院校,141201,B0FFH9I2QO,科教文化服务,学校,高等院校,
116.22997248645306,40.03704843053333,北京理工大学西山实验区,冷泉东路16号,北京市,北京市,西北旺,科教文化服务;学校;高等院校,141201,B000A8XPMS,科教文化服务,学校,高等院校,
116.19286316397378,40.04040752230262,北京行政学院二分院,温泉镇温泉路15号,北京市,北京市,,科教文化服务;学校;高等院校,141201,B000A8XN7D,科教文化服务,学校,高等院校,
116.21961966646265,39.99040448540817,北京农业职业学院北校区,香山普安店29号,北京市,北京市,香山,科教文化服务;学校;高等院校,141201,B000A7ICQ1,科教文化服务,学校,高等院校,
116.23638196857407,39.97101480262101,国家开放大学军盾学院,闵庄路42号院501号,北京市,北京市,,科教文化服务;学校;高等院校,141201,B0GUD7RHFQ,科教文化服务,学校,高等院校,
116.24087658111685,40.00188033350761,林业科学院,[],北京市,北京市,香山,科教文化服务;学校;高等院校,141201,B0G3LSGE8C,科教文化服务,学校,高等院校,
116.20175289233275,39.92697764284835,北方工业大学,晋元庄路5号院,北京市,北京市,石景山,科教文化服务;学校;高等院校,141201,B000A848ZR,科教文化服务,学校,高等院校,
116.19517318245067,39.925034044703416,首钢工学院,晋元庄路6号,北京市,北京市,石景山,科教文化服务;学校;高等院校,141201,B000A830D1,科教文化服务,学校,高等院校,
116.21788300633676,39.950772516860646,北京瀚林职业研修学院,四季青杏石口路98号,北京市,北京市,西山,科教文化服务;学校;高等院校,141201,B000A85U1I,科教文化服务,学校,高等院校,
116.21731915619223,39.95058899982094,北京师范大学(科培校区),四季青杏石口路98号,北京市,北京市,香山,科教文化服务;学校;高等院校,141201,B000A7IJPS,科教文化服务,学校,高等院校,
116.19353707035602,39.94256378977727,中国协和医科大学护理学院,八大处路33,北京市,北京市,西山,科教文化服务;学校;高等院校,141201,B000A88A6I,科教文化服务,学校,高等院校,
116.19543644076478,39.943954696724106,国家检察官学院(香山校区),香山南路111号,北京市,北京市,香山,科教文化服务;学校;高等院校,141201,B000A502A4,科教文化服务,学校,高等院校,
116.1935614691581,39.915853905229014,北京开放大学(石景山分校),八角北路51号院1号楼,北京市,北京市,石景山,科教文化服务;学校;高等院校,141201,B0FFH13BV9,科教文化服务,学校,高等院校,
116.21788701723065,39.95073452204215,北京东城职业大学迅腾国际软件学院,杏石口路98号,北京市,北京市,香山,科教文化服务;学校;高等院校,141201,B000A8XL29,科教文化服务,学校,高等院校,
116.19985747523225,39.92898187872297,浩学楼,晋元庄路5号院附近,北京市,北京市,石景山,科教文化服务;学校;高等院校,141201,B0FFHTWTEU,科教文化服务,学校,高等院校,
116.19817825910037,39.92439461487206,首钢技师学院教学楼13,阜石路155号,北京市,北京市,石景山,科教文化服务;学校;高等院校,141201,B000A87E75,科教文化服务,学校,高等院校,
116.19834267317812,39.924080870407295,首钢技师学院教学楼14,阜石路155号,北京市,北京市,石景山,科教文化服务;学校;高等院校,141201,B000A87E76,科教文化服务,学校,高等院校,
116.19793369744035,39.924414251823386,首钢技师学院教学楼16,阜石路155号,北京市,北京市,石景山,科教文化服务;学校;高等院校,141201,B000A87E78,科教文化服务,学校,高等院校,
116.19617654330928,39.92507558241429,北京市安全生产管理学院,阜石路103号附近,北京市,北京市,石景山,科教文化服务;学校;高等院校,141201,B0FFHTMHK7,科教文化服务,学校,高等院校,
116.19819527082933,39.92461163118716,首钢技师学院新阶梯教室,阜石路155号,北京市,北京市,石景山,科教文化服务;学校;高等院校,141201,B0FFH23U32,科教文化服务,学校,高等院校,
116.19729827109546,39.92413231570884,首钢技师学院教学楼12,阜石路155号,北京市,北京市,石景山,科教文化服务;学校;高等院校,141201,B000A87E74,科教文化服务,学校,高等院校,
116.19436542367679,39.915695174261984,石景山区行政学院,八角北路49号,北京市,北京市,石景山,科教文化服务;学校;高等院校,141201,B0FFFAKG6R,科教文化服务,学校,高等院校,
116.23650137151458,39.952340569942386,北京海淀凯文学校,杏石口路65号,北京市,北京市,西山,科教文化服务;学校;高等院校,141201,B0FFGZB9DH,科教文化服务,学校,高等院校,
116.1944104767075,39.91613422629455,石景山区业余大学(东校区),八角西街北口51号院(近杨庄路),北京市,北京市,石景山,科教文化服务;学校;高等院校,141201,B0FFF9RE4W,科教文化服务,学校,高等院校,
116.19562409723152,39.92625168980251,首钢技师学院教师办公楼1,阜石路155号,北京市,北京市,石景山,科教文化服务;学校;高等院校,141201,B000A87E71,科教文化服务,学校,高等院校,
116.19546296745858,39.92424452363731,首钢技师学院教学楼10,阜石路155号,北京市,北京市,石景山,科教文化服务;学校;高等院校,141201,B000A87E72,科教文化服务,学校,高等院校,
116.19806079845594,39.92593437850384,首钢技师学院职业技能实训中心,阜石路155号,北京市,北京市,石景山,科教文化服务;学校;高等院校,141201,B000A87E79,科教文化服务,学校,高等院校,
116.19727117002206,39.924440262552,首钢技师学院教学楼11,阜石路155号,北京市,北京市,石景山,科教文化服务;学校;高等院校,141201,B000A87E73,科教文化服务,学校,高等院校,
116.19802394220267,39.92410839811052,首钢技师学院教学楼15,阜石路155号,北京市,北京市,石景山,科教文化服务;学校;高等院校,141201,B000A87E77,科教文化服务,学校,高等院校,
116.23946233149175,39.91015588197842,中国科学技术大学北京教学基地综合楼,玉泉路19号甲,北京市,北京市,石景山,科教文化服务;学校;高等院校,141201,B0FFGYQC58,科教文化服务,学校,高等院校,
116.19418499357452,39.91567489294295,石景山区社会主义学院,八角北路49号,北京市,北京市,石景山,科教文化服务;学校;高等院校,141201,B000A7QCG2,科教文化服务,学校,高等院校,
116.22173733636342,39.904633700113976,嘉艺汇形象管理学院,石景山万达广场F座611室,北京市,北京市,石景山,科教文化服务;学校;高等院校,141201,B0FFG85UQZ,科教文化服务,学校,高等院校,
116.23110041864784,39.90165470582799,录音/播音/直播/会议设备系统,鲁谷路东街8号玉泉电器三层B09,北京市,北京市,石景山,科教文化服务;学校;高等院校,141201,B0G0RYAO9M,科教文化服务,学校,高等院校,
116.23276120001938,39.899072533025915,鲨鱼公园儿童大学,远洋山水南区21号楼7单元101室,北京市,北京市,石景山,科教文化服务;学校;高等院校,141201,B0FFHLT15U,科教文化服务,学校,高等院校,
116.23992461942801,39.9096749669147,中国科学院研究生院教学资料中心,玉泉西街19-甲临28号附近,北京市,北京市,石景山,科教文化服务;学校;高等院校,141201,B0FFGYQBOM,科教文化服务,学校,高等院校,
116.26438507792662,40.15235372687519,北京航空航天大学沙河校区,高教园南三街9号,北京市,北京市,沙河,科教文化服务;学校;高等院校,141201,B000A87JYS,科教文化服务,学校,高等院校,
116.28409136359552,40.14272408994398,北京科技经营管理学院沙河新校区,沙河镇于辛庄,北京市,北京市,沙河,科教文化服务;学校;高等院校,141201,B000A7PRLB,科教文化服务,学校,高等院校,
116.27469108724046,40.15262888521597,外交学院沙河校区,沙河镇高教园区,北京市,北京市,沙河,科教文化服务;学校;高等院校,141201,B000A8Y9TU,科教文化服务,学校,高等院校,
116.2841162023615,40.14369495602056,国际儿童教育学院,沙河镇大学城南(地铁昌平线沙河站南200米),北京市,北京市,沙河,科教文化服务;学校;高等院校,141201,B000A9WOMH,科教文化服务,学校,高等院校,
116.2669327724083,40.12283954643424,北京市昌平区巩华中心少年科学院,安济桥路,北京市,北京市,沙河,科教文化服务;学校;高等院校,141201,B0FFMAVF4R,科教文化服务,学校,高等院校,
116.26321000457939,40.11973280561202,北京市工贸技师学院机电分院(沙河校区),昌平路187号,北京市,北京市,沙河,科教文化服务;学校;高等院校|科教文化服务;学校;职业技术学校,141201|141206,B000A881KD,科教文化服务,学校,高等院校|科教文化服务,学校
116.2576244570226,40.14822761521007,北京师范大学沙河校区,满井路,北京市,北京市,沙河,科教文化服务;学校;高等院校,141201,B0FFH56LF5,科教文化服务,学校,高等院校,
116.28454157777698,40.143360395650014,北京商务研修学院主校区,地铁站南200米,北京市,北京市,沙河,科教文化服务;学校;高等院校,141201,B0FFIRYWTX,科教文化服务,学校,高等院校,
116.25551579737953,40.15148831583931,中国矿业大学(北京)沙河校区,沙河高教园南二街9号,北京市,北京市,沙河,科教文化服务;学校;高等院校,141201,B0FFF2WIFR,科教文化服务,学校,高等院校,
116.28379909744876,40.15635504312866,北京邮电大学沙河校区,沙河高教园南丰路1号,北京市,北京市,沙河,科教文化服务;学校;高等院校,141201,B0FFG723P4,科教文化服务,学校,高等院校,
116.24439035266279,40.11739039267212,通航产业学院(华航学院),沙河镇沙阳路18号北京科技职业学院内,北京市,北京市,,科教文化服务;学校;高等院校,141201,B0FFHOCZ8X,科教文化服务,学校,高等院校,
116.24471872752721,40.11504857809624,北京科技职业学院艺术设计学院,沙河镇沙阳路18号,北京市,北京市,,科教文化服务;学校;职业技术学校|科教文化服务;学校;高等院校,141206|141201,B0FFFCM7J2,科教文化服务,学校,职业技术学校|科教文化服务,学校
116.24523577748715,40.11558350048783,北京科技职业学院-体创学院,沙河沙阳璐18号北京科技职业学院内,北京市,北京市,,科教文化服务;学校;高等院校,141201,B0FFFVR3HL,科教文化服务,学校,高等院校,
116.24366307832776,40.14987528885633,北京科技大学,踩河新村,北京市,北京市,,科教文化服务;学校;高等院校,141201,B0FFIGJSV1,科教文化服务,学校,高等院校,
116.24337404462281,40.11756339860406,北京科技职业学院微格教室,沙河镇沙阳路18号北京科技职业学院,北京市,北京市,,科教文化服务;学校;高等院校,141201,B000AA0WW6,科教文化服务,学校,高等院校,
116.24529853458277,40.11762732043328,北京科技职业学院-北科院党委社工部,沙阳路24号,北京市,北京市,,科教文化服务;学校;高等院校,141201,B000A882TD,科教文化服务,学校,高等院校,
116.24847270049322,40.087661243233136,北京城市学院航天城校区,皇后店村6号,北京市,北京市,西北旺,科教文化服务;学校;高等院校,141201,B000A7C3NO,科教文化服务,学校,高等院校,
116.27547815952448,40.02509741405665,中国农业大学西校区,圆明园西路2号,北京市,北京市,西北旺,科教文化服务;学校;高等院校,141201,B000A88E6K,科教文化服务,学校,高等院校,
116.26246355599851,40.031465225170734,中国银行研修学院,马连洼北路169号附近,北京市,北京市,马连洼,科教文化服务;学校;高等院校,141201,B0FFIZ5MNS,科教文化服务,学校,高等院校,
116.27094506487853,40.018677579222825,北京建设大学,天秀路10号,北京市,北京市,马连洼,科教文化服务;学校;高等院校,141201,B000A7PJDR,科教文化服务,学校,高等院校,
116.2835280828425,40.04862003608247,中欧国际工商学院,东北旺西路8号中关村软件园20号楼,北京市,北京市,上地,科教文化服务;学校;高等院校,141201,B000A8VPZU,科教文化服务,学校,高等院校,
116.27215665973027,40.027687913249146,中国农业干部教育培训中心中国农业大学分院,圆明园西路2号中国农业大学西区,北京市,北京市,马连洼,科教文化服务;学校;高等院校,141201,B0FFFCLLVV,科教文化服务,学校,高等院校,
116.2722866168685,40.02690581623002,中国农业大学西校区就业指导中心,圆明园西路2号中国农业大学西校区,北京市,北京市,马连洼,科教文化服务;学校;高等院校|科教文化服务;培训机构;培训机构,141201|141400,B0FFFCLLVX,科教文化服务,学校,高等院校|科教文化服务,培训机构
116.27534482159882,40.02909137110423,中国农业大学动物医学院临床实习,圆明园西路2号中国农业大学西区,北京市,北京市,马连洼,科教文化服务;学校;高等院校,141201,B0FFGG1QGG,科教文化服务,学校,高等院校,
116.28902201337219,40.04148147170615,海淀区行政学院,上地街道东北旺南路27号,北京市,北京市,上地,科教文化服务;学校;高等院校,141201,B000A888RK,科教文化服务,学校,高等院校,
116.27703940396547,40.02348966902098,中国农业大学西校区土地科学与技术学院,[],北京市,北京市,马连洼,科教文化服务;学校;高等院校,141201,B0FFM0M1S9,科教文化服务,学校,高等院校,
116.27217348674729,40.0209372207565,中国农业大学西校区离退休工作处,[],北京市,北京市,马连洼,科教文化服务;学校;高等院校,141201,B0FFLO274V,科教文化服务,学校,高等院校,
116.2896389572569,40.04137053822974,海淀区社会主义学院,东北旺南路27号,北京市,北京市,上地,科教文化服务;学校;高等院校,141201,B000A888KH,科教文化服务,学校,高等院校,
116.29263775481786,40.04003591870687,北京八维研修学院建筑学院,唐家岭东路与唐家岭路交叉口东南100米,北京市,北京市,上地,科教文化服务;学校;高等院校,141201,B0FFG4UYEN,科教文化服务,学校,高等院校,
116.29244011784625,40.04003023423662,北京八维研修学院国际经贸学院,唐家岭东路与唐家岭路交叉口北100米,北京市,北京市,上地,科教文化服务;学校;高等院校,141201,B0FFGTP3NO,科教文化服务,学校,高等院校,
116.27880604871035,40.04758128321448,中物院研究生院(软件园北区),西北旺东路10号院9号楼二期,北京市,北京市,西北旺,科教文化服务;学校;高等院校,141201,B0FFKCJPKH,科教文化服务,学校,高等院校,
116.29244011784625,40.04003023423662,北京八维研修学院网络营销学院,唐家岭东路与唐家岭路交叉口东150米,北京市,北京市,上地,科教文化服务;学校;高等院校,141201,B0FFGOBLUM,科教文化服务,学校,高等院校,
116.28046685596246,40.02275844824041,中国农业科学院草业综合研究与发展中心,农大南路西150米,北京市,北京市,马连洼,科教文化服务;学校;高等院校,141201,B000A7RC09,科教文化服务,学校,高等院校,
116.29238618115234,40.04031130532921,软工学院-八维教育科技楼6,唐家岭东路与唐家岭路交叉口北100米,北京市,北京市,上地,科教文化服务;学校;高等院校,141201,B0FFF8BU3Y,科教文化服务,学校,高等院校,
116.2800080186263,40.00269295254131,国际关系学院,坡上村12号(近颐和园),北京市,北京市,,科教文化服务;学校;高等院校,141201,B000A519F9,科教文化服务,学校,高等院校,
116.28745279250398,39.99279610155507,北京大学中医药临床医学院,西苑操场1号,北京市,北京市,西苑,科教文化服务;学校;高等院校,141201,B0FFHBBW76,科教文化服务,学校,高等院校,
116.27973253688324,40.00162834992106,国际问保学院,[],北京市,北京市,,科教文化服务;学校;高等院校,141201,B0G0AUV0OO,科教文化服务,学校,高等院校,
116.29250177099242,39.99416628403507,北京大学科学传播中心,颐和园路5号北京大学,北京市,北京市,西苑,科教文化服务;学校;高等院校,141201,B0FFG39ZS5,科教文化服务,学校,高等院校,
116.26691291941916,39.96204872838397,权金城商学院,[],北京市,北京市,,科教文化服务;学校;高等院校,141201,B0FFGAPM65,科教文化服务,学校,高等院校,
116.27910748715766,40.000926168721904,国际关系学院国关西院,颐和园路12号甲,北京市,北京市,,科教文化服务;学校;高等院校,141201,B0FFF09YQH,科教文化服务,学校,高等院校,
116.29130424238097,39.95988856963301,北京大学万柳学区,万柳中路29号,北京市,北京市,万柳,科教文化服务;学校;高等院校,141201,B000AAF9UI,科教文化服务,学校,高等院校,
116.27049461383194,39.93789637285275,北京市工贸技师学院,西四环北路132号,北京市,北京市,四季青,科教文化服务;学校;高等院校|科教文化服务;学校;职业技术学校,141201|141206,B000A80CN7,科教文化服务,学校,高等院校|科教文化服务,学校
116.26881529477905,39.9374629962493,北京市工贸技师学院(机电分院),西四环北路132号,北京市,北京市,四季青,科教文化服务;学校;职业技术学校|科教文化服务;学校;高等院校,141206|141201,B0FFHGMSER,科教文化服务,学校,职业技术学校|科教文化服务,学校
116.27938341834802,39.942487190717294,北京市农林科学院工程咨询中心,曙光花园中路11号,北京市,北京市,四季青,科教文化服务;学校;高等院校,141201,B0FFGOYE5N,科教文化服务,学校,高等院校,
116.28233069266986,39.92249016236666,北京大学临床肿瘤学院,阜成路52号(定慧寺),北京市,北京市,五棵松,科教文化服务;学校;高等院校,141201,B0FFFR5D7X,科教文化服务,学校,高等院校,
116.27611800132296,39.95610360868993,北京祥龙大学,远大路19号,北京市,北京市,世纪城,科教文化服务;学校;高等院校,141201,B0FFGZSIAE,科教文化服务,学校,高等院校,
116.27191389686186,39.9558892301197,中关村学院远大学区,四季青远大路29号,北京市,北京市,世纪城,科教文化服务;学校;高等院校,141201,B000A7RAJS,科教文化服务,学校,高等院校,
116.27590919625956,39.956618830460144,地质大学(北京)北京市商业学校教学站,远大路19号,北京市,北京市,世纪城,科教文化服务;学校;高等院校,141201,B0FFFVDDZ6,科教文化服务,学校,高等院校,
116.27590919625956,39.956618830460144,北京广播电视大学一商干校工作站,远大路19号,北京市,北京市,世纪城,科教文化服务;学校;高等院校,141201,B000A7P6F1,科教文化服务,学校,高等院校,
116.28771579112643,39.91741975598486,北京大学金融与产业发展研究中心,万寿路甲15号附近,北京市,北京市,五棵松,科教文化服务;学校;高等院校,141201,B0FFF5EMZ1,科教文化服务,学校,高等院校,
116.2670496125468,39.9074018281089,国家开放大学,复兴路75号,北京市,北京市,,科教文化服务;学校;高等院校,141201,B000A95C86,科教文化服务,学校,高等院校,
116.24437252528183,39.90757826315693,中国科学院大学玉泉路校区,玉泉路19号甲(近玉泉路地铁口),北京市,北京市,石景山,科教文化服务;学校;高等院校,141201,B000A7RBOT,科教文化服务,学校,高等院校,
116.24460358832376,39.9075392550654,中国科学院大学应急管理科学与工程学院,中国科学院大学玉泉路校区,北京市,北京市,石景山,科教文化服务;学校;高等院校,141201,B0H6DA747Z,科教文化服务,学校,高等院校,
116.24414623107975,39.90946718939,中国科学院高能物理研究所加速器中心直线组,玉泉路27附近,北京市,北京市,石景山,科教文化服务;学校;高等院校|科教文化服务;科研机构;科研机构,141201|141300,B0FFFGR00S,科教文化服务,学校,高等院校|科教文化服务,科研机构
116.30405996357655,40.08839746908744,华北电力大学,北农路2号,北京市,北京市,回龙观,科教文化服务;学校;高等院校,141201,B000A07C0B,科教文化服务,学校,高等院校,
116.30400251740906,40.092885246938074,北京农学院,回龙观镇北农路7号,北京市,北京市,回龙观,科教文化服务;学校;高等院校,141201,B000A7VS0K,科教文化服务,学校,高等院校,
116.31631018430897,40.08590079919526,北京大学第四临床医学院,回龙观龙禧二街附近,北京市,北京市,回龙观,科教文化服务;学校;高等院校,141201,B000AA6SSG,科教文化服务,学校,高等院校,
116.33198251848951,40.09897483726237,北京华文学院,沙河七北路69号,北京市,北京市,,科教文化服务;学校;高等院校,141201,B000A8XH9M,科教文化服务,学校,高等院校,
116.30538432680581,40.08694217765285,华北电力大学金工实训中心,北农路2号华北电力大学,北京市,北京市,回龙观,科教文化服务;学校;高等院校,141201,B0FFFZ13Q2,科教文化服务,学校,高等院校,
116.3020505903959,40.07722482580357,北京国际青年研修学院,回龙观二拨子东路,北京市,北京市,回龙观,科教文化服务;学校;高等院校,141201,B0FFH93PBD,科教文化服务,学校,高等院校,
116.32902109208987,40.10042333774235,飞视国际演艺学院,七里渠育荣教育园区环球雅思国际预科封闭学院附近,北京市,北京市,,科教文化服务;学校;高等院校,141201,B000A7OXJU,科教文化服务,学校,高等院校,
116.33925224010035,40.06037001334537,北京石油管理干部学院,回龙观镇黄平路(地铁8号线育新站A口),北京市,北京市,西三旗,科教文化服务;学校;高等院校,141201,B000A7QCKF,科教文化服务,学校,高等院校,
116.30175523261981,40.07698836373031,北京农业职业学院机电工程学院,回龙观二拨子,北京市,北京市,回龙观,科教文化服务;学校;高等院校,141201,B000A8XCON,科教文化服务,学校,高等院校,
116.30341781598503,40.10027973835504,北京农学院北校区,朱辛庄新区北区西门北50米,北京市,北京市,回龙观,科教文化服务;学校;高等院校,141201,B0FFFADGXH,科教文化服务,学校,高等院校,
116.30347573742668,40.09993666111504,北京农学院城乡发展学院,回龙观北农路7号,北京市,北京市,回龙观,科教文化服务;学校;高等院校,141201,B0FFFADGXT,科教文化服务,学校,高等院校,
116.32865695342834,40.10021704759334,北京商务研修学院主校区,沙河镇七里渠531号育荣教育园区,北京市,北京市,,科教文化服务;学校;高等院校,141201,B0FFIRYWRJ,科教文化服务,学校,高等院校,
116.32869389532111,40.100007993323146,国际时尚体育学院,沙河镇七里渠南村531号育荣国际教育园区,北京市,北京市,,科教文化服务;学校;高等院校,141201,B0FFF008VY,科教文化服务,学校,高等院校,
116.30049985399197,40.07667258917403,北京农职院机电工程学院,回龙观街道二拨子村附近,北京市,北京市,回龙观,科教文化服务;学校;高等院校,141201,B0FFLIQA7S,科教文化服务,学校,高等院校,
116.29891411535844,40.09209726346309,北京农学院计算机实验教学中心,北京农学院计算机与信息工程学院,北京市,北京市,回龙观,科教文化服务;学校;高等院校,141201,B0FFH13LY9,科教文化服务,学校,高等院校,
116.31261848413145,40.02323045529781,北京体育大学,信息路48号,北京市,北京市,上地,科教文化服务;学校;高等院校,141201,B000A81I2U,科教文化服务,学校,高等院校,
116.31723908632814,40.03050330216715,中央财经大学(清河校区),朱房路29号,北京市,北京市,清河,科教文化服务;学校;高等院校,141201,B0FFKV8SBQ,科教文化服务,学校,高等院校,
116.31148623367301,40.01362104062937,北京大学(圆明园校区),中关村北大街47号北京大学圆明园校区9-10号楼,北京市,北京市,,科教文化服务;学校;高等院校,141201,B000A7ORTV,科教文化服务,学校,高等院校,
116.33399934382999,40.04888232910027,北京交通运输职业学院,西三旗悦秀路80号,北京市,北京市,西三旗,科教文化服务;学校;高等院校,141201,B000A7PJW7,科教文化服务,学校,高等院校,
116.33361595353846,40.050871934399396,北京明园大学,西三旗悦秀路东侧,北京市,北京市,西三旗,科教文化服务;学校;高等院校,141201,B000A88J0V,科教文化服务,学校,高等院校,
116.30400029026192,40.03933058088226,中关村双创大学,上地五街与创业路交叉口东南100米,北京市,北京市,上地,科教文化服务;学校;高等院校,141201,B0FFHOA5FY,科教文化服务,学校,高等院校,
116.29401719299585,40.04004669481681,北京八维教育软工学院,上地软件园南路57号,北京市,北京市,上地,科教文化服务;学校;高等院校,141201,B0FFFSWQFV,科教文化服务,学校,高等院校,
116.34085379744256,40.03665845433658,北京信息科技大学小营校区,小营东路12号,北京市,北京市,永泰,科教文化服务;学校;高等院校,141201,B0FFFAH1QB,科教文化服务,学校,高等院校,
116.29480045744006,40.04209230658312,八维教育-科技楼2,上地西路与东北旺路交叉口西南150米,北京市,北京市,上地,科教文化服务;学校;高等院校,141201,B0FFG4IVDF,科教文化服务,学校,高等院校,
116.33730186538985,40.041949597783876,北京信息科技大学,育新花园西路西100米,北京市,北京市,清河,科教文化服务;学校;高等院校,141201,B0FFICOVYL,科教文化服务,学校,高等院校,
116.30687789937417,40.025309058124755,亚太商业不动产学院,农大南路1号硅谷亮城2B-609,北京市,北京市,上地,科教文化服务;学校;高等院校,141201,B0FFF5FJB0,科教文化服务,学校,高等院校,
116.33945286312529,40.03637198111743,北京信息科技大学清河小营校区机电实习中心冷加工实习车间,小营东路12号北京信息科技大学清河小营校区,北京市,北京市,永泰,科教文化服务;学校;高等院校,141201,B000A9DJPN,科教文化服务,学校,高等院校,
116.29400551437662,40.03766783805173,八维学院-教研7,唐家岭东路东100米,北京市,北京市,上地,科教文化服务;学校;高等院校,141201,B0FFGTPHAD,科教文化服务,学校,高等院校,
116.33373672024618,40.050567725662674,北京明园研修学院,四拨子北路,北京市,北京市,清河,科教文化服务;学校;高等院校,141201,B0GR5L2ARH,科教文化服务,学校,高等院校,
116.33931794161008,40.03805913708651,北京信息科技大学清河小营校区机电信息与通信工程学院,小营东路12号北京信息科技大学清河小营校区,北京市,北京市,永泰,科教文化服务;学校;高等院校,141201,B0FFFAH92Z,科教文化服务,学校,高等院校,
116.294187930868,40.039581441298864,北京市八维学院云计算学院,唐家岭东路东200米,北京市,北京市,上地,科教文化服务;学校;高等院校,141201,B0FFH8H2HL,科教文化服务,学校,高等院校,
116.29439756737331,40.03933211227214,北京八维研修学院-网工学院,唐家岭东路东200米,北京市,北京市,上地,科教文化服务;学校;高等院校,141201,B0FFGQU9FU,科教文化服务,学校,高等院校,
116.33966121456828,40.037909526123116,北京信息科技大学清河小营校区财务中心,小营东路与育新花园西路交叉口东南150米,北京市,北京市,清河,科教文化服务;学校;高等院校,141201,B0FFGJY6U9,科教文化服务,学校,高等院校,
116.34008437930676,40.03726779895953,北京信息科技大学清河小营校区教1楼,小营东路12号北京信息科技大学清河小营校区,北京市,北京市,永泰,科教文化服务;学校;高等院校,141201,B0FFH23V9U,科教文化服务,学校,高等院校,
116.33018482833914,40.01870405002366,天主教北京总教区神哲学院(北京大修院),后八家路248号,北京市,北京市,,科教文化服务;学校;高等院校,141201,B000A2D145,科教文化服务,学校,高等院校,
116.29355414020344,40.039398479629575,北京市八维学院广告艺术学院,唐家岭东路与唐家岭路交叉口东150米,北京市,北京市,上地,科教文化服务;学校;高等院校,141201,B0FFGTP3WY,科教文化服务,学校,高等院校,
116.31153111845178,40.013739950747535,北京大学海淀高等职业教育学院,西北旺中关村北大街47号,北京市,北京市,,科教文化服务;学校;高等院校,141201,B000A2981B,科教文化服务,学校,高等院校,
116.33915650578199,40.03639051510083,北京信息科技大学清河小营校区机电实习中心电子实习车间,小营东路12号北,北京市,北京市,永泰,科教文化服务;学校;高等院校,141201,B0FFGJY4O6,科教文化服务,学校,高等院校,
116.29355414020344,40.039398479629575,北京市八维研修学院传媒学院,唐家岭东路与唐家岭路交叉口东150米,北京市,北京市,西北旺,科教文化服务;学校;高等院校,141201,B0FFH8H390,科教文化服务,学校,高等院校,
116.3405944040093,40.03627993683975,北京信息科技大学清河小营校区(南区),前屯路,北京市,北京市,永泰,科教文化服务;学校;高等院校,141201,B0G0GCL0EC,科教文化服务,学校,高等院校,
116.33951468073576,40.036748850230865,北京信息科技大学清河小营校区机电实习中心,清河小营东路12号,北京市,北京市,永泰,科教文化服务;学校;高等院校,141201,B0FFH25SSS,科教文化服务,学校,高等院校,
116.34067603038436,40.03783171071118,北京信息科技大学清河小营校区信息管理学院,小营东路12号北京信息科技大学清河小营校区,北京市,北京市,永泰,科教文化服务;学校;高等院校,141201,B0FFGJY6NF,科教文化服务,学校,高等院校,
116.29431671753058,40.03935024336321,北京市八维研修学院网络工程学院,唐家岭新城东路东200米,北京市,北京市,上地,科教文化服务;学校;高等院校,141201,B0FFH8H3F7,科教文化服务,学校,高等院校,
116.33948258914921,40.03801484241171,北京信息科技大学清河小营校区仪器科学与光电工程学院,小营东路,北京市,北京市,永泰,科教文化服务;学校;高等院校,141201,B0FFGJY6QY,科教文化服务,学校,高等院校,
116.29364599907716,40.039159343565,北京八维研修学院移动通信学院,唐家岭东路与唐家岭路交叉口东150米,北京市,北京市,西北旺,科教文化服务;学校;高等院校,141201,B0FFHEZQGS,科教文化服务,学校,高等院校,
116.33975026411987,40.036004464446066,北京信息科技大学清河小营校区电工电子实验教学中心,小营东路12号北京信息科技大学清河小营校区教7楼102,北京市,北京市,永泰,科教文化服务;学校;高等院校,141201,B0HGTD9DPC,科教文化服务,学校,高等院校,
116.33919146720966,40.03609546713522,北京信息科技大学清河小营校区机电实习中心加工中心实习车间,永泰庄北路,北京市,北京市,永泰,科教文化服务;学校;高等院校,141201,B0FFH28F31,科教文化服务,学校,高等院校,
116.29338335843383,40.04018871390999,八维教育科技楼8,唐家岭东路与唐家岭路交叉口东北150米,北京市,北京市,上地,科教文化服务;学校;高等院校,141201,B0FFH00QY8,科教文化服务,学校,高等院校,
116.29968089786296,40.04197207184456,北京青果时代教育科技有限公司,信息路7号数字传媒大厦301室,北京市,北京市,上地,科教文化服务;学校;高等院校,141201,B0FFFORMFK,科教文化服务,学校,高等院校,
116.33986800046648,40.036070249365096,北京信息科技大学清河小营校区教7楼,小营东路12号北京信息科技大学清河小营校区,北京市,北京市,永泰,科教文化服务;学校;高等院校,141201,B0FFGBC3QV,科教文化服务,学校,高等院校,
116.33940991114903,40.0367280401934,北京信息科技大学清河小营校区门诊部南楼,小营东路12号北京信息科技大学清河小营校区内,北京市,北京市,永泰,科教文化服务;学校;高等院校,141201,B000A9Q633,科教文化服务,学校,高等院校,
116.33959140779163,40.03758266880508,北京信息科技大学清河小营校区报告厅,小营东路12号(北京信息科技大学清河小营校区),北京市,北京市,永泰,科教文化服务;学校;高等院校,141201,B0FFH14F22,科教文化服务,学校,高等院校,
116.33940006329705,40.035702110813794,北京信息科技大学清河小营校区教5楼,小营东路12号北京信息科技大学清河小营校区,北京市,北京市,永泰,科教文化服务;学校;高等院校,141201,B000AA0WJD,科教文化服务,学校,高等院校,
116.33934708309977,40.03645116783288,北京信息科技大学清河小营校区机械工程实验教学中心工程训练中心,小营东路69号东100米,北京市,北京市,永泰,科教文化服务;学校;高等院校|科教文化服务;科研机构;科研机构,141201|141300,B0FFH13VFQ,科教文化服务,学校,高等院校|科教文化服务,科研机构
116.34050235054843,40.03825599895706,北京信息科技大学清河小营校区3号办公楼,小营东路78号附近,北京市,北京市,永泰,科教文化服务;学校;高等院校,141201,B0FFFP428D,科教文化服务,学校,高等院校,
116.33885301597924,40.03758200249304,北京信息科技大学清河小营校区第二教学楼,[],北京市,北京市,永泰,科教文化服务;学校;高等院校,141201,B000AA0VF0,科教文化服务,学校,高等院校,
116.33933490228318,40.038078105489056,北京信息科技大学清河小营校区实验楼,小营东路12号北京信息科技大学清河小营校区,北京市,北京市,永泰,科教文化服务;学校;高等院校,141201,B000AA0VF4,科教文化服务,学校,高等院校,
116.33984483288316,40.037779202601925,北京信息科技大学清河小营校区一号办公楼,小营东路与育新花园西路交叉口东南150米,北京市,北京市,永泰,科教文化服务;学校;高等院校,141201,B0FFGAPLHY,科教文化服务,学校,高等院校,
116.33972525732358,40.03648348475042,北京信息科技大学清河小营校区自动化学院,[],北京市,北京市,永泰,科教文化服务;学校;高等院校,141201,B000AA119T,科教文化服务,学校,高等院校,
116.34067603038436,40.03783171071118,北京信息科技大学清河小营校区理学院,小营东路12号北京信息科技大学清河小营校区,北京市,北京市,永泰,科教文化服务;学校;高等院校,141201,B000AA119M,科教文化服务,学校,高等院校,
116.34007466403015,40.01949969402948,北京培黎职业学院-逸3楼,双清路1号北京培黎职业学院,北京市,北京市,,科教文化服务;学校;高等院校,141201,B000AA0VD6,科教文化服务,学校,高等院校,
116.32081235821131,40.01098436716984,清华大学学生节水教育馆,双清路30号清华大学,北京市,北京市,,科教文化服务;学校;高等院校,141201,B0FFFALWGS,科教文化服务,学校,高等院校,
116.3047986254831,39.99152336539453,北京大学,颐和园路5号,北京市,北京市,,科教文化服务;学校;高等院校,141201,B000A816R6,科教文化服务,学校,高等院校,
116.32069272730683,40.002346981383255,清华大学,双清路30号,北京市,北京市,,科教文化服务;学校;高等院校,141201,B000A7BD6C,科教文化服务,学校,高等院校,
116.34111139978953,39.98045754080452,北京航空航天大学学院路校区,学院路37号,北京市,北京市,,科教文化服务;学校;高等院校,141201,B000A830XU,科教文化服务,学校,高等院校,
116.30711744132488,39.969312043827,中国人民大学,中关村大街59号,北京市,北京市,,科教文化服务;学校;高等院校,141201,B000A82ZEK,科教文化服务,学校,高等院校,
116.32456235625527,39.982265385809235,中国科学院大学(中关村南路),中关村南一条3号,北京市,北京市,五道口,科教文化服务;学校;高等院校,141201,B000A81JZN,科教文化服务,学校,高等院校,
116.32965463222956,39.998278973436854,清华大学美术学院B座,双清路30号清华大学,北京市,北京市,,科教文化服务;学校;高等院校,141201,B000A7X2P2,科教文化服务,学校,高等院校,
116.34244648861879,39.99668950220681,中国矿业大学(北京)学院路校区,学院路丁11号,北京市,北京市,五道口,科教文化服务;学校;高等院校,141201,B000A68FF8,科教文化服务,学校,高等院校,
116.31829321399309,39.98672325611252,中国科学院大学纳米科学与技术学院,[],北京市,北京市,,科教文化服务;学校;高等院校,141201,B0FFKHGZOL,科教文化服务,学校,高等院校,
116.30332233047936,39.97099586136163,中国人民大学学生就业指导中心,中关村大街59号,北京市,北京市,,科教文化服务;学校;高等院校|科教文化服务;培训机构;培训机构,141201|141400,B000A7XLYK,科教文化服务,学校,高等院校|科教文化服务,培训机构
116.34070055929853,39.98614103946216,北京城市学院,北四环中路269,北京市,北京市,五道口,科教文化服务;学校;高等院校,141201,B000A81K36,科教文化服务,学校,高等院校,
116.3392826594689,39.9858845958208,中关村学院,北四环中路271-4号(近航空航天大学),北京市,北京市,五道口,科教文化服务;学校;高等院校,141201,B000A7V3OA,科教文化服务,学校,高等院校,
116.34136334306764,39.96879456364046,首都体育学院,北三环西路11号,北京市,北京市,,科教文化服务;学校;高等院校,141201,B000A21FD7,科教文化服务,学校,高等院校,
116.32760275873966,39.987030360274254,德拉学院(五道口校区),北京市海淀区中关村东路18号财智国际大厦C座1106,北京市,北京市,五道口,科教文化服务;学校;高等院校,141201,B0FFLI4BHB,科教文化服务,学校,高等院校,
116.34128695836027,40.00454921042447,北京林业大学,清华东路35-5号,北京市,北京市,,科教文化服务;学校;高等院校,141201,B000A830DN,科教文化服务,学校,高等院校,
116.31259626698923,39.96991679900699,网上人大,中关村大街甲59号文化大厦1601-1610,北京市,北京市,,科教文化服务;学校;高等院校,141201,B000A7QP49,科教文化服务,学校,高等院校,
116.32321197861283,39.99402449242238,北京百年建筑文化交流中心,中关村东路1号院3清华科技园·创业大厦707B-708,北京市,北京市,,科教文化服务;学校;高等院校,141201,B000A7W9AV,科教文化服务,学校,高等院校,
116.32912997583239,39.98137467943797,中国科学院大学经济与管理学院,中关村东路80号青年公寓7,北京市,北京市,五道口,科教文化服务;学校;高等院校,141201,B0FFGJV0QS,科教文化服务,学校,高等院校,
116.30380584145433,39.99063019234723,CALIS全国管理中心,颐和园路5号,北京市,北京市,,科教文化服务;学校;高等院校,141201,B0FFGY3JGX,科教文化服务,学校,高等院校,
116.30618982896686,39.99008089653546,老化学楼东配楼定量生物学中心,颐和园路5号北京大学,北京市,北京市,,科教文化服务;学校;高等院校,141201,B0FFI4WKLC,科教文化服务,学校,高等院校,
116.3244331176087,39.9943951287001,清华大学继续教育学院同学俱乐部,中关村东路1号院创新大厦附近,北京市,北京市,,科教文化服务;学校;高等院校,141201,B0FFFWKDXW,科教文化服务,学校,高等院校,
116.3296447990934,39.98137370009172,中国科学院研究生院中关村园区管理部,中关村东路80号中国科学院大学中关村校区,北京市,北京市,五道口,科教文化服务;学校;高等院校,141201,B0FFFP9VQN,科教文化服务,学校,高等院校,
116.30426033466908,39.96319448834867,北京理工大学自动化学院,中关村南大街5号,北京市,北京市,,科教文化服务;学校;高等院校,141201,B000A88EA5,科教文化服务,学校,高等院校,
116.31829490404395,39.99705081796821,清华大学职工发展中心,清华园街道照澜院停车场北侧,北京市,北京市,,科教文化服务;学校;高等院校,141201,B0HAUUT6E8,科教文化服务,学校,高等院校,
116.33122534813681,39.9722990715114,北京开放大学,大钟寺东路白塔庵5号,北京市,北京市,大钟寺村,科教文化服务;学校;高等院校,141201,B000A8VSQ0,科教文化服务,学校,高等院校,
116.32597928164327,39.980783726185386,中国科学院数学与系统科学研究院南楼,中关村东路51附近,北京市,北京市,,科教文化服务;学校;高等院校,141201,B0FFG9MXUI,科教文化服务,学校,高等院校,
116.30903797490966,39.98734676093957,哈林秀王英语篮球训练营(北京大学校区),颐和园路5号北京大学邱德拔体育馆B2层,北京市,北京市,,科教文化服务;学校;高等院校,141201,B0FFFBX9V6,科教文化服务,学校,高等院校,
116.3302803421806,39.981424491213886,中国科学院大学中关村校区经济与管理学院,[],北京市,北京市,五道口,科教文化服务;学校;高等院校,141201,B0FFLJUYBX,科教文化服务,学校,高等院校,
116.33064247088706,39.98178778989875,中国科学院大学中关村校区公寓管理办公室,中关村东路80号,北京市,北京市,五道口,科教文化服务;学校;高等院校,141201,B0FFH22ETY,科教文化服务,学校,高等院校,
116.30066157604035,39.98900683380988,鸿升讲堂,[],北京市,北京市,,科教文化服务;学校;高等院校,141201,B0FFLJPDJL,科教文化服务,学校,高等院校,
116.30631628070566,39.99226957355623,方楼,北京市海淀区颐和园路5号北京大学,北京市,北京市,,科教文化服务;学校;高等院校,141201,B0FFJHC669,科教文化服务,学校,高等院校,
116.31889004702029,40.00094450756282,清华学堂,双清路(清华大学内),北京市,北京市,,科教文化服务;学校;高等院校|科教文化服务;培训机构;培训机构,141201|141400,B0FFGAN9IJ,科教文化服务,学校,高等院校|科教文化服务,培训机构
116.31096904580322,40.00048159751138,近春园西楼,双清路30号清华大学,北京市,北京市,,科教文化服务;学校;高等院校,141201,B000A9QS21,科教文化服务,学校,高等院校,
116.30156481690075,39.996193945048745,香港理工大学北京联络处,颐和园路5号北京大学镜春园83号,北京市,北京市,,科教文化服务;学校;高等院校,141201,B0FFFDCEPZ,科教文化服务,学校,高等院校,
116.3316791346333,39.98162583656032,中国科学院声像中心,中关村东路80号,北京市,北京市,五道口,科教文化服务;学校;高等院校,141201,B000ABBXEV,科教文化服务,学校,高等院校,
116.31459109685709,39.9752588015846,万通教育集团,知春路113号银网中心a座,北京市,北京市,,科教文化服务;学校;高等院校,141201,B0FFF34ENR,科教文化服务,学校,高等院校,
116.30536675184497,39.972958096716134,中国人民大学北校区物理楼,海淀南路24号,北京市,北京市,,科教文化服务;学校;高等院校,141201,B0FFGJY4AY,科教文化服务,学校,高等院校,
116.29982079994284,39.992868136125715,北京大学-大雅堂,颐和园路5号北京大学,北京市,北京市,,科教文化服务;学校;高等院校,141201,B0G3TDPJQH,科教文化服务,学校,高等院校,
116.31689659892622,40.00102832623711,清华园,清华附中青年公寓20号楼,北京市,北京市,,科教文化服务;学校;高等院校,141201,B0FFH3DJFP,科教文化服务,学校,高等院校,
116.33287830442359,39.99041321600565,美国肯特州立大学中国代表处,优盛大厦C座901号,北京市,北京市,五道口,科教文化服务;学校;高等院校,141201,B000A8W9SN,科教文化服务,学校,高等院校,
116.33579669411108,39.99092075713335,中国地质大学(北京)离退休工作处,展春园西路与成府路交叉口东南200米,北京市,北京市,五道口,科教文化服务;学校;高等院校,141201,B0FFG4JSGL,科教文化服务,学校,高等院校,
116.31244853329794,39.97043205743033,巨人学校中关村校区报名大厅,中关村街道中关村大街49号,北京市,北京市,,科教文化服务;学校;高等院校,141201,B0FFHGM5IU,科教文化服务,学校,高等院校,
116.34029249251836,39.99357945792323,北京语言大学,学院路15号,北京市,北京市,五道口,科教文化服务;学校;高等院校,141201,B0FFFGXI5R,科教文化服务,学校,高等院校,
116.30986558959037,39.968003004932676,中国人民大学劳动人事学院(西2门),中关村大街59号中国人民大学,北京市,北京市,,科教文化服务;学校;高等院校,141201,B000A8WEQ4,科教文化服务,学校,高等院校,
116.32991499877912,39.99858446559424,清华大学美术学院B教学区,双清路30号清华大学,北京市,北京市,,科教文化服务;学校;高等院校,141201,B0FFG3AZHU,科教文化服务,学校,高等院校,
116.29985415120136,39.97363686857189,MJ教育学院,苏州街35号,北京市,北京市,万泉河,科教文化服务;学校;高等院校,141201,B0G2AK3A12,科教文化服务,学校,高等院校,
116.3044125606156,39.990611101132984,calis全国文理文献信息中心,颐和园路5号北京大学,北京市,北京市,,科教文化服务;学校;高等院校,141201,B000A85J18,科教文化服务,学校,高等院校,
116.3003219139089,39.96797328198185,北京经济研修学院,中关村大街59号中国人民大学明德楼主楼,北京市,北京市,万泉河,科教文化服务;学校;高等院校,141201,B000A8W9QG,科教文化服务,学校,高等院校,
116.32641978281198,40.00039505823054,清华大学中央主楼大报告厅,清华大学中央主楼,北京市,北京市,,科教文化服务;学校;高等院校,141201,B0FFFFU1J8,科教文化服务,学校,高等院校,
116.33103077712167,39.972404435196545,北京开放大学北校区电子商务学院,大钟寺东路白塔庵5号,北京市,北京市,大钟寺村,科教文化服务;学校;高等院校,141201,B0FFLJBYA6,科教文化服务,学校,高等院校,
116.33181801433342,39.97220695626532,北京开放大学中医健康管理学院,白塔庵路5号附近,北京市,北京市,大钟寺村,科教文化服务;学校;高等院校,141201,B0G2JZH4ZO,科教文化服务,学校,高等院校,
116.31333609358397,39.96603855404023,中科院心理所研究生二部北馆分部,海淀街道北三环西路47号,北京市,北京市,,科教文化服务;学校;高等院校,141201,B000A7XMUE,科教文化服务,学校,高等院校,
116.33928365476143,39.985904593196736,北京市海淀区职工大学中关村学院,北四环中路271号,北京市,北京市,五道口,科教文化服务;学校;高等院校,141201,B0G0ZUYLOD,科教文化服务,学校,高等院校,
116.32405178315841,40.00396944825155,清华大学书院管理中心,清华大学学生公寓10号楼南区1层,北京市,北京市,,科教文化服务;学校;高等院校,141201,B0G3HU6WOY,科教文化服务,学校,高等院校,
116.34221846902734,39.97706671848964,冯如学生创新中心,学院路37号北京航空航天大学,北京市,北京市,,科教文化服务;学校;高等院校,141201,B0FFG1HJIN,科教文化服务,学校,高等院校,
116.33112042519659,39.981456898822636,中国科学院国家微重力实验室,中关村东路80号,北京市,北京市,五道口,科教文化服务;学校;高等院校|科教文化服务;科研机构;科研机构,141201|141300,B000A8U0JF,科教文化服务,学校,高等院校|科教文化服务,科研机构
116.34211776434108,39.984288601106265,北航集成电路科学与工程学院,北京航空航天大学教学区北区第一馆,北京市,北京市,五道口,科教文化服务;学校;高等院校,141201,B0HGPST3OV,科教文化服务,学校,高等院校,
116.30425534736466,39.963177498009856,北京理工大学北区,中关村南大街5号北京理工大学,北京市,北京市,,科教文化服务;学校;高等院校,141201,B0FFG4OJQY,科教文化服务,学校,高等院校,
116.31739521485797,39.96340392094703,证道商学院,中关村南大街6号中电信息大厦,北京市,北京市,北下关,科教文化服务;学校;高等院校,141201,B0FFHFARFZ,科教文化服务,学校,高等院校,
116.30143650856428,39.96895629019059,迈阿密大学中国区办公室,中关村大街59号汇贤大厦C座407室,北京市,北京市,,科教文化服务;学校;高等院校,141201,B000AA5E3M,科教文化服务,学校,高等院校,
116.33698308789765,39.99858824629154,北京中关村学院影视艺术分院,清华东路东王庄15号,北京市,北京市,五道口,科教文化服务;学校;高等院校,141201,B0FFFEM34G,科教文化服务,学校,高等院校,
116.3424903686286,39.98904474796212,中国地质大学安全生产办公室,中国地质大学(北京)足球场,北京市,北京市,五道口,科教文化服务;学校;高等院校,141201,B0FFHCTHRE,科教文化服务,学校,高等院校,
116.34249036812068,39.98904874779609,中国地质大学交通安全办公室,成府路,北京市,北京市,五道口,科教文化服务;学校;高等院校,141201,B0FFHCTHRF,科教文化服务,学校,高等院校,
116.33813189126262,39.99596825886121,中国矿业大学(北京)离退休人员管理处,学院路丁11号中国矿业大学内,北京市,北京市,五道口,科教文化服务;学校;高等院校,141201,B0FFFEFJDE,科教文化服务,学校,高等院校,
116.34063852607385,39.9953127654045,中国矿业大学(北京)研究生院,学院路丁11号办公3号楼,北京市,北京市,五道口,科教文化服务;学校;高等院校,141201,B0FFLCCV0L,科教文化服务,学校,高等院校,
116.32055232092887,39.96067796683016,中国农业科学院研究生院,中关村南大街12号,北京市,北京市,北下关,科教文化服务;学校;高等院校,141201,B0FFF5W661,科教文化服务,学校,高等院校,
116.33769711946634,40.00168480512743,北京林业大学综合服务办公室,清华东路35号,北京市,北京市,,科教文化服务;学校;高等院校,141201,B0FFFDC0YP,科教文化服务,学校,高等院校,
116.33942159938185,39.9682440606506,首都体育学院继续教育学院招生办,北三环西路15号,北京市,北京市,,科教文化服务;学校;高等院校,141201,B000ABBXCC,科教文化服务,学校,高等院校,
116.31991642418558,40.00304544370264,清华苏伊士环境科学与工程实验实践教学中心,双清路30号,北京市,北京市,,科教文化服务;学校;高等院校,141201,B0FFH1NNO1,科教文化服务,学校,高等院校,
116.31282104673352,39.95973377948388,北京理工大学宇航学院,中关村南大街5号北京理工大学,北京市,北京市,,科教文化服务;学校;高等院校,141201,B000A85CL9,科教文化服务,学校,高等院校,
116.34114235657685,39.995997838180806,中国矿业大学(北京)众创空间,学院路丁11号东1附近,北京市,北京市,五道口,科教文化服务;学校;高等院校,141201,B0FFH2F085,科教文化服务,学校,高等院校,
116.33965021527875,39.99096272160302,中国地质大学工会,学院路29号中国地质大学,北京市,北京市,五道口,科教文化服务;学校;高等院校,141201,B0FFFE387I,科教文化服务,学校,高等院校,
116.29708854013668,39.990482910858596,畅春园、畅春新园学生公寓办公室,颐和园路5号畅春新园,北京市,北京市,,科教文化服务;学校;高等院校,141201,B0FFFVDK94,科教文化服务,学校,高等院校,
116.342075839789,40.00011200769117,北京林业大学-学研大厦,清华东路35号北京林业大学,北京市,北京市,五道口,科教文化服务;学校;高等院校,141201,B0FFGDQZTB,科教文化服务,学校,高等院校,
116.33788071681474,40.00167647043667,北京林业大学信息中心综合办公室,清华东路35号,北京市,北京市,,科教文化服务;学校;高等院校,141201,B0FFFDC0Z1,科教文化服务,学校,高等院校,
116.34029962635852,40.00026615880843,北京林业大学材料科学与技术学院,清华东路35号北京林业大学,北京市,北京市,,科教文化服务;学校;高等院校,141201,B0FFFDC9LL,科教文化服务,学校,高等院校,
116.3280671524401,40.007062613686706,清华大学车辆与运载学院,学堂路,北京市,北京市,,科教文化服务;学校;高等院校,141201,B0FFLPF7I3,科教文化服务,学校,高等院校,
116.33767235732341,40.0002429130115,北京林业大学林学实验教学中心,清华东路35号北京林业大学,北京市,北京市,,科教文化服务;学校;高等院校,141201,B0FFH13PCU,科教文化服务,学校,高等院校,
116.33767235732341,40.0002429130115,北京林业大学森林资源和环境管理实验室,清华东路35号北京林业大学,北京市,北京市,,科教文化服务;学校;高等院校,141201,B0FFH13L5T,科教文化服务,学校,高等院校,
116.30470070374489,39.9607847891906,北京理工大学软件园,北三环西路甲66-1北京理工大学国际教育交流大厦附近,北京市,北京市,,科教文化服务;学校;高等院校,141201,B0FFFDZZQU,科教文化服务,学校,高等院校,
116.34214062442481,40.00072186698668,北京林业大学学研中心A5座,清华东路与静淑苑路交叉口西北150米,北京市,北京市,,科教文化服务;学校;高等院校,141201,B0FFG8W093,科教文化服务,学校,高等院校,
116.34094794403144,40.00251690273046,北京林业大学国际学院,[],北京市,北京市,,科教文化服务;学校;高等院校,141201,B0HG3SDTYS,科教文化服务,学校,高等院校,
116.3402077717219,39.96922660783855,首都体育学院离退休工作处,北三环西路11号首都体育学院,北京市,北京市,,科教文化服务;学校;高等院校,141201,B0FFH16Q0F,科教文化服务,学校,高等院校,
116.30426033466908,39.96319448834867,北京理工大学北区光电学院,中关村南大街5号北京理工大学,北京市,北京市,,科教文化服务;学校;高等院校,141201,B0FFF5UILY,科教文化服务,学校,高等院校,
116.3419099122906,40.002316204758024,北京林业大学教室楼,清华东路35号北京林业大学,北京市,北京市,,科教文化服务;学校;高等院校,141201,B0FFGXSZT9,科教文化服务,学校,高等院校,
116.31276688159332,39.969936475746906,英国国立密德萨斯大学北京教学中心,中关村大街甲59号文化大厦1104室,北京市,北京市,,科教文化服务;学校;高等院校,141201,B0FFFDPWKA,科教文化服务,学校,高等院校,
116.33417023647883,39.96014502501087,北京开放大学2号楼,皂君庙东路南100米,北京市,北京市,大钟寺村,科教文化服务;学校;高等院校,141201,B0FFGBHTS0,科教文化服务,学校,高等院校,
116.34225284953969,40.004935484776695,北京林业大学学生会,清华东路35号北京林业大学,北京市,北京市,,科教文化服务;学校;高等院校,141201,B000A80Y79,科教文化服务,学校,高等院校,
116.3342489933267,39.96066885736392,北京开放大学4号楼,皂君庙东路与四道口南一街交叉路口南侧(北京电大),北京市,北京市,皂君庙,科教文化服务;学校;高等院校,141201,B0FFGBHTS2,科教文化服务,学校,高等院校,
116.3338958148901,39.96044352536338,北京开放大学3号楼,皂君庙东路西100米,北京市,北京市,皂君庙,科教文化服务;学校;高等院校,141201,B0FFGBHH01,科教文化服务,学校,高等院校,
116.33480778922248,39.9602928320243,北京开放大学5号楼,皂君庙东路甲4号附近,北京市,北京市,北下关,科教文化服务;学校;高等院校,141201,B0FFGBHHNV,科教文化服务,学校,高等院校,
116.33852865417987,39.98313107441025,中国教育工会北京航空航天大学委员会,学院路37号北京航空航天大学思源楼,北京市,北京市,五道口,科教文化服务;学校;高等院校,141201,B000A7XLMW,科教文化服务,学校,高等院校,
116.34187028562539,39.97646735719578,北京航空航天大学学知楼(东门),学院路37号北京航空航天大学,北京市,北京市,,科教文化服务;学校;高等院校,141201,B000A84N9D,科教文化服务,学校,高等院校,
116.34182535046224,40.000289442405,北京林业大学·学研中心大厦B3座,清华东路35号北京林业大学,北京市,北京市,,科教文化服务;学校;高等院校,141201,B0FFG8URO4,科教文化服务,学校,高等院校,
116.34232822025808,39.9771915201539,北京文理研修学院民航管理学院,学院路37号北京航空航天大学,北京市,北京市,,科教文化服务;学校;高等院校,141201,B000AA0CHS,科教文化服务,学校,高等院校,
116.342153335793,40.00277675501077,北京林业大学环境科学与工程学院,清华东路35号北京林业大学,北京市,北京市,,科教文化服务;学校;高等院校,141201,B0FFFDC9LZ,科教文化服务,学校,高等院校,
116.3290421794578,39.9813528475058,中国科学院大学MBA教育管理中心,中关村东路80号青年公寓7,北京市,北京市,五道口,科教文化服务;学校;高等院校,141201,B000A8VRB6,科教文化服务,学校,高等院校,
116.30916616125755,39.95982963307817,北京理工大学治安科办公室,体育北路与校园中路交叉口西北150米,北京市,北京市,,科教文化服务;学校;高等院校,141201,B0FFGY66UX,科教文化服务,学校,高等院校,
116.34107099079189,39.99221612551331,北京语言大学综合楼,成府路(北京语言大学),北京市,北京市,五道口,科教文化服务;学校;高等院校,141201,B0FFGHP1N3,科教文化服务,学校,高等院校,
116.32311841119208,39.96070302885134,中国农业科学院国家小麦改良中心,农科四路35号,北京市,北京市,北下关,科教文化服务;学校;高等院校,141201,B0FFLM2AAZ,科教文化服务,学校,高等院校,
116.30424039210216,39.963073529084326,北京理工大学中关村校区自动化学院,北三环西路,北京市,北京市,,科教文化服务;学校;高等院校,141201,B0FFLKPIZG,科教文化服务,学校,高等院校,
116.31701989350887,39.96481658354332,金池国际语言学院,中关村南大街2号数码大厦a座,北京市,北京市,北下关,科教文化服务;学校;高等院校,141201,B000AB9BBF,科教文化服务,学校,高等院校,
116.33952511188161,40.00177148486434,林木分子设计育种高精尖创新中心一部,北京林业大学标本馆东侧,北京市,北京市,,科教文化服务;学校;高等院校,141201,B0FFLAQFKH,科教文化服务,学校,高等院校,
116.3401842837038,40.00491616212727,北京林业大学工学院(文成杰座住宅楼西),清华东路35号北京林业大学,北京市,北京市,,科教文化服务;学校;高等院校,141201,B0FFFAIGYE,科教文化服务,学校,高等院校,
116.30916616125755,39.95982963307817,北京理工大学校园停车管理办公室,体育北路与校园中路交叉口西北150米,北京市,北京市,,科教文化服务;学校;高等院校,141201,B0FFGY6AXC,科教文化服务,学校,高等院校,
116.3376693637831,40.000243918435366,北京林业大学国家林业有害生物防治产业技术创新战略联盟秘书处,清华东路35号北京林业大学北京林业大学科技园附近,北京市,北京市,,科教文化服务;学校;高等院校,141201,B0FFH12UG7,科教文化服务,学校,高等院校,
116.33821869710684,39.99599809959681,中国矿业大学(北京)工会教工之家,学院路丁11号中国矿业大学(学院路校区)内,北京市,北京市,五道口,科教文化服务;学校;高等院校,141201,B0FFFEFK7L,科教文化服务,学校,高等院校,
116.34054684779969,39.98647430024541,北京城市学院本部-北京城市学教一,北四环中路269号附近,北京市,北京市,五道口,科教文化服务;学校;高等院校,141201,B000AA4LAP,科教文化服务,学校,高等院校,
116.33772026350277,40.00015182947702,北京林业大学蓝莓研究发展中心,清华东路35号北京林业大学,北京市,北京市,五道口,科教文化服务;学校;高等院校,141201,B0FFFDC0VU,科教文化服务,学校,高等院校,
116.33767235732341,40.0002429130115,北京林业大学测绘与3S技术中心,清华东路35号北京林业大学,北京市,北京市,,科教文化服务;学校;高等院校,141201,B0FFH13QBL,科教文化服务,学校,高等院校,
116.34066147007726,39.99536472221511,中国矿业大学(北京)教职工之家,学院路13号西南60米,北京市,北京市,五道口,科教文化服务;学校;高等院校,141201,B0FFFEFK7P,科教文化服务,学校,高等院校,
116.31992239956696,40.00313142844764,清华苏伊士环境环境科学与工程实验实践教学中心,双清路30号清华大学清华大学照澜院双清路30号清华苏伊士环境环境科学与工程实验实践教学中心,北京市,北京市,,科教文化服务;学校;高等院校,141201,B000AA4L19,科教文化服务,学校,高等院校,
116.31856729805051,39.965264599148206,维尚形象管理学院(海淀双安分部),双安商场西侧科技会展中心1号楼B座甲3K号,北京市,北京市,双榆树,科教文化服务;学校;高等院校,141201,B0FFFTCGN1,科教文化服务,学校,高等院校,
116.33756553662357,40.00068208912949,北京林业大学-生物学实验教学中心,清华东路35号北京林业大学,北京市,北京市,,科教文化服务;学校;高等院校,141201,B0FFF5BVI1,科教文化服务,学校,高等院校,
116.32354380282196,39.96567201310338,中国人民大学外国语学院英美留学招生中心,北三环西路甲30号双天大厦3层305室,北京市,北京市,双榆树,科教文化服务;学校;高等院校,141201,B000A7ZWKR,科教文化服务,学校,高等院校,
116.3193929126813,39.961244173325376,中国农业科学院研究生院饲料所科研辅助楼,中关村南大街12号中国农科院,北京市,北京市,北下关,科教文化服务;学校;高等院校,141201,B000A7X70V,科教文化服务,学校,高等院校,
116.33916305325197,40.00056119084682,北京林业大学外语学院,清华东路35号北京林业大学,北京市,北京市,,科教文化服务;学校;高等院校,141201,B000AA11NI,科教文化服务,学校,高等院校,
116.30457890720041,39.96122399185307,韩国建国大学北京办事处,北三环西路甲66-1号北京理工大学国际教育交流大厦910,北京市,北京市,,科教文化服务;学校;高等院校,141201,B000A7ZPKJ,科教文化服务,学校,高等院校,
116.34251095723546,39.96835055428474,首都体育学院报告厅,北三环西路11号首都体育学院,北京市,北京市,,科教文化服务;学校;高等院校,141201,B0FFH16SO9,科教文化服务,学校,高等院校,
116.34235118650814,39.96920980090511,首都体育学院读者服务部,北三环西路11号首都体育学院,北京市,北京市,,科教文化服务;学校;高等院校,141201,B0FFH14TRI,科教文化服务,学校,高等院校,
116.34029962635852,40.00026615880843,北京林业大学木材料科学与技术实验教学中心,清华东路35号,北京市,北京市,,科教文化服务;学校;高等院校,141201,B0FFFDC28C,科教文化服务,学校,高等院校,
116.33894808998981,39.996093771857055,中国教育工会中国矿业大学(北京)委员会,学院路丁11号中国矿业大学,北京市,北京市,五道口,科教文化服务;学校;高等院校,141201,B0FFFEFK7M,科教文化服务,学校,高等院校,
116.32592436466422,39.99690915824741,清华大学法学院,双清路30号清华大学,北京市,北京市,,科教文化服务;学校;高等院校,141201,B000A84K3X,科教文化服务,学校,高等院校,
116.32702965385062,39.9982399832612,清华大学建筑学院,双清路30号清华大学,北京市,北京市,,科教文化服务;学校;高等院校,141201,B000A7Q6H5,科教文化服务,学校,高等院校,
116.31776978091452,39.99962371444428,清华大学招生办公室,双清路30号,北京市,北京市,,科教文化服务;学校;高等院校,141201,B000A7Q6II,科教文化服务,学校,高等院校,
116.30848403458532,39.98858273746265,北京大学马克思主义学院,颐和园路5号北京大学,北京市,北京市,,科教文化服务;学校;高等院校,141201,B000A84LKJ,科教文化服务,学校,高等院校,
116.2998077133109,39.99376712084256,北京大学外国语学院(蔚秀园东),颐和园路5号北京大学,北京市,北京市,,科教文化服务;学校;高等院校,141201,B000A80D7M,科教文化服务,学校,高等院校,
116.34225284953969,40.004935484776695,北京林业大学社团联合会,清华东路35号北京林业大学,北京市,北京市,,科教文化服务;学校;高等院校,141201,B000A80Y77,科教文化服务,学校,高等院校,
116.32583939100287,39.99824426393963,清华大学经济管理学院,双清路30号清华大学,北京市,北京市,,科教文化服务;学校;高等院校,141201,B000A7DDUK,科教文化服务,学校,高等院校,
116.3199644801881,40.00173040877136,清华大学新闻与传播学院,双清路30号学堂路清华大学,北京市,北京市,,科教文化服务;学校;高等院校,141201,B000A85HK8,科教文化服务,学校,高等院校,
116.34248742283992,39.98866776886275,中国地质大学北京校区体育课部,学院路29号中国地质大学,北京市,北京市,五道口,科教文化服务;学校;高等院校,141201,B000AA11EC,科教文化服务,学校,高等院校,
116.307476523618,39.962468655770465,北京理工大学实验教学示范中心,中关村南大街5号北京理工大学,北京市,北京市,,科教文化服务;学校;高等院校,141201,B0FFFDHWYI,科教文化服务,学校,高等院校,
116.30709656553864,39.96868510724417,中国高等人文科学文献中心学科中心,中关村大街59号中国人民大学,北京市,北京市,,科教文化服务;学校;高等院校,141201,B000A7XLB8,科教文化服务,学校,高等院校,
116.34235765477058,40.00471830984676,学生公寓管理办公室,清华园街道清华东路35号,北京市,北京市,,科教文化服务;学校;高等院校|生活服务;生活服务场所;生活服务场所,141201|070000,B0FFFDCSXR,科教文化服务,学校,高等院校|生活服务,生活服务场所
116.34216432060093,40.00271273844717,北京林业大学计算机实验教学中心,清华东路35号北京林业大学,北京市,北京市,,科教文化服务;学校;高等院校,141201,B000AA4LLD,科教文化服务,学校,高等院校,
116.30457790919314,39.96122499361588,英国威尔士大学招生办公室,北三环西路甲66-1北京理工大学国际教育交流大厦909,北京市,北京市,,科教文化服务;学校;高等院校,141201,B000A7BGQ1,科教文化服务,学校,高等院校,
116.3401842837038,40.00491616212727,北京林业大学林业工程装备与技术实验教学中心,林业大学北路18-30号附近,北京市,北京市,,科教文化服务;学校;高等院校,141201,B0FFFLJ9T7,科教文化服务,学校,高等院校,
116.34232822025808,39.9771915201539,北京航空航天大学交通学院土木工程系,学院路37号北京航空航天大学为民楼6层,北京市,北京市,,科教文化服务;学校;高等院校,141201,B000A8ZJ6C,科教文化服务,学校,高等院校,
116.34087840034533,39.99224646726518,北京语言大学网络教育学院,学院路15号北京语言大学办公楼135室,北京市,北京市,五道口,科教文化服务;学校;高等院校,141201,B000AA11YA,科教文化服务,学校,高等院校,
116.34232822025808,39.9771915201539,北京航空航天大学交通学院机场与道路工程系,学院路37号北京航空航天大学,北京市,北京市,,科教文化服务;学校;高等院校,141201,B000A8ZIX5,科教文化服务,学校,高等院校,
116.30285880193682,39.95985935236806,北京理工大学设计艺术学院传统工艺美术系雕塑工作室,中关村南大街5号北京理工大学,北京市,北京市,,科教文化服务;学校;高等院校,141201,B000A7Z0D3,科教文化服务,学校,高等院校,
116.30285880193682,39.95985935236806,北京理工大学设计艺术学院传统工艺美术系漆艺工作室,中关村南大街5号北京理工大学,北京市,北京市,,科教文化服务;学校;高等院校,141201,B000A7Z0D7,科教文化服务,学校,高等院校,
116.30283176020632,39.95984518111568,北京理工大学设计艺术学院传统工艺美术系丝网印工作室,中关村南大街5号北京理工大学,北京市,北京市,,科教文化服务;学校;高等院校,141201,B000A7Z0D4,科教文化服务,学校,高等院校,
116.30107700040493,39.97092184351998,中国人民大学外国语学院,中关村大街59号中国人民大学,北京市,北京市,,科教文化服务;学校;高等院校,141201,B000A80C2F,科教文化服务,学校,高等院校,
116.3089762105246,39.98655490854232,东京大学北京代表处,中关村北大街151号燕园大厦10层1018,北京市,北京市,中关村,科教文化服务;学校;高等院校,141201,B000A7OVJ7,科教文化服务,学校,高等院校,
116.31085257723868,39.99040124536869,北京大学-化学楼,成府路202号北京大学化学与分子工程学院,北京市,北京市,,科教文化服务;学校;高等院校,141201,B000A85DIQ,科教文化服务,学校,高等院校,
116.32597988085665,39.98393659578112,中国科学院思源楼,中关村东路55号,北京市,北京市,五道口,科教文化服务;学校;高等院校,141201,B0FFH258MS,科教文化服务,学校,高等院校,
116.32433506187941,39.98082788143038,中国科学院大学-教学楼,中关村南一条,北京市,北京市,,科教文化服务;学校;高等院校,141201,B000AA0WZ0,科教文化服务,学校,高等院校,
116.30554152163853,39.987696177687276,北京大学教育学院,颐和园路5号北京大学,北京市,北京市,,科教文化服务;学校;高等院校,141201,B000A91SLI,科教文化服务,学校,高等院校,
116.30685151300018,39.98918872241768,北京大学计算中心,颐和园路5号北京大学逸夫苑,北京市,北京市,,科教文化服务;学校;高等院校,141201,B000A2D3E2,科教文化服务,学校,高等院校,
116.3114942938268,39.989245088427566,北京大学分析测试中心,成府路202号附近,北京市,北京市,,科教文化服务;学校;高等院校,141201,B0FFG39QS6,科教文化服务,学校,高等院校,
116.30712898989975,39.988569238710994,北京大学团委,颐和园路5号,北京市,北京市,,科教文化服务;学校;高等院校,141201,B000A96FT7,科教文化服务,学校,高等院校,
116.32524486138091,39.997443439331256,清华大学公共管理学院,双清路30号清华大学,北京市,北京市,,科教文化服务;学校;高等院校,141201,B000A830D7,科教文化服务,学校,高等院校,
116.3074242767053,39.98914067168079,北京大学数学科学学院,颐和园路5号北京大学,北京市,北京市,,科教文化服务;学校;高等院校,141201,B000A7WEB3,科教文化服务,学校,高等院校,
116.32464236959808,39.996493637209916,清华大学精仪系,双清路30号清华大学,北京市,北京市,,科教文化服务;学校;高等院校,141201,B000A7Q6HB,科教文化服务,学校,高等院校,
116.30560926679026,39.988567018223165,北京大学现代教育技术中心,颐和园路5号北京大学,北京市,北京市,,科教文化服务;学校;高等院校,141201,B000A7ORT4,科教文化服务,学校,高等院校,
116.32619836748098,39.98402117335568,中国科学院大学数学科学学院,中关村街道中关村东路55号,北京市,北京市,五道口,科教文化服务;学校;高等院校,141201,B0FFF5W6AW,科教文化服务,学校,高等院校,
116.30757462060177,39.967945257063256,中国人民大学文学院,中关村大街59号,北京市,北京市,,科教文化服务;学校;高等院校,141201,B000A7XLYD,科教文化服务,学校,高等院校,
116.31095347476817,39.989435096504224,北京大学化学试剂库,成府路202号北京大学,北京市,北京市,,科教文化服务;学校;高等院校,141201,B0FFGS800E,科教文化服务,学校,高等院校,
116.30854972021228,39.98993455931256,北京大学保卫部,颐和园路5号北京大学内,北京市,北京市,,科教文化服务;学校;高等院校,141201,B000A7ORQQ,科教文化服务,学校,高等院校,
116.30852285661896,39.989319634795244,北京大学微纳电子学系,颐和园路5号逸夫苑北京大学,北京市,北京市,,科教文化服务;学校;高等院校,141201,B0FFFDCQSH,科教文化服务,学校,高等院校,
116.30863745679406,39.99049837305296,北京大学地球与空间科学学院,颐和园路5号,北京市,北京市,,科教文化服务;学校;高等院校,141201,B000A7ORQZ,科教文化服务,学校,高等院校,
116.30852285661896,39.989319634795244,北京大学天文学系,颐和园路5号逸夫苑北京大学,北京市,北京市,,科教文化服务;学校;高等院校,141201,B000A7ZWI9,科教文化服务,学校,高等院校,
116.30851287470179,39.98934965203998,北京大学信息科学中心,颐和园路5号逸夫苑北京大学,北京市,北京市,,科教文化服务;学校;高等院校,141201,B000A7ORTD,科教文化服务,学校,高等院校,
116.32862814242287,39.99700498233428,清华大学环境学院,双清路30号清华园清华大学,北京市,北京市,,科教文化服务;学校;高等院校,141201,B000A8487V,科教文化服务,学校,高等院校,
116.30276059879364,39.97026089335996,中国人民大学法学院,中关村大街59号中国人民大学明德法学楼,北京市,北京市,,科教文化服务;学校;高等院校,141201,B000A480AB,科教文化服务,学校,高等院校,
116.32308208416072,39.99555467725796,清华大学机械工程系,双清路30号清华大学,北京市,北京市,,科教文化服务;学校;高等院校,141201,B000A8VUP9,科教文化服务,学校,高等院校,
116.30570843860811,39.98551596423416,北京大学新闻与传播学院,颐和园路5号北京大学,北京市,北京市,,科教文化服务;学校;高等院校,141201,B0FFFAHWGR,科教文化服务,学校,高等院校,
116.30619539562197,39.98548907720065,北京大学总务部,海淀路46附近,北京市,北京市,,科教文化服务;学校;高等院校,141201,B0FFFDCQRF,科教文化服务,学校,高等院校,
116.30619539562197,39.98548907720065,北京大学基建工程部,海淀路44号附近,北京市,北京市,,科教文化服务;学校;高等院校,141201,B0FFFDCMEP,科教文化服务,学校,高等院校,
116.31380924976726,40.00387508794004,清华大学理学院,双清路30号清华园清华大学,北京市,北京市,,科教文化服务;学校;高等院校,141201,B000A81HZQ,科教文化服务,学校,高等院校,
116.3044785420802,39.989647022410004,北京大学心理学系,颐和园路5号北京大学,北京市,北京市,,科教文化服务;学校;高等院校,141201,B000A7WEBA,科教文化服务,学校,高等院校,
116.30690539624152,39.989189623503734,北京大学网络中心,颐和园路5号北京大学,北京市,北京市,,科教文化服务;学校;高等院校,141201,B000A3C116,科教文化服务,学校,高等院校,
116.29978094512475,39.9923552268642,北京大学财务部,颐和园路5号北京大学,北京市,北京市,,科教文化服务;学校;高等院校,141201,B000A7ORQU,科教文化服务,学校,高等院校,
116.31380924976726,40.00387508794004,清华大学物理系,双清路30号清华园清华大学,北京市,北京市,,科教文化服务;学校;高等院校,141201,B000A7Q6I6,科教文化服务,学校,高等院校,
116.32464236959808,39.996493637209916,清华大学机械工程学院,双清路30号清华大学,北京市,北京市,,科教文化服务;学校;高等院校,141201,B000A7Q6GX,科教文化服务,学校,高等院校,
116.32808154893962,39.99579407700851,清华大学B座,[],北京市,北京市,五道口,科教文化服务;学校;高等院校,141201,B0FFM108E3,科教文化服务,学校,高等院校,
116.32107581760178,39.99466957507439,清华大学新林院南园,学堂路,北京市,北京市,,科教文化服务;学校;高等院校,141201,B0FFLOZ67W,科教文化服务,学校,高等院校,
116.32033761173247,40.00181368766278,清华大学信息化技术中心电信与工程技术组,学堂路,北京市,北京市,,科教文化服务;学校;高等院校,141201,B0FFLOYU3I,科教文化服务,学校,高等院校,
116.32390103902404,39.99680004900834,清华大学教学实验中心,日新路,北京市,北京市,,科教文化服务;学校;高等院校|科教文化服务;科研机构;科研机构,141201|141300,B0FFLO9KOA,科教文化服务,学校,高等院校|科教文化服务,科研机构
116.31386324225363,40.00297002515958,清华大学伟伦馆,近春路,北京市,北京市,,科教文化服务;学校;高等院校,141201,B0FFLM2QMN,科教文化服务,学校,高等院校,
116.34197327776806,39.98266792269127,北京航空航天大学学院路校区马克思主义学院,[],北京市,北京市,五道口,科教文化服务;学校;高等院校,141201,B0FFLKPUIV,科教文化服务,学校,高等院校,
116.34221171107893,39.98313848279808,北京航空航天大学学院路校区人文社会科学学院,[],北京市,北京市,五道口,科教文化服务;学校;高等院校,141201,B0FFLKM3JL,科教文化服务,学校,高等院校,
116.34217815451596,39.9802126616668,北京航空航天大学学院路校区培训中心,学院路37号,北京市,北京市,,科教文化服务;学校;高等院校,141201,B0FFLK0N63,科教文化服务,学校,高等院校,
116.32375942169834,40.004247998127134,清华大学新雅书院,清华大学10号楼北楼内,北京市,北京市,,科教文化服务;学校;高等院校,141201,B0FFLFL7ST,科教文化服务,学校,高等院校,
116.34198725540709,39.982609900390734,北京航空航天大学高等教育研究院,北京航空航天大学图书馆西配楼2层,北京市,北京市,五道口,科教文化服务;学校;高等院校,141201,B0FFL9M1CV,科教文化服务,学校,高等院校,
116.32355603254126,39.995233779298026,清华大学车辆与运载学院,学堂路,北京市,北京市,,科教文化服务;学校;高等院校,141201,B0FFKZT51V,科教文化服务,学校,高等院校,
116.32815688760346,39.999645767767866,清华大学东配楼,明德路与清华路交叉口南50米,北京市,北京市,,科教文化服务;学校;高等院校,141201,B0FFKWV911,科教文化服务,学校,高等院校,
116.32357484847189,40.004237353542685,清华大学教材服务中心,荷清路(清华大学),北京市,北京市,,科教文化服务;学校;高等院校,141201,B0FFKPX65X,科教文化服务,学校,高等院校,
116.30031892727543,39.96791528950057,中国人民大学学知楼,万泉河路83号,北京市,北京市,万泉河,科教文化服务;学校;高等院校,141201,B0FFKHNLBM,科教文化服务,学校,高等院校,
116.29988656249732,39.99369698700458,北京大学外国语学院,颐和园路5号北京大学,北京市,北京市,,科教文化服务;学校;高等院校,141201,B0FFK27QEZ,科教文化服务,学校,高等院校,
116.32050524745968,40.00164537259719,清华大学教师发展中心,清华大学第五教室楼北侧,北京市,北京市,,科教文化服务;学校;高等院校,141201,B0FFJHVCLP,科教文化服务,学校,高等院校,
116.32304711534675,39.995944727896116,清华大学基础工业训练中心,科技大楼西北区,北京市,北京市,,科教文化服务;学校;高等院校,141201,B0FFJ0WH3J,科教文化服务,学校,高等院校,
116.3209566178742,39.99841464425745,清华大学安全生产管理办公室,双清路30号清华大学,北京市,北京市,,科教文化服务;学校;高等院校,141201,B0FFILIC5A,科教文化服务,学校,高等院校,
116.32394195618159,39.98091763344271,中国科学院大学中关村校区(教学楼),中关村南一条3号,北京市,北京市,五道口,科教文化服务;学校;高等院校,141201,B0FFICYOFP,科教文化服务,学校,高等院校,
116.3140863500487,39.99812881151243,清华大学西10楼,清华路与近春路交叉口东150米,北京市,北京市,,科教文化服务;学校;高等院校,141201,B0FFI9PCQH,科教文化服务,学校,高等院校,
116.30519434120676,39.99502050067115,北京大学1号楼,颐和园路5号北京大学,北京市,北京市,,科教文化服务;学校;高等院校,141201,B0FFI5H09D,科教文化服务,学校,高等院校,
116.32105859149137,40.0046671757396,清华大学发展规划处,双清路30号清华大学内,北京市,北京市,,科教文化服务;学校;高等院校,141201,B0FFI3EL3A,科教文化服务,学校,高等院校,
116.32421168840082,40.00180923543858,清华大学A区,双清路30号清华大学,北京市,北京市,,科教文化服务;学校;高等院校,141201,B0FFI38OAC,科教文化服务,学校,高等院校,
116.30513033293047,39.99617056779712,北京大学历史学系,李兆基人文学苑5号楼,北京市,北京市,,科教文化服务;学校;高等院校,141201,B0FFHWX9GD,科教文化服务,学校,高等院校,
116.30157158541006,39.989978195597644,北京大学三院,颐和园路5号附近,北京市,北京市,,科教文化服务;学校;高等院校,141201,B0FFHSHE5M,科教文化服务,学校,高等院校,
116.32215213283988,40.00419409249716,清华大学学生职业发展指导中心,清华大学学堂路清芬园南侧,北京市,北京市,,科教文化服务;学校;高等院校,141201,B0FFHOBY5P,科教文化服务,学校,高等院校,
116.34215461174865,39.97701083329874,北京航空航天大学学院路校区交通学院,校园东路与知春路交叉路口往北约200米,北京市,北京市,,科教文化服务;学校;高等院校,141201,B0FFHLMNVD,科教文化服务,学校,高等院校,
116.32952809433786,40.004795930114945,清华大学地球系统科学系,明德路与至善路交叉口东南150米,北京市,北京市,,科教文化服务;学校;高等院校,141201,B0FFHL1XSA,科教文化服务,学校,高等院校,
116.31700525186393,40.0018110841864,清华大学-工字厅后厅,熙春路,北京市,北京市,,科教文化服务;学校;高等院校,141201,B0FFHI647J,科教文化服务,学校,高等院校,
116.31560151303495,40.001314788871575,清华大学港澳台事务办公室国际合作与交流处,双清路30号清华大学,北京市,北京市,,科教文化服务;学校;高等院校,141201,B0FFHGNYSJ,科教文化服务,学校,高等院校,
116.31040989576988,40.00358850987986,清华大学生物科学学院,双清路30号清华大学附近,北京市,北京市,,科教文化服务;学校;高等院校,141201,B0FFHGN7JR,科教文化服务,学校,高等院校,
116.30246718300367,39.994315428097465,北京大学艺术学院,颐和园路5号红6楼,北京市,北京市,,科教文化服务;学校;高等院校,141201,B0FFHGM7JJ,科教文化服务,学校,高等院校,
116.30591676236659,39.99526917606622,北京大学-哲学系,颐和园路5号北京大学,北京市,北京市,,科教文化服务;学校;高等院校,141201,B0FFHGM3MX,科教文化服务,学校,高等院校,
116.32737484603106,39.99835631777929,清华大学-清华营建,双清路30号清华园清华大学清华大学建筑馆北楼附近,北京市,北京市,,科教文化服务;学校;高等院校,141201,B0FFHFJF71,科教文化服务,学校,高等院校,
116.30447554931209,39.98964002810376,北京大学心理与认知科学学院,颐和园路5号北京大学,北京市,北京市,,科教文化服务;学校;高等院校,141201,B0FFHEGES3,科教文化服务,学校,高等院校,
116.31040690366817,40.0035785159184,清华大学生物医学测试中心,双清路30号清华大学,北京市,北京市,,科教文化服务;学校;高等院校|科教文化服务;科研机构;科研机构,141201|141300,B0FFH9RZGG,科教文化服务,学校,高等院校|科教文化服务,科研机构
116.32442298132872,39.995655094585345,清华大学中国教育和科研计算机网网络中心,清华园街道清华大学东门信息科学技术大楼4206室,北京市,北京市,,科教文化服务;学校;高等院校,141201,B0FFH9118N,科教文化服务,学校,高等院校,
116.3244359576407,39.995606071736894,清华大学信息化技术中心,日新路,北京市,北京市,,科教文化服务;学校;高等院校,141201,B0FFH7W6IK,科教文化服务,学校,高等院校,
116.30068687928139,39.986185906692086,北京大学-收发室,颐和园路5号北京大学(燕园校区)内,北京市,北京市,,科教文化服务;学校;高等院校,141201,B0FFH1YMHN,科教文化服务,学校,高等院校,
116.3117902549572,39.99223940582786,北京大学-液氦中心,成府路207号西北80米,北京市,北京市,,科教文化服务;学校;高等院校,141201,B0FFH1H86I,科教文化服务,学校,高等院校,
116.31400884268776,40.00352972418101,清华大学-分析中心,熙春路与至善路交叉口西南200米,北京市,北京市,,科教文化服务;学校;高等院校,141201,B0FFH1B46N,科教文化服务,学校,高等院校,
116.31904803863385,40.00604798014761,清华大学物业管理中心南区学生公寓办公室,学堂路,北京市,北京市,,科教文化服务;学校;高等院校,141201,B0FFH18CSR,科教文化服务,学校,高等院校,
116.3016815444692,39.988500063336836,北京大学国家大型科学仪器中心北京核磁共振中心,颐和园路5号(北京大学学五食堂北),北京市,北京市,,科教文化服务;学校;高等院校,141201,B0FFH14HSF,科教文化服务,学校,高等院校,
116.32137813117214,40.00249265642257,清华大学三江源协同创新中心,双清路30号,北京市,北京市,,科教文化服务;学校;高等院校,141201,B0FFH12MD8,科教文化服务,学校,高等院校,
116.30969296633732,39.99975501629299,清华大学接待中心车队办公室,双清路30号,北京市,北京市,,科教文化服务;学校;高等院校,141201,B0FFH0UQH2,科教文化服务,学校,高等院校,
116.32584337890908,39.998267255300576,清华大学伟伦楼国际报告厅,双清路30号,北京市,北京市,,科教文化服务;学校;高等院校,141201,B0FFH083HX,科教文化服务,学校,高等院校,
116.30255234784228,39.9915973914789,北京大学元培学院,北京大学俄文楼,北京市,北京市,,科教文化服务;学校;高等院校,141201,B0FFH083FQ,科教文化服务,学校,高等院校,
116.32239994340533,40.00118174745535,清华大学第三教室楼一段,清华大学-第三教室楼内,北京市,北京市,,科教文化服务;学校;高等院校,141201,B0FFGZSK3B,科教文化服务,学校,高等院校,
116.31437274915496,40.00567193825923,清华大学生物医学馆,熙春路与至善路交叉口西北150米,北京市,北京市,,科教文化服务;学校;高等院校,141201,B0FFGZP16D,科教文化服务,学校,高等院校,
116.31214316232075,40.00255929808989,清华大学药学院,双清路30号清华大学,北京市,北京市,,科教文化服务;学校;高等院校,141201,B0FFGZOMOU,科教文化服务,学校,高等院校,
116.30569032500577,39.9867259471651,北京大学信息管理系,北京大学方李邦琴楼,北京市,北京市,,科教文化服务;学校;高等院校,141201,B0FFGQJ1EC,科教文化服务,学校,高等院校,
116.32812501540843,40.007096501697596,清华大学-汽车工程系,双清路30号清华大学内,北京市,北京市,,科教文化服务;学校;高等院校,141201,B0FFGO3Y9R,科教文化服务,学校,高等院校,
116.30592175277982,39.995260167349485,北京大学-宗教学系,未名北路与镜春路交叉口东北150米,北京市,北京市,,科教文化服务;学校;高等院校,141201,B0FFGK39AU,科教文化服务,学校,高等院校,
116.3312490565733,39.9820576310521,中国科学院大学学生处,中国科学院大学(中关村校区),北京市,北京市,五道口,科教文化服务;学校;高等院校,141201,B0FFGJV120,科教文化服务,学校,高等院校,
116.30359749060995,39.988961635916304,北京大学党委统战部,颐和园路5号北京大学燕南园,北京市,北京市,,科教文化服务;学校;高等院校,141201,B0FFGJRIA1,科教文化服务,学校,高等院校,
116.32907683815222,40.00706768809678,清华大学化学工程实验教学中心,双清路30号清华大学,北京市,北京市,,科教文化服务;学校;高等院校,141201,B0FFGJR95H,科教文化服务,学校,高等院校,
116.31341391306415,40.005681758043,清华大学生物医学楼B座,双清路30号清华大学,北京市,北京市,,科教文化服务;学校;高等院校,141201,B0FFGIIKXY,科教文化服务,学校,高等院校,
116.2993390248263,39.990861054248256,北京大学校长法律顾问办公室,北京大学勺园5号楼3层,北京市,北京市,,科教文化服务;学校;高等院校,141201,B0FFGIIKUH,科教文化服务,学校,高等院校,
116.2993390248263,39.990861054248256,北京大学纪委办公室检查室,北京大学勺园5号楼5层,北京市,北京市,,科教文化服务;学校;高等院校,141201,B0FFGIIKNQ,科教文化服务,学校,高等院校,
116.31441303880966,40.00265899420612,清华大学生命科学馆,清华园街道双清路30号清华大学,北京市,北京市,,科教文化服务;学校;高等院校,141201,B0FFGIIFCA,科教文化服务,学校,高等院校,
116.32594488947214,40.00028497345766,清华大学建筑学院声学实验室,双清路30号,北京市,北京市,,科教文化服务;学校;高等院校,141201,B0FFGIIEG0,科教文化服务,学校,高等院校,
116.32594488947214,40.00028497345766,清华大学建筑学院建筑物理实验室,双清路30号,北京市,北京市,,科教文化服务;学校;高等院校,141201,B0FFGIIDUT,科教文化服务,学校,高等院校,
116.31607799839445,39.99681107343425,清华大学法学院国际法律教育中心,清华大学胜因院22号,北京市,北京市,,科教文化服务;学校;高等院校,141201,B0FFGIGW1X,科教文化服务,学校,高等院校,
116.32594488947214,40.00028497345766,清华大学建筑环境检测中心,双清路30号清华大学建筑学院内,北京市,北京市,,科教文化服务;学校;高等院校,141201,B0FFGIGVYE,科教文化服务,学校,高等院校,
116.32094986124676,40.00451339169515,清华大学-报账大厅,双清路30号,北京市,北京市,,科教文化服务;学校;高等院校,141201,B0FFGIGU9A,科教文化服务,学校,高等院校,
116.31041089343101,40.003589507968826,清华大学蛋白质研究技术中心,双清路30号,北京市,北京市,,科教文化服务;学校;高等院校|公司企业;公司;公司|科教文化服务;科研机构;科研机构,141201|170200|141300,B0FFGIGU6R,科教文化服务,学校,高等院校|公司企业,公司
116.32441684071401,39.981086713683744,中国科学院大学经济与管理学院(中关村南一条),中关村南一条,北京市,北京市,五道口,科教文化服务;学校;高等院校,141201,B0FFGIGK2H,科教文化服务,学校,高等院校,
116.32456229899039,39.998506704690634,清华大学工业工程系,南北路附近,北京市,北京市,,科教文化服务;学校;高等院校,141201,B0FFGH5QH9,科教文化服务,学校,高等院校,
116.32282229195174,39.99864104481788,清华大学机械厂教学产品配套部(研制),双清路30号清华园清华大学,北京市,北京市,,科教文化服务;学校;高等院校,141201,B0FFGG1SIA,科教文化服务,学校,高等院校,
116.3199614272083,40.00220439396494,清华大学动力工程及工程热物理实验教学中心(流体机械分室),学堂路附近,北京市,北京市,,科教文化服务;学校;高等院校,141201,B0FFGEQYU5,科教文化服务,学校,高等院校,
116.31652197840634,40.004785878451905,清华大学-清华国关,中关村北大街111号,北京市,北京市,,科教文化服务;学校;高等院校,141201,B0FFGCU241,科教文化服务,学校,高等院校,
116.32024180684077,40.00201286321426,清华大学房屋管理服务中心(房管中心),学堂路附近,北京市,北京市,,科教文化服务;学校;高等院校,141201,B0FFGAQJQ3,科教文化服务,学校,高等院校,
116.32021686709516,40.00198991217402,清华大学资产管理处,双清路30号,北京市,北京市,,科教文化服务;学校;高等院校,141201,B0FFGAQH2I,科教文化服务,学校,高等院校,
116.3058587690741,39.99620424195,北京大学-中国语言文学系,颐和园路5号北京大学内,北京市,北京市,,科教文化服务;学校;高等院校,141201,B0FFG83UX4,科教文化服务,学校,高等院校,
116.31036235381943,39.96908603330625,中国人民大学国际学院,中关村大街59号中国人民大学,北京市,北京市,,科教文化服务;学校;高等院校,141201,B0FFG4OGR8,科教文化服务,学校,高等院校,
116.31990363041345,40.001648529324584,清华大学宏盟楼,双清路30号清华大学,北京市,北京市,,科教文化服务;学校;高等院校,141201,B0FFG4JDZN,科教文化服务,学校,高等院校,
116.32520305302238,40.004580209342144,清华大学学生体质测试中心,双清路30号,北京市,北京市,,科教文化服务;学校;高等院校,141201,B0FFG4GIZD,科教文化服务,学校,高等院校,
116.30639112490361,39.992225438540736,北京大学建筑学研究中心第四讲堂,颐和园路5号,北京市,北京市,,科教文化服务;学校;高等院校,141201,B0FFG4FCK5,科教文化服务,学校,高等院校,
116.32420165285265,40.002272234524824,清华大学土木水利学院土木馆,双清路30号,北京市,北京市,,科教文化服务;学校;高等院校,141201,B0FFG4E0MK,科教文化服务,学校,高等院校,
116.31385526960263,40.00289604353178,清华大学生命伟伦馆,双清路30号,北京市,北京市,,科教文化服务;学校;高等院校,141201,B0FFG4DOR8,科教文化服务,学校,高等院校,
116.30581754074221,39.96696551638984,中国人民大学车队,中关村大街59号中国人民大学,北京市,北京市,,科教文化服务;学校;高等院校,141201,B0FFG416T2,科教文化服务,学校,高等院校,
116.30764534279174,39.96892908740857,中国人民大学报告厅,中关村大街59号中国人民大学博物馆,北京市,北京市,,科教文化服务;学校;高等院校,141201,B0FFG3YJFR,科教文化服务,学校,高等院校,
116.30030965723186,39.994064235616385,北京大学朝鲜(韩国)语言文学系,颐和园路5北京大学,北京市,北京市,,科教文化服务;学校;高等院校,141201,B0FFG3C4KZ,科教文化服务,学校,高等院校,
116.30030965723186,39.994064235616385,北京大学德语语言文学系,颐和园路5北京大学,北京市,北京市,,科教文化服务;学校;高等院校,141201,B0FFG3C4KY,科教文化服务,学校,高等院校,
116.30030965723186,39.994064235616385,北京大学法语语言文学系,颐和园路5北京大学,北京市,北京市,,科教文化服务;学校;高等院校,141201,B0FFG3C45O,科教文化服务,学校,高等院校,
116.30030965723186,39.994064235616385,北京大学西班牙语葡萄牙语语言文学系,颐和园路5北京大学,北京市,北京市,,科教文化服务;学校;高等院校,141201,B0FFG3C443,科教文化服务,学校,高等院校,
116.29663173798195,39.98008710814274,文化活动中心,颐和园路5号北京大学,北京市,北京市,万泉河,科教文化服务;学校;高等院校|商务住宅;住宅区;社区中心,141201|120304,B0FFG3BF4K,科教文化服务,学校,高等院校|商务住宅,住宅区
116.32081442097119,40.002554738214194,清华大学松山金炯珠楼,双清路30号清华大学,北京市,北京市,,科教文化服务;学校;高等院校,141201,B0FFG3AZZO,科教文化服务,学校,高等院校,
116.31287345772647,40.0030828957739,清华大学天体物理中心,双清路30号清华大学,北京市,北京市,,科教文化服务;学校;高等院校,141201,B0FFG3AZUM,科教文化服务,学校,高等院校,
116.3239202190305,40.00292274712609,清华大学新土木馆,双清路30号清华大学清华大学国际工程项目管理研究院附近,北京市,北京市,,科教文化服务;学校;高等院校,141201,B0FFG3AYP2,科教文化服务,学校,高等院校,
116.32282089440181,40.00180491039716,清华大学第三教室楼三段,双清路30号清华大学第三教室楼内,北京市,北京市,,科教文化服务;学校;高等院校,141201,B0FFG3A9W0,科教文化服务,学校,高等院校,
116.31728323302399,40.00484541880767,清华大学伦敦商务孔子学院(北京分院),双清路30号清华大学,北京市,北京市,,科教文化服务;学校;高等院校,141201,B0FFG3A6UE,科教文化服务,学校,高等院校,
116.30611507215131,39.98942806035358,北京大学光华管理学院1号楼,颐和园路5号北京大学,北京市,北京市,,科教文化服务;学校;高等院校,141201,B0FFG39UG2,科教文化服务,学校,高等院校,
116.30709330069818,39.99465004863959,北京大学光华管理学院2号楼,颐和园路5号北京大学,北京市,北京市,,科教文化服务;学校;高等院校,141201,B0FFG39S6W,科教文化服务,学校,高等院校,
116.29908060809326,39.99035252111474,北京大学信息化建设与管理办公室,颐和园路5号北京大学,北京市,北京市,,科教文化服务;学校;高等院校,141201,B0FFG39S2H,科教文化服务,学校,高等院校,
116.30154213862514,39.99401007785058,北京大学才斋(红二楼),颐和园路5号北京大学,北京市,北京市,,科教文化服务;学校;高等院校,141201,B0FFG39RWW,科教文化服务,学校,高等院校,
116.32845849536623,40.00516895081233,清华大学编教中心,双清路30号清华大学,北京市,北京市,,科教文化服务;学校;高等院校,141201,B0FFG39QS9,科教文化服务,学校,高等院校,
116.3283568715415,40.00404019445161,清华大学大五金库,双清路30号清华大学,北京市,北京市,,科教文化服务;学校;高等院校,141201,B0FFG39QJR,科教文化服务,学校,高等院校,
116.31916735884694,40.001353957117374,清华大学同方部,双清路30号清华大学,北京市,北京市,,科教文化服务;学校;高等院校,141201,B0FFG39P5D,科教文化服务,学校,高等院校,
116.31580704721685,40.00130239712507,清华大学古月堂,双清路30号清华大学,北京市,北京市,,科教文化服务;学校;高等院校,141201,B0FFG39OJ7,科教文化服务,学校,高等院校,
116.31352612781757,40.00198070793338,清华大学生物馆,双清路30号清华大学,北京市,北京市,,科教文化服务;学校;高等院校,141201,B0FFG39O6J,科教文化服务,学校,高等院校,
116.32200543955987,39.99654470648998,清华大学成绩单办公室,双清路30号清华大学,北京市,北京市,,科教文化服务;学校;高等院校,141201,B0FFG39LPC,科教文化服务,学校,高等院校,
116.3220264281876,39.996252678584135,清华大学知识产权办公室,双清路30号清华大学,北京市,北京市,,科教文化服务;学校;高等院校,141201,B0FFG39LBV,科教文化服务,学校,高等院校,
116.32753320794906,40.00051992145326,清华大学东阶梯教室,双清路30号清华大学,北京市,北京市,,科教文化服务;学校;高等院校,141201,B0FFG39KHH,科教文化服务,学校,高等院校,
116.32701527400366,40.00149586986687,清华大学工物馆,双清路30号清华大学,北京市,北京市,,科教文化服务;学校;高等院校,141201,B0FFG39KCG,科教文化服务,学校,高等院校,
116.31466718165156,39.99697575661724,清华大学教工活动中心,双清路30号清华大学,北京市,北京市,,科教文化服务;学校;高等院校,141201,B0FFG39H2U,科教文化服务,学校,高等院校,
116.31347501772966,40.00376372679203,清华大学理科楼,双清路30号清华大学,北京市,北京市,,科教文化服务;学校;高等院校,141201,B0FFG39H1I,科教文化服务,学校,高等院校,
116.30026259316026,39.995334263709346,北京大学考古实验实践教学中心,颐和园路5号北京大学考古文博学院,北京市,北京市,,科教文化服务;学校;高等院校,141201,B0FFG2XQ32,科教文化服务,学校,高等院校,
116.3224912821387,40.00474041585397,清华大学亚洲青年交流中心,双清路30号清华大学,北京市,北京市,,政府机构及社会团体;外国机构;国际组织办事处|科教文化服务;学校;高等院校,130202|141201,B0FFG2SSWQ,政府机构及社会团体,外国机构,国际组织办事处|科教文化服务,学校
116.32582140843341,39.998433290300866,清华大学经管楼,双清路86号,北京市,北京市,,科教文化服务;学校;高等院校,141201,B0FFG2R5LZ,科教文化服务,学校,高等院校,
116.30591975832508,39.995250171411634,北京大学哲学门,颐和园路5号北京大学宗教学系附近,北京市,北京市,,科教文化服务;学校;高等院校,141201,B0FFG0VFFL,科教文化服务,学校,高等院校,
116.30819907192303,39.969431044751474,中国人民大学理学院,中关村大街59号中国人民大学,北京市,北京市,,科教文化服务;学校;高等院校,141201,B0FFG09JF1,科教文化服务,学校,高等院校,
116.31883618019259,40.000868614302156,清华大学早期建筑,清华路附近,北京市,北京市,,科教文化服务;学校;高等院校,141201,B0FFG01GDF,科教文化服务,学校,高等院校,
116.3026402387802,39.99100825991488,北京大学广播台,颐和园路5号北京大学,北京市,北京市,,科教文化服务;学校;高等院校,141201,B0FFFZWO4V,科教文化服务,学校,高等院校,
116.30671547474203,39.991826861374406,北京大学信访接待室,颐和园路5号北京大学(东1门)附近,北京市,北京市,,科教文化服务;学校;高等院校,141201,B0FFFZWNRY,科教文化服务,学校,高等院校,
116.30922411573002,39.9909122660477,北京大学北区,颐和园路5号东门,北京市,北京市,,科教文化服务;学校;高等院校,141201,B0FFFZRA8L,科教文化服务,学校,高等院校,
116.30208214334958,39.96920314037122,中国人民大学酒店管理部汇贤大厦经营管理中心,中关村大街59号中国人民大学,北京市,北京市,,科教文化服务;学校;高等院校,141201,B0FFFZ7JA5,科教文化服务,学校,高等院校,
116.3282446814814,39.9996835985493,清华大学纳米材料科学与工程协同创新中心,双清路30号,北京市,北京市,,科教文化服务;学校;高等院校,141201,B0FFFY238X,科教文化服务,学校,高等院校,
116.30710427752666,39.99464502868195,北京大学光华管理学院阿里巴巴报告厅,颐和园路5号北京大学光华管理学院2号楼,北京市,北京市,,科教文化服务;学校;高等院校,141201,B0FFFXYALD,科教文化服务,学校,高等院校,
116.328171861892,39.99957774212333,清华大学国家大型科学仪器中心,清华大学内,北京市,北京市,,科教文化服务;学校;高等院校,141201,B0FFFXRRVC,科教文化服务,学校,高等院校,
116.31259427612201,39.969879804249246,中国人民大学迈阿密大学中国区办公室,中关村大街甲59号文化大厦1703室,北京市,北京市,,科教文化服务;学校;高等院校,141201,B0FFFW5NCP,科教文化服务,学校,高等院校,
116.30682456890892,39.989207771052776,北京大学计算机科学技术系,颐和园路5号北京大学,北京市,北京市,,科教文化服务;学校;高等院校,141201,B0FFFRQXO8,科教文化服务,学校,高等院校,
116.30122779868638,39.970063613045895,中国人民大学商学院,中关村大街59号中国人民大学明德院,北京市,北京市,,科教文化服务;学校;高等院校,141201,B0FFFRMOS5,科教文化服务,学校,高等院校,
116.32990412202811,39.982043179964776,中国科学院大学中关村校区,中关村东路80号,北京市,北京市,五道口,科教文化服务;学校;高等院校,141201,B0FFFQ6UZP,科教文化服务,学校,高等院校,
116.31184123270214,39.96773531063339,中国人民大学餐卡室,中关村大街59号中国人民大学,北京市,北京市,,科教文化服务;学校;高等院校,141201,B0FFFPZ1YC,科教文化服务,学校,高等院校,
116.31161011065511,40.00448921768054,清华大学生物医学测试中心大型动物接收室,至善路与近春路交叉口西100米,北京市,北京市,,科教文化服务;学校;高等院校,141201,B0FFFPYF3E,科教文化服务,学校,高等院校,
116.30947794756204,40.00366324681207,清华大学生命科学学院温室,双清路30号,北京市,北京市,,科教文化服务;学校;高等院校,141201,B0FFFPXE6A,科教文化服务,学校,高等院校,
116.30185045759144,39.97051949752898,中国人民大学明德楼1009机房,中国人民大学明德楼B1层,北京市,北京市,,科教文化服务;学校;高等院校,141201,B0FFFPWQX3,科教文化服务,学校,高等院校,
116.31731516952857,40.00477036094384,清华大学人文学院院机关,双清路30号清华大学新斋内,北京市,北京市,,科教文化服务;学校;高等院校,141201,B0FFFPND4X,科教文化服务,学校,高等院校,
116.31187000726703,39.99278923241913,北京大学工学院,颐和园路5号北京大学内,北京市,北京市,,科教文化服务;学校;高等院校,141201,B0FFFPD48E,科教文化服务,学校,高等院校,
116.32102118367833,40.00067042254338,清华大学外语网络多媒体自学中心,学堂路,北京市,北京市,,科教文化服务;学校;高等院校,141201,B0FFFNWAN9,科教文化服务,学校,高等院校,
116.32081742406298,40.00247573589094,清华大学清华IUP中文中心,双清路30号,北京市,北京市,,科教文化服务;学校;高等院校,141201,B0FFFNPO9C,科教文化服务,学校,高等院校,
116.30688465692208,39.995410399451025,北京大学经济学院,颐和园路5号北京大学,北京市,北京市,,科教文化服务;学校;高等院校,141201,B0FFFHN2J7,科教文化服务,学校,高等院校,
116.326312028637,40.00041126404474,清华大学中央主楼接待厅,双清路30号清华大学中央主楼,北京市,北京市,,科教文化服务;学校;高等院校,141201,B0FFFHARLQ,科教文化服务,学校,高等院校,
116.3032934281156,39.994532946096946,北京大学健斋,颐和园路5号北京大学,北京市,北京市,,科教文化服务;学校;高等院校,141201,B0FFFGYSI7,科教文化服务,学校,高等院校,
116.30120628568915,39.99039082124603,北京大学静园二院,颐和园路5号北京大学,北京市,北京市,,科教文化服务;学校;高等院校,141201,B0FFFGYRXI,科教文化服务,学校,高等院校,
116.3211094742421,40.00466807780778,清华大学会计核算中心,双清路30号,北京市,北京市,,科教文化服务;学校;高等院校,141201,B0FFFGYRHZ,科教文化服务,学校,高等院校,
116.32460446098335,39.996461711413154,清华大学精密仪器系,双清路30号清华大学,北京市,北京市,,科教文化服务;学校;高等院校,141201,B0FFFFA21L,科教文化服务,学校,高等院校,
116.31932012384334,40.00043970333941,清华大学水力实验馆(旧水),双清路30号清华大学,北京市,北京市,,科教文化服务;学校;高等院校,141201,B0FFFF7YDP,科教文化服务,学校,高等院校,
116.31915154950931,40.00013404045199,清华大学旧土木馆,双清路30号清华大学,北京市,北京市,,科教文化服务;学校;高等院校,141201,B0FFFEQOWM,科教文化服务,学校,高等院校,
116.32333322705307,40.00564475613241,清华大学机械工程实验教学中心,双清路30号清华大学,北京市,北京市,,科教文化服务;学校;高等院校,141201,B0FFFEJAQI,科教文化服务,学校,高等院校,
116.31937076927257,40.00232252408205,清华大学新水利馆,双清路30号清华大学,北京市,北京市,,科教文化服务;学校;高等院校,141201,B0FFFEILL9,科教文化服务,学校,高等院校,
116.32030166237327,40.002066745759095,清华大学文物保护与环境建设办公室,双清路30号清华大学,北京市,北京市,,科教文化服务;学校;高等院校,141201,B0FFFEFJGD,科教文化服务,学校,高等院校,
116.31051357133072,40.00433628292718,清华大学试剂耗材供应室,双清路30号清华大学,北京市,北京市,,科教文化服务;学校;高等院校,141201,B0FFFEFJCT,科教文化服务,学校,高等院校,
116.31387022358655,40.00299301090103,清华大学生命科学学院,双清路30号清华大学,北京市,北京市,,科教文化服务;学校;高等院校,141201,B0FFFEFITH,科教文化服务,学校,高等院校,
116.31454880974506,40.00203976301912,清华大学数学科学系荷二办公区,双清路30号清华大学,北京市,北京市,,科教文化服务;学校;高等院校,141201,B0FFFEFITG,科教文化服务,学校,高等院校,
116.31387022358655,40.00299301090103,清华大学结构生物学中心,双清路30号清华大学,北京市,北京市,,科教文化服务;学校;高等院校,141201,B0FFFEFITF,科教文化服务,学校,高等院校,
116.31387022358655,40.00299301090103,清华大学北京大学生命科学联合中心,双清路30号清华大学,北京市,北京市,,科教文化服务;学校;高等院校,141201,B0FFFEFITE,科教文化服务,学校,高等院校,
116.33018583838306,40.002856765945104,清华大学修缮校园管理中心,清华园街道双清路30号清华大学,北京市,北京市,,科教文化服务;学校;高等院校,141201,B0FFFE3O4U,科教文化服务,学校,高等院校,
116.3413588054154,39.98096508038573,北京航空航天大学财务核算中心,学院路37号北京航空航天大学,北京市,北京市,,科教文化服务;学校;高等院校,141201,B0FFFE3H6K,科教文化服务,学校,高等院校,
116.32080377665146,39.99993887248671,清华大学动力工程及工程热物理实验教学中心(燃气轮机分室),双清路30号清华大学,北京市,北京市,,科教文化服务;学校;高等院校,141201,B0FFFE37WK,科教文化服务,学校,高等院校,
116.31917253538353,39.9998650117848,清华大学动力工程及工程热物理实验教学中心,双清路30号清华大学,北京市,北京市,,科教文化服务;学校;高等院校,141201,B0FFFE37VD,科教文化服务,学校,高等院校,
116.32277349722492,39.99790817022634,清华大学继续教育学院出国留学项目部,双清路30号清华大学,北京市,北京市,,科教文化服务;学校;高等院校,141201,B0FFFE36TE,科教文化服务,学校,高等院校,
116.3277551221555,39.99717964130434,清华大学先进材料国家实验教学示范中心,双清路30号清华大学,北京市,北京市,,科教文化服务;学校;高等院校,141201,B0FFFE36MI,科教文化服务,学校,高等院校,
116.3277551221555,39.99717964130434,清华大学材料科学与工程国家级虚拟仿真实验教学中心,双清路30号清华大学,北京市,北京市,,科教文化服务;学校;高等院校,141201,B0FFFE36M8,科教文化服务,学校,高等院校,
116.30672234965421,39.96889078583315,中国人民大学艺术学院音乐厅,中关村大街59号中国人民大学,北京市,北京市,,科教文化服务;学校;高等院校,141201,B0FFFE07SV,科教文化服务,学校,高等院校,
116.3108567626452,39.9730029501081,中国人民大学纪委办公室,人民大学北路1号院附近,北京市,北京市,,科教文化服务;学校;高等院校,141201,B0FFFDU7L1,科教文化服务,学校,高等院校,
116.30462190650243,39.99227565325034,北京大学生物馆,颐和园路5号北京大学,北京市,北京市,,科教文化服务;学校;高等院校,141201,B0FFFDGUG2,科教文化服务,学校,高等院校,
116.3103146522403,39.99134521336714,北京大学基础物理实验教学中心,成府路209号,北京市,北京市,,科教文化服务;学校;高等院校,141201,B0FFFDFJ6L,科教文化服务,学校,高等院校,
116.30450847917913,39.98964196858208,北京大学哲学楼,颐和园路5号北京大学,北京市,北京市,,科教文化服务;学校;高等院校,141201,B0FFFDCEQT,科教文化服务,学校,高等院校,
116.30361265214225,39.99536533908008,北京大学怀新园,镜春园78号院,北京市,北京市,,科教文化服务;学校;高等院校,141201,B0FFFDCEQO,科教文化服务,学校,高等院校,
116.30365064318778,39.99480129492939,北京大学全斋,颐和园路5号北京大学,北京市,北京市,,科教文化服务;学校;高等院校,141201,B0FFFDCEPU,科教文化服务,学校,高等院校,
116.30857651193985,39.99112045996109,北京大学金光生命科学学院,颐和园路北京大学,北京市,北京市,,科教文化服务;学校;高等院校,141201,B0FFFDCCKU,科教文化服务,学校,高等院校,
116.31171934484715,39.992782516451,北京大学力学与工程科学系,成府路北京大学工学院,北京市,北京市,,科教文化服务;学校;高等院校,141201,B0FFFDC73P,科教文化服务,学校,高等院校,
116.3061888303606,39.990086898108615,北京大学理论生物学中心,颐和园路5号燕园北京大学,北京市,北京市,,科教文化服务;学校;高等院校,141201,B0FFFDC6SR,科教文化服务,学校,高等院校,
116.3061888303606,39.990086898108615,北京大学凝聚态及辐射物理中心,颐和园路5号北京大学,北京市,北京市,,科教文化服务;学校;高等院校,141201,B0FFFDC6SL,科教文化服务,学校,高等院校,
116.30498313665944,39.99228399936061,北京大学-亨利楼,颐和园路5号北京大学,北京市,北京市,,科教文化服务;学校;高等院校,141201,B0FFFDC068,科教文化服务,学校,高等院校,
116.30460893305714,39.99228367635183,北京大学章桂堂,临湖路附近,北京市,北京市,,科教文化服务;学校;高等院校,141201,B0FFFDC05U,科教文化服务,学校,高等院校,
116.30153068976797,39.98981927431908,北京大学燕京学堂,颐和园路5号北京大学,北京市,北京市,,科教文化服务;学校;高等院校,141201,B0FFFDC04M,科教文化服务,学校,高等院校,
116.30863745729741,39.990494373219605,北京大学地球与空间科学学院院友会,中关村北大街143号附近,北京市,北京市,,科教文化服务;学校;高等院校,141201,B0FFFDBZ1U,科教文化服务,学校,高等院校,
116.30484401978606,39.98762644604251,北京大学学生资助中心,颐和园路5号北京大学教育学院对面,北京市,北京市,,科教文化服务;学校;高等院校|生活服务;生活服务场所;生活服务场所,141201|070000,B0FFFD3PCC,科教文化服务,学校,高等院校|生活服务,生活服务场所
116.32781581635578,39.99849246893223,清华大学建筑馆报告厅,双清路30号清华大学,北京市,北京市,,科教文化服务;学校;高等院校,141201,B0FFFCIS01,科教文化服务,学校,高等院校,
116.32088947817,40.00073867295186,清华大学旧经管报告厅,双清路30号清华大学,北京市,北京市,,科教文化服务;学校;高等院校,141201,B0FFFAM0RF,科教文化服务,学校,高等院校,
116.33002804522457,40.00406401244645,清华大学电子工程系,双清路30号清华大学,北京市,北京市,,科教文化服务;学校;高等院校,141201,B0FFFALWL3,科教文化服务,学校,高等院校,
116.32384929377815,40.003622852798934,清华大学基建规划处,双清路30号清华大学,北京市,北京市,,科教文化服务;学校;高等院校,141201,B0FFFALWJC,科教文化服务,学校,高等院校,
116.3104308785205,40.00335648078451,清华大学生命科学学院植物培养室,双清路30号清华大学,北京市,北京市,,科教文化服务;学校;高等院校,141201,B0FFFALVT9,科教文化服务,学校,高等院校,
116.32384929377815,40.003622852798934,清华大学教育培训管理处,双清路30号清华大学,北京市,北京市,,科教文化服务;学校;高等院校,141201,B0FFFALVMC,科教文化服务,学校,高等院校,
116.32986770369841,40.00176041780387,清华大学化学工程系新区,双清路30号清华大学,北京市,北京市,,科教文化服务;学校;高等院校,141201,B0FFFALURI,科教文化服务,学校,高等院校,
116.3231200181523,39.995385611486846,清华大学材料学院材料加工工程系,双清路30号清华大学,北京市,北京市,,科教文化服务;学校;高等院校,141201,B0FFFALURC,科教文化服务,学校,高等院校,
116.32384929377815,40.003622852798934,清华大学保密管理办公室,双清路30号清华大学,北京市,北京市,,科教文化服务;学校;高等院校,141201,B0FFFALUII,科教文化服务,学校,高等院校,
116.32385623254746,40.003979823771026,清华大学学生公寓10号楼,双清路30号清华大学,北京市,北京市,,科教文化服务;学校;高等院校,141201,B0FFFAIKCK,科教文化服务,学校,高等院校,
116.32960074532586,39.99835807246899,清华大学美术学院,双清路30号清华大学校内,北京市,北京市,,科教文化服务;学校;高等院校,141201,B0FFFAIBDX,科教文化服务,学校,高等院校,
116.31129890182105,39.97202615928452,人民大学社区文明市民学校,中关村大街59号中国人民大学,北京市,北京市,,科教文化服务;学校;高等院校,141201,B0FFFAI930,科教文化服务,学校,高等院校,
116.311849570676,40.004527765116976,清华大学实验动物中心,双清路30号清华大学,北京市,北京市,,科教文化服务;学校;高等院校,141201,B0FFFAI62Q,科教文化服务,学校,高等院校,
116.31133581930654,39.972028089823894,中国人民大学离退休工作处,中关村大街59号中国人民大学,北京市,北京市,,科教文化服务;学校;高等院校,141201,B0FFFAHZBA,科教文化服务,学校,高等院校,
116.30482789382279,39.97301707129929,中国人民大学北校区,海淀南路24号,北京市,北京市,,科教文化服务;学校;高等院校,141201,B0FFFAHTBD,科教文化服务,学校,高等院校,
116.31041388679223,40.00358950236664,清华大学生物技术馆,双清路30号清华大学,北京市,北京市,,科教文化服务;学校;高等院校,141201,B0FFFAHRRH,科教文化服务,学校,高等院校,
116.32948514111605,40.00520099391136,清华大学航天航空学院,双清路30号,北京市,北京市,,科教文化服务;学校;高等院校,141201,B0FFFAH8SS,科教文化服务,学校,高等院校,
116.3050575684472,39.9875970604963,北京大学新太阳学生中心,颐和园路5号北京大学,北京市,北京市,,科教文化服务;学校;高等院校,141201,B0FFFAH6L9,科教文化服务,学校,高等院校,
116.30498313665944,39.99228399936061,北京大学留学生办公室,颐和园路5号北京大学新太阳学生中心,北京市,北京市,,科教文化服务;学校;高等院校,141201,B0FFFAH4ER,科教文化服务,学校,高等院校,
116.32938779985096,40.00176432990098,清华大学工程物理系新区,双清路30号清华大学,北京市,北京市,,科教文化服务;学校;高等院校,141201,B0FFFAGZRP,科教文化服务,学校,高等院校,
116.32120996981587,39.99892713476201,清华大学国本国联研究发展中心,双清路30号清华大学清华园胶印厂设计文化园B-01,北京市,北京市,,科教文化服务;学校;高等院校,141201,B0FFFAGYX6,科教文化服务,学校,高等院校,
116.32388687513827,40.00624266488845,清华大学苏世民书院,双清路30号清华大学,北京市,北京市,,科教文化服务;学校;高等院校,141201,B0FFF62PWV,科教文化服务,学校,高等院校,
116.30557458588186,39.98662416201417,北京大学对外汉语教育学院(求知路),颐和园路5号北京大学,北京市,北京市,,科教文化服务;学校;高等院校,141201,B0FFF5V1AR,科教文化服务,学校,高等院校,
116.32944886328563,39.99228262001744,清华大学五道口金融学院,北京市海淀区成府路43号,北京市,北京市,五道口,科教文化服务;学校;高等院校,141201,B0FFF5V0P2,科教文化服务,学校,高等院校,
116.33852865417987,39.98313107441025,北京航空航天大学社区活动中心,学院路37(北京航空航天大学学院路校区),北京市,北京市,五道口,科教文化服务;学校;高等院校,141201,B0FFF5UY1N,科教文化服务,学校,高等院校,
116.32383259557284,40.0015449757744,清华大学第六教学楼,双清路30号清华大学,北京市,北京市,,科教文化服务;学校;高等院校,141201,B0FFF5APN0,科教文化服务,学校,高等院校,
116.30752984819873,39.96691138080482,中国人民大学南区小院宿舍管理部,中关村大街59中国人民大学,北京市,北京市,,科教文化服务;学校;高等院校,141201,B0FFF58703,科教文化服务,学校,高等院校,
116.32633992490888,40.00072319704026,清华大学主楼后厅,清华园街道清华园1号,北京市,北京市,,科教文化服务;学校;高等院校,141201,B0FFF5715Q,科教文化服务,学校,高等院校,
116.3059262991065,39.96703031555766,中国人民大学体育部运动训练管理中心,中关村大街59号中国人民大学,北京市,北京市,,科教文化服务;学校;高等院校,141201,B0FFF55T67,科教文化服务,学校,高等院校,
116.32991402560447,40.006269131505924,清华大学电管科,双清路30号清华大学,北京市,北京市,,科教文化服务;学校;高等院校,141201,B0FFF38N43,科教文化服务,学校,高等院校,
116.32908278988272,40.00734066459879,清华大学航天航空学院学生航空创新实践基地,双清路30号清华大学,北京市,北京市,,科教文化服务;学校;高等院校,141201,B0FFF2YJH8,科教文化服务,学校,高等院校,
116.32533964375837,39.997438257586566,清华大学公共管理学院报告厅,双清路30号清华大学南北路附近,北京市,北京市,,科教文化服务;学校;高等院校,141201,B0FFF26VJT,科教文化服务,学校,高等院校,
116.31694448569732,40.00105923323594,清华大学工字厅,双清路30号清华大学,北京市,北京市,,科教文化服务;学校;高等院校,141201,B0FFF0EFZY,科教文化服务,学校,高等院校,
116.30709656553864,39.96868510724417,中国人民大学艺术学院,中关村大街59号中国人民大学,北京市,北京市,,科教文化服务;学校;高等院校,141201,B0FFF06SIQ,科教文化服务,学校,高等院校,
116.31182614659234,39.992462328832396,北京大学动力中心,燕园街道颐和园路5号,北京市,北京市,,科教文化服务;学校;高等院校,141201,B0FFF035NL,科教文化服务,学校,高等院校,
116.33586393424528,39.979980085112636,北京航空航天大学后勤保障处,学院路37号北京航空航天大学内,北京市,北京市,,科教文化服务;学校;高等院校,141201,B000ABBXVN,科教文化服务,学校,高等院校,
116.30739383290977,39.99318555791709,北京大学法学院,颐和园路5号北京大学,北京市,北京市,,科教文化服务;学校;高等院校,141201,B000ABBX9R,科教文化服务,学校,高等院校,
116.31774653621027,40.001978656744875,清华大学西阶梯教室,双清路30号清华大学,北京市,北京市,,科教文化服务;学校;高等院校,141201,B000AA7YZ9,科教文化服务,学校,高等院校,
116.32340954779336,39.99383112059571,清华大学职业经理训练中心执行经理事业部大客户部,中关村东路1-3号创业大厦1005A,北京市,北京市,,科教文化服务;学校;高等院校,141201,B000AA7RU7,科教文化服务,学校,高等院校,
116.32783937430145,40.00155129145588,清华大学化工系绿色反应工程电镜室,双清路30号清华大学,北京市,北京市,,科教文化服务;学校;高等院校,141201,B000AA7RHD,科教文化服务,学校,高等院校,
116.3084992497611,39.994541458766015,北京大学廖凯原楼,颐和园路5号北京大学,北京市,北京市,,科教文化服务;学校;高等院校,141201,B000AA7BPE,科教文化服务,学校,高等院校,
116.3161418424554,40.004803604325566,清华大学社会科学学院,双清路30号清华大学,北京市,北京市,,科教文化服务;学校;高等院校,141201,B000AA7BEI,科教文化服务,学校,高等院校,
116.31800516492774,40.00023423665999,清华大学计算机辅助设计教学中心,双清路30号清华大学,北京市,北京市,,科教文化服务;学校;高等院校,141201,B000AA74N5,科教文化服务,学校,高等院校,
116.31196543204345,40.003573588759245,清华大学-医学院,双清路30号清华大学医学科学楼,北京市,北京市,,科教文化服务;学校;高等院校,141201,B000AA4MHN,科教文化服务,学校,高等院校,
116.32078648487251,40.00255779181963,清华大学历史系,双清路30号,北京市,北京市,,科教文化服务;学校;高等院校,141201,B000AA4M6P,科教文化服务,学校,高等院校,
116.32233937765675,39.998854964745476,清华大学西多媒体教室,双清路30号清华大学,北京市,北京市,,科教文化服务;学校;高等院校,141201,B000AA4M0R,科教文化服务,学校,高等院校,
116.30145347048848,39.96898125932689,中国人民大学EMBA中心,中关村大街59号汇贤大厦5F,北京市,北京市,,科教文化服务;学校;高等院校,141201,B000AA4LWK,科教文化服务,学校,高等院校,
116.31501541476608,40.00470975763545,清华大学马克思主义学院,双清路30号清华大学,北京市,北京市,,科教文化服务;学校;高等院校,141201,B000AA4KZR,科教文化服务,学校,高等院校,
116.31525034560248,40.00103947059148,清华大学强斋,双清路30号清华大学,北京市,北京市,,科教文化服务;学校;高等院校,141201,B000AA4KPV,科教文化服务,学校,高等院校,
116.3254161507293,39.99993800300564,清华大学电工电子实验教学中心,双清路30号清华大学,北京市,北京市,,科教文化服务;学校;高等院校,141201,B000AA4KGZ,科教文化服务,学校,高等院校,
116.34200023479174,39.982554879732156,北京航空航天大学教学部教学评估工作组办公室,学院路37号北京航空航天大学,北京市,北京市,五道口,科教文化服务;学校;高等院校,141201,B000AA20ZU,科教文化服务,学校,高等院校,
116.32744746684106,40.000031106589844,清华大学软件学院,双清路30号清华大学,北京市,北京市,,科教文化服务;学校;高等院校,141201,B000AA1ZCV,科教文化服务,学校,高等院校,
116.30678334322162,39.967894713779025,中国人民大学体育运动委员会,中关村大街59号中国人民大学,北京市,北京市,,科教文化服务;学校;高等院校,141201,B000AA1Z71,科教文化服务,学校,高等院校,
116.30576869186666,39.99041665072615,北京大学环境与生态实验教学中心环境工程实验室,颐和园路5号北京大学南门,北京市,北京市,,科教文化服务;学校;高等院校,141201,B000AA1YSS,科教文化服务,学校,高等院校,
116.30576869186666,39.99041665072615,北京大学环境与生态实验教学中心环境科学实验室,颐和园路5号北京大学地学楼,北京市,北京市,,科教文化服务;学校;高等院校,141201,B000AA1HHU,科教文化服务,学校,高等院校,
116.30553955897877,39.99536885875335,北京大学李兆基人文学苑,颐和园路5号北京大学镜春路,北京市,北京市,,科教文化服务;学校;高等院校,141201,B000AA1D8O,科教文化服务,学校,高等院校,
116.31731615879242,40.00483735609349,清华大学人文学院,双清路30号清华大学,北京市,北京市,,科教文化服务;学校;高等院校,141201,B000AA11YN,科教文化服务,学校,高等院校,
116.3178483558542,40.001562479669765,清华大学高等研究院,双清路30号清华大学,北京市,北京市,,科教文化服务;学校;高等院校,141201,B000AA11YI,科教文化服务,学校,高等院校,
116.31336315743276,40.0046528996759,清华大学实验教学中心,双清路30号清华大学,北京市,北京市,,科教文化服务;学校;高等院校,141201,B000AA11GS,科教文化服务,学校,高等院校,
116.31560151303495,40.001314788871575,清华大学港澳台事务办公室,双清路30号清华大学,北京市,北京市,,科教文化服务;学校;高等院校,141201,B000AA10RT,科教文化服务,学校,高等院校,
116.31560151303495,40.001314788871575,清华大学国际合作与交流处,双清路30号清华大学,北京市,北京市,,科教文化服务;学校;高等院校,141201,B000AA1075,科教文化服务,学校,高等院校,
116.32085805151416,40.00467956098784,清华大学财务处,双清路30号清华大学,北京市,北京市,,科教文化服务;学校;高等院校,141201,B000AA0YPR,科教文化服务,学校,高等院校,
116.30118882654287,39.99432368625092,北京大学研发实验服务基地,颐和园路5号北京大学,北京市,北京市,,科教文化服务;学校;高等院校,141201,B000AA0YEN,科教文化服务,学校,高等院校,
116.32236942531895,39.99793194665817,清华大学电子实践基地,双清路30号清华大学学堂路附近,北京市,北京市,,科教文化服务;学校;高等院校,141201,B000AA0WUY,科教文化服务,学校,高等院校,
116.3112228511491,39.989624582830366,北京大学化学信息中心计算机机房,中关村北大街与成府路交叉口东南200米,北京市,北京市,,科教文化服务;学校;高等院校,141201,B000AA0WT7,科教文化服务,学校,高等院校,
116.30739732846381,39.98919471904049,北京大学水沙科学教育部重点实验室,颐和园路5号北京大学,北京市,北京市,,科教文化服务;学校;高等院校,141201,B000AA0WRE,科教文化服务,学校,高等院校,
116.32700691033499,40.00451475362986,清华大学维学馆,双清路30号清华大学,北京市,北京市,,科教文化服务;学校;高等院校,141201,B000AA0WKA,科教文化服务,学校,高等院校,
116.32035457386507,40.00180465543617,清华大学物业管理中心电信与工程技术科,双清路30号清华大学,北京市,北京市,,科教文化服务;学校;高等院校,141201,B000AA0WIH,科教文化服务,学校,高等院校,
116.31737983286763,40.00626317102384,清华大学低碳能源楼,双清路30号清华大学,北京市,北京市,,科教文化服务;学校;高等院校,141201,B000AA0WIB,科教文化服务,学校,高等院校,
116.31278258270078,40.003710040130926,清华大学郑裕彤讲堂,双清路30号清华大学,北京市,北京市,,科教文化服务;学校;高等院校,141201,B000AA0WI4,科教文化服务,学校,高等院校,
116.31767947053741,40.00371070949791,清华大学逸夫馆,双清路30号清华大学,北京市,北京市,,科教文化服务;学校;高等院校,141201,B000AA0W8R,科教文化服务,学校,高等院校,
116.31497247309535,40.0050188257995,清华大学平斋,双清路30号清华大学,北京市,北京市,,科教文化服务;学校;高等院校,141201,B000AA0W4T,科教文化服务,学校,高等院校,
116.32325840052151,40.005636900409975,清华大学未来媒体实验室,双清路30号清华大学,北京市,北京市,,科教文化服务;学校;高等院校,141201,B000AA0W3C,科教文化服务,学校,高等院校,
116.29872713613831,39.99178106878909,北京大学机动车专用门,颐和园路5号北京大学,北京市,北京市,,科教文化服务;学校;高等院校,141201,B000AA0VTU,科教文化服务,学校,高等院校,
116.31777249970334,40.00179761486383,清华大学高田芳行馆,双清路30号清华大学,北京市,北京市,,科教文化服务;学校;高等院校,141201,B000AA0VTB,科教文化服务,学校,高等院校,
116.32702965385062,39.9982399832612,清华大学建筑馆,双清路30号清华大学,北京市,北京市,,科教文化服务;学校;高等院校,141201,B000AA0VT3,科教文化服务,学校,高等院校,
116.32525998061037,40.004117120435346,清华大学体育部,双清路30号清华大学,北京市,北京市,,科教文化服务;学校;高等院校,141201,B000AA0VSE,科教文化服务,学校,高等院校,
116.32964417681401,40.00205582965493,清华大学刘卿楼,清华园1号清华大学,北京市,北京市,,科教文化服务;学校;高等院校,141201,B000AA0VS7,科教文化服务,学校,高等院校,
116.31533625950314,40.00017734420153,清华大学静斋,双清路30号清华大学,北京市,北京市,,科教文化服务;学校;高等院校,141201,B000AA0VFH,科教文化服务,学校,高等院校,
116.3315186984821,39.972167522621255,北京航空航天大学软件学院,中关村街道大钟寺东路白塔庵5号北京开放大学北校区,北京市,北京市,大钟寺村,科教文化服务;学校;高等院校,141201,B000AA0MXA,科教文化服务,学校,高等院校,
116.3050167208043,39.971196802444744,人民大学自考部,中关村大街59号,北京市,北京市,,科教文化服务;学校;高等院校,141201,B000AA0B79,科教文化服务,学校,高等院校,
116.30145347048848,39.96898125932689,中国人民大学培训学院职业资格教育中心,中关村大街59号汇贤大厦C座4层406,北京市,北京市,,科教文化服务;学校;高等院校,141201,B000A9W4AU,科教文化服务,学校,高等院校,
116.30678334322162,39.967894713779025,中国人民大学体质测试中心,中关村大街59号中国人民大学,北京市,北京市,,科教文化服务;学校;高等院校,141201,B000A9W22V,科教文化服务,学校,高等院校,
116.34232822025808,39.9771915201539,北京航空航天大学实验教学示范中心,学院路37号北京航空航天大学,北京市,北京市,,科教文化服务;学校;高等院校,141201,B000A9VO67,科教文化服务,学校,高等院校,
116.32237929632664,39.998770891560795,清华大学基础工业训练中心项目推广办公室,双清路30号清华大学学堂路附近,北京市,北京市,,科教文化服务;学校;高等院校,141201,B000A9V3SD,科教文化服务,学校,高等院校,
116.30320463631939,39.994359112215996,北京大学体斋,颐和园路5号北京大学,北京市,北京市,,科教文化服务;学校;高等院校,141201,B000A9Q2V3,科教文化服务,学校,高等院校,
116.32770378513432,40.0086482369837,清华大学外国留学生工作办公室,双清路30号,北京市,北京市,,科教文化服务;学校;高等院校,141201,B000A9PS08,科教文化服务,学校,高等院校,
116.30283144311663,39.994156786759135,北京大学备斋(红4楼),颐和园路5号北京大学,北京市,北京市,,科教文化服务;学校;高等院校,141201,B000A9PJ0V,科教文化服务,学校,高等院校,
116.31901185980757,40.0002153052549,清华大学土木工程馆,双清路30号清华大学,北京市,北京市,,科教文化服务;学校;高等院校,141201,B000A9PIZ9,科教文化服务,学校,高等院校,
116.30088946720872,39.99411322038308,北京大学-红1楼,颐和园5号北京大学镜春路,北京市,北京市,,科教文化服务;学校;高等院校,141201,B000A9PIYH,科教文化服务,学校,高等院校,
116.31782141888725,40.00155153179495,清华大学科学馆,双清路30号清华大学,北京市,北京市,,科教文化服务;学校;高等院校,141201,B000A9PILA,科教文化服务,学校,高等院校,
116.31999642423546,40.00159235337073,清华大学旧电机馆,双清路30号清华大学,北京市,北京市,,科教文化服务;学校;高等院校,141201,B000A9PIAY,科教文化服务,学校,高等院校,
116.31386922558688,40.002995012707814,清华大学生命科学楼,双清路30号,北京市,北京市,,科教文化服务;学校;高等院校,141201,B000A9PHWC,科教文化服务,学校,高等院校,
116.31198576669202,40.000563681747906,清华大学伟伦学术交流中心,双清路30号清华大学,北京市,北京市,,科教文化服务;学校;高等院校,141201,B000A9LEZA,科教文化服务,学校,高等院校,
116.31054513135133,39.96763574908552,中国人民大学公共教学一楼,中关村大街59号中国人民大学,北京市,北京市,,科教文化服务;学校;高等院校,141201,B000A9KMY1,科教文化服务,学校,高等院校,
116.30833103997672,39.9911959115244,北京大学清华大学生命科学联合中心,颐和园路5号北京大学燕园,北京市,北京市,,科教文化服务;学校;高等院校,141201,B000A96HD7,科教文化服务,学校,高等院校,
116.32410785821861,40.00235741110731,清华大学建设管理系,双清路30号清华大学内,北京市,北京市,,科教文化服务;学校;高等院校,141201,B000A96HCP,科教文化服务,学校,高等院校,
116.32821593493317,40.00608737299014,清华大学高压实验室,明德路与至善路交叉口北100米,北京市,北京市,,科教文化服务;学校;高等院校,141201,B000A96G3F,科教文化服务,学校,高等院校,
116.31726525172296,40.00502244543623,清华大学新斋,双清路30号清华大学,北京市,北京市,,科教文化服务;学校;高等院校,141201,B000A96FXC,科教文化服务,学校,高等院校,
116.31501541476608,40.00470975763545,清华大学善斋,双清路30号清华大学,北京市,北京市,,科教文化服务;学校;高等院校,141201,B000A96FVZ,科教文化服务,学校,高等院校,
116.3099822576047,40.00030445260691,清华大学汽车房,双清路30号清华大学,北京市,北京市,,科教文化服务;学校;高等院校,141201,B000A96FVS,科教文化服务,学校,高等院校,
116.3210034402407,39.99896653040183,清华大学1区,双清路30号清华大学,北京市,北京市,,科教文化服务;学校;高等院校,141201,B000A96FRC,科教文化服务,学校,高等院校,
116.30935320429982,39.97209379629963,中国人民大学信息楼,中关村大街59号中国人民大学,北京市,北京市,,科教文化服务;学校;高等院校,141201,B000A96FLO,科教文化服务,学校,高等院校,
116.30211008039372,39.96924308930407,中国人民大学贤进楼,中关村大街59号中国人民大学,北京市,北京市,,科教文化服务;学校;高等院校,141201,B000A96FJI,科教文化服务,学校,高等院校,
116.33016505676581,40.001509864190766,清华大学基建处,学堂路与日新路交叉口东南100米,北京市,北京市,,科教文化服务;学校;高等院校,141201,B000A96FJ3,科教文化服务,学校,高等院校,
116.31996947440551,40.0016854011309,清华大学二院,双清路30号清华大学新闻与传播学院附近,北京市,北京市,,科教文化服务;学校;高等院校,141201,B000A96ENG,科教文化服务,学校,高等院校,
116.32410785821861,40.00235741110731,清华大学土木工程系(建设中),双清路30号清华大学,北京市,北京市,,科教文化服务;学校;高等院校,141201,B000A95CZA,科教文化服务,学校,高等院校,
116.3045303717425,39.99012590882348,北京大学数字加工中心,颐和园路5号北京大学,北京市,北京市,,科教文化服务;学校;高等院校,141201,B000A95CZ3,科教文化服务,学校,高等院校,
116.30560926679026,39.988567018223165,北京大学工学院,颐和园路5号北京大学五四路,北京市,北京市,,科教文化服务;学校;高等院校,141201,B000A95CZ2,科教文化服务,学校,高等院校,
116.30678334322162,39.967894713779025,中国人民大学体育部,中关村大街59号中国人民大学,北京市,北京市,,科教文化服务;学校;高等院校,141201,B000A95CGD,科教文化服务,学校,高等院校,
116.30617745590287,39.969438761023085,中国人民大学环境学院,中关村大街59号中国人民大学,北京市,北京市,,科教文化服务;学校;高等院校,141201,B000A91KG7,科教文化服务,学校,高等院校,
116.30564657371534,39.96961572192115,中国人民大学物资采购与资产管理办公室,中关村大街59号中国人民大学,北京市,北京市,,科教文化服务;学校;高等院校,141201,B000A91K8B,科教文化服务,学校,高等院校,
116.30275760504242,39.97026089869065,中国人民大学律师学院,中关村大街59号中国人民大学,北京市,北京市,,科教文化服务;学校;高等院校,141201,B000A91K6A,科教文化服务,学校,高等院校,
116.30735690533034,39.99324762326812,北京大学凯原楼,颐和园路5号北京大学,北京市,北京市,,科教文化服务;学校;高等院校,141201,B000A8ZJ7L,科教文化服务,学校,高等院校,
116.30141671558776,39.991480405461196,台大驻北京大学联络处,颐和园路5号北京大学,北京市,北京市,,科教文化服务;学校;高等院校,141201,B000A8ZJ2C,科教文化服务,学校,高等院校,
116.34238611810528,39.97702942483716,北京航空航天大学软件学院(坤讯大厦西北),学院路37号北京航空航天大学,北京市,北京市,,科教文化服务;学校;高等院校,141201,B000A8ZIKN,科教文化服务,学校,高等院校,
116.32313706444214,40.00260426724626,清华大学结构工程检测中心,双清路30号清华大学,北京市,北京市,,科教文化服务;学校;高等院校,141201,B000A8ZIJY,科教文化服务,学校,高等院校,
116.32975396598248,40.001740634747236,清华大学化工电大楼,双清路30号清华大学,北京市,北京市,,科教文化服务;学校;高等院校,141201,B000A8ZIC0,科教文化服务,学校,高等院校,
116.30244322457003,39.99438146785343,北京大学离退休工作部,颐和园路5镜春路,北京市,北京市,,科教文化服务;学校;高等院校,141201,B000A8ZHXX,科教文化服务,学校,高等院校,
116.33001199363996,40.00475901230358,清华大学量子信息中心,双清路30号清华大学汽车工程系附近,北京市,北京市,,科教文化服务;学校;高等院校,141201,B000A8ZHLN,科教文化服务,学校,高等院校,
116.30785152225272,39.987746942021815,北京大学第3教学楼,颐和园路5号北京大学,北京市,北京市,,科教文化服务;学校;高等院校,141201,B000A8XRYB,科教文化服务,学校,高等院校,
116.30564657371534,39.96961572192115,中国人民大学工程管理办公室,中关村大街59号中国人民大学,北京市,北京市,,科教文化服务;学校;高等院校,141201,B000A8WC4R,科教文化服务,学校,高等院校,
116.30997646894194,39.96701583730484,中国人民大学国际文化交流中心,中关村大街59号中国人民大学,北京市,北京市,,科教文化服务;学校;高等院校,141201,B000A8WBJA,科教文化服务,学校,高等院校,
116.31002037250158,39.96701075550671,中国人民大学高丽大学会馆,中关村大街59号,北京市,北京市,,科教文化服务;学校;高等院校,141201,B000A8WBDD,科教文化服务,学校,高等院校,
116.30564657371534,39.96961572192115,中国人民大学监察督导室,中关村大街59号中国人民大学,北京市,北京市,,科教文化服务;学校;高等院校,141201,B000A8WBDA,科教文化服务,学校,高等院校,
116.31012399821483,39.968161515970735,中国人民大学劳动人事学院,中关村大街59号中国人民大学,北京市,北京市,,科教文化服务;学校;高等院校,141201,B000A8WB8V,科教文化服务,学校,高等院校,
116.30182965931259,39.96925758475304,中国人民大学心理学系,中关村大街59号中国人民大学,北京市,北京市,,科教文化服务;学校;高等院校,141201,B000A8WAZS,科教文化服务,学校,高等院校,
116.32733752211894,40.0015862493194,清华大学工程物理系,双清路30号清华大学内,北京市,北京市,,科教文化服务;学校;高等院校,141201,B000A8VURV,科教文化服务,学校,高等院校,
116.32305947545983,40.000771496372735,清华大学校史馆,双清路30号近清华大学教育研究院,北京市,北京市,,科教文化服务;学校;高等院校,141201,B000A8VUP1,科教文化服务,学校,高等院校,
116.33901709194235,39.97916435138153,北京航空航天大学体育部,学院路37号北京航空航天大学,北京市,北京市,,科教文化服务;学校;高等院校,141201,B000A8VULG,科教文化服务,学校,高等院校,
116.32733452912014,40.00158525508772,清华大学化学工程系,双清路30号清华大学内,北京市,北京市,,科教文化服务;学校;高等院校,141201,B000A8VUF5,科教文化服务,学校,高等院校,
116.32419992901788,40.00012433126606,清华大学焊接馆,双清路30号清华园清华大学,北京市,北京市,,科教文化服务;学校;高等院校,141201,B000A8VUED,科教文化服务,学校,高等院校,
116.33841173167167,39.984534229041124,北京航空航天大学大学生活动中心,学院路37号,北京市,北京市,五道口,科教文化服务;学校;高等院校,141201,B000A8VU49,科教文化服务,学校,高等院校,
116.32410885541378,40.00236140901562,清华大学土木水利学院,双清路30号清华大学,北京市,北京市,,科教文化服务;学校;高等院校,141201,B000A8VRRS,科教文化服务,学校,高等院校,
116.34092030711446,39.976546039998205,北京航空航天大学文理学院,学院路37号北京航空航天大学,北京市,北京市,,科教文化服务;学校;高等院校,141201,B000A8VPQ6,科教文化服务,学校,高等院校,
116.30852285661896,39.989319634795244,北京大学电子学系,北京大学理科2号楼,北京市,北京市,,科教文化服务;学校;高等院校,141201,B000A8U1LT,科教文化服务,学校,高等院校,
116.31856195043,39.99975118923445,清华大学研究生招生办公室,双清路30号清华路清华大学,北京市,北京市,,科教文化服务;学校;高等院校,141201,B000A88EB3,科教文化服务,学校,高等院校,
116.32309995053535,39.99628461174483,清华大学能科楼,双清路30号清华大学,北京市,北京市,,科教文化服务;学校;高等院校,141201,B000A88E87,科教文化服务,学校,高等院校,
116.30757462060177,39.967945257063256,中国人民大学对外语言文化学院(中国人民大学社区卫生服务中心东南),海淀街道中关村大街59号,北京市,北京市,,科教文化服务;学校;高等院校,141201,B000A88E1J,科教文化服务,学校,高等院校,
116.30276059879364,39.97026089335996,中国人民大学知识产权学院,中关村大街59号,北京市,北京市,,科教文化服务;学校;高等院校,141201,B000A87KNN,科教文化服务,学校,高等院校,
116.30119480971727,39.99435967421344,北京大学环境保护办公室,颐和园路5号北京大学研究生院附近,北京市,北京市,,科教文化服务;学校;高等院校,141201,B000A87FUO,科教文化服务,学校,高等院校,
116.3277551221555,39.99717964130434,清华大学材料学院,双清路30号清华大学,北京市,北京市,,科教文化服务;学校;高等院校,141201,B000A863SX,科教文化服务,学校,高等院校,
116.29969076784566,39.99521326221755,北京大学生命科学学院生物技术学系,颐和园路5号北京大学生物技术楼,北京市,北京市,,科教文化服务;学校;高等院校,141201,B000A8629S,科教文化服务,学校,高等院校,
116.30863745679406,39.99049837305296,北京大学环境与生态实验教学中心,颐和园路5号北京大学(燕园校区)内,北京市,北京市,,科教文化服务;学校;高等院校,141201,B000A85J9K,科教文化服务,学校,高等院校,
116.30790130590147,39.988601814538356,北京大学教材中心,颐和园路5号北京大学,北京市,北京市,,科教文化服务;学校;高等院校,141201,B000A85J9J,科教文化服务,学校,高等院校,
116.31942265582823,40.00227742634963,清华大学水利水电工程系,双清路30号清华大学,北京市,北京市,,科教文化服务;学校;高等院校,141201,B000A85HK7,科教文化服务,学校,高等院校,
116.2998077133109,39.99376712084256,北京大学东方学系,颐和园路5号北京大学,北京市,北京市,,科教文化服务;学校;高等院校,141201,B000A85E0Y,科教文化服务,学校,高等院校,
116.30906701906747,39.970625387533836,中国人民大学国学馆,中关村大街59号中国人民大学,北京市,北京市,,科教文化服务;学校;高等院校,141201,B000A85DW8,科教文化服务,学校,高等院校,
116.30182965931259,39.96925758475304,中国人民大学国际教育学院,中关村大街59号中国人民大学,北京市,北京市,,科教文化服务;学校;高等院校,141201,B000A85DW1,科教文化服务,学校,高等院校,
116.30863745679406,39.99049837305296,北京大学地球科学实验教学中心,颐和园路5号北京大学逸夫贰楼,北京市,北京市,,科教文化服务;学校;高等院校,141201,B000A85CJT,科教文化服务,学校,高等院校,
116.30207515130465,39.969255150672225,中国人民大学酒店管理部,中关村大街59号中国人民大学,北京市,北京市,,科教文化服务;学校;高等院校,141201,B000A84JFT,科教文化服务,学校,高等院校,
116.31614383816355,40.00480160060072,清华大学明斋,双清路30号清华大学,北京市,北京市,,科教文化服务;学校;高等院校,141201,B000A844IJ,科教文化服务,学校,高等院校,
116.34232822025808,39.9771915201539,北京航空航天大学车辆工程学科部,学院路37号北京航空航天大学,北京市,北京市,,科教文化服务;学校;高等院校,141201,B000A843AV,科教文化服务,学校,高等院校,
116.31913657325063,40.0002180655811,清华大学建筑学院建筑技术科学系,双清路30号清华大学,北京市,北京市,,科教文化服务;学校;高等院校,141201,B000A83GSF,科教文化服务,学校,高等院校,
116.32106972225368,40.00343220864354,清华大学广播台,双清路30号清华大学内,北京市,北京市,,科教文化服务;学校;高等院校|科教文化服务;传媒机构;电台,141201|141102,B000A83GSE,科教文化服务,学校,高等院校|科教文化服务,传媒机构
116.30757462060177,39.967945257063256,中国人民大学马克思主义学院,中关村大街59号,北京市,北京市,,科教文化服务;学校;高等院校,141201,B000A82ZEV,科教文化服务,学校,高等院校,
116.31034599436515,39.972224938161645,中国人民大学信息资源管理学院,中关村大街59号中国人民大学,北京市,北京市,,科教文化服务;学校;高等院校,141201,B000A82ZE3,科教文化服务,学校,高等院校,
116.30215581372926,39.97060895365672,中国人民大学统计学院计算机室,中关村大街59号中国人民大学明德主楼5层,北京市,北京市,,科教文化服务;学校;高等院校,141201,B000A81JF7,科教文化服务,学校,高等院校,
116.30548853202646,39.988514240018425,北京大学电教楼,颐和园路5号北京大学,北京市,北京市,,科教文化服务;学校;高等院校,141201,B000A81F5L,科教文化服务,学校,高等院校,
116.34232822025808,39.9771915201539,北京航空航天大学载运工具运用工程学科部,学院路37号北京航空航天大学,北京市,北京市,,科教文化服务;学校;高等院校,141201,B000A81F3D,科教文化服务,学校,高等院校,
116.34232822025808,39.9771915201539,北京航空航天大学动力机械及工程学科部,学院路37号北京航空航天大学,北京市,北京市,,科教文化服务;学校;高等院校,141201,B000A81F3B,科教文化服务,学校,高等院校,
116.30934240367364,39.98656422715312,北京大学软件与微电子学院EMOT国际合作项目部,中关村北大街151号燕园大厦10层1018,北京市,北京市,中关村,科教文化服务;学校;高等院校,141201,B000A80CVD,科教文化服务,学校,高等院校,
116.30576869186666,39.99041665072615,北京大学地学楼,颐和园路5号北京大学,北京市,北京市,,科教文化服务;学校;高等院校,141201,B000A80CV9,科教文化服务,学校,高等院校,
116.30215581372926,39.97060895365672,中国人民大学农业与农村发展学院,海淀街道中关村大街59号中国人民大学校内,北京市,北京市,,科教文化服务;学校;高等院校,141201,B000A80C2E,科教文化服务,学校,高等院校,
116.30215581372926,39.97060895365672,中国人民大学统计学院,中关村大街59号中国人民大学明德主楼,北京市,北京市,,科教文化服务;学校;高等院校,141201,B000A80C2D,科教文化服务,学校,高等院校,
116.30182851566965,39.970418540339246,中国人民大学财政金融学院,中关村大街59号明德主楼601室,北京市,北京市,,科教文化服务;学校;高等院校,141201,B000A80C2C,科教文化服务,学校,高等院校,
116.30215581372926,39.97060895365672,中国人民大学经济学院,中关村大街59号中国人民大学明德主楼,北京市,北京市,,科教文化服务;学校;高等院校,141201,B000A80C2B,科教文化服务,学校,高等院校,
116.34200015825373,39.98315785512223,北京航空航天大学人文社会科学学院,学院路37号北京航空航天大学,北京市,北京市,五道口,科教文化服务;学校;高等院校,141201,B000A80A51,科教文化服务,学校,高等院校,
116.34199616687157,39.98315686220949,北京航空航天大学公共管理学院,学院路37北京航空航天大学,北京市,北京市,五道口,科教文化服务;学校;高等院校,141201,B000A80A50,科教文化服务,学校,高等院校,
116.31054294409546,39.96915969231217,中国人民大学实验室建设与设备管理处,中关村大街59号中国人民大学校部办公楼8层,北京市,北京市,,科教文化服务;学校;高等院校,141201,B000A7ZWKQ,科教文化服务,学校,高等院校,
116.30798152334494,39.985488795491044,美国加州高级护理学院北京代办处,海淀路50北京大学资源东楼1310,北京市,北京市,,科教文化服务;学校;高等院校,141201,B000A7ZS46,科教文化服务,学校,高等院校,
116.30798152334494,39.985488795491044,北京大学cio(信息总监)班招生办公室,海淀路50号北京大学资源东楼1308室,北京市,北京市,,科教文化服务;学校;高等院校,141201,B000A7ZNLA,科教文化服务,学校,高等院校,
116.31917253538353,39.9998650117848,清华大学机械工程馆,清华园街道双清路30号,北京市,北京市,,科教文化服务;学校;高等院校,141201,B000A7Z0TG,科教文化服务,学校,高等院校,
116.30277397655337,39.990874027495856,北京大学俄罗斯语言文学系,北京市海淀区颐和园路5号北京大学外文楼,北京市,北京市,,科教文化服务;学校;高等院校,141201,B000A7YZZO,科教文化服务,学校,高等院校,
116.30119480971727,39.99435967421344,北京大学房地产管理部,颐和园路5号北京大学镜春路,北京市,北京市,,科教文化服务;学校;高等院校,141201,B000A7YZYW,科教文化服务,学校,高等院校,
116.30560926679026,39.988567018223165,北京大学数字媒体实验教学中心,颐和园路5号北京大学,北京市,北京市,,科教文化服务;学校;高等院校,141201,B000A7YZYC,科教文化服务,学校,高等院校,
116.30563088454467,39.99123286741275,北京大学生命科学学院,颐和园路5号北京大学,北京市,北京市,,科教文化服务;学校;高等院校,141201,B000A7YZY6,科教文化服务,学校,高等院校,
116.30862511747108,39.99340327367307,北京大学环境科学与工程学院,颐和园路5号北京大学环境大楼(刘水楼),北京市,北京市,,科教文化服务;学校;高等院校,141201,B000A7YZY5,科教文化服务,学校,高等院校,
116.30630113198342,39.985773872202486,北京大学体育运动委员会,颐和园路5号北京大学院内燕园,北京市,北京市,,科教文化服务;学校;高等院校,141201,B000A7YZXY,科教文化服务,学校,高等院校,
116.30798152334494,39.985488795491044,北京大学经济学国际关系硕士办公室,海淀路50号北京大学资源东楼1206室,北京市,北京市,,科教文化服务;学校;高等院校,141201,B000A7YZXK,科教文化服务,学校,高等院校,
116.34127793002297,39.981346208439675,北京航空航天大学学生资助管理中心,学院路37号北京航空航天大学,北京市,北京市,,科教文化服务;学校;高等院校,141201,B000A7YZAZ,科教文化服务,学校,高等院校,
116.34216856976681,39.97710780476437,北京航空航天大学交通科学与工程学院,学院路37号北京航空航天大学,北京市,北京市,,科教文化服务;学校;高等院校,141201,B000A7YZAQ,科教文化服务,学校,高等院校,
116.30199607343876,39.97117721371246,中国人民大学如论讲堂,中关村大街59号中国人民大学内,北京市,北京市,,科教文化服务;学校;高等院校|科教文化服务;会展中心;会展中心,141201|140300,B000A7YX85,科教文化服务,学校,高等院校|科教文化服务,会展中心
116.31054294409546,39.96915969231217,中国人民大学资产与后勤管理处,中关村大街59号中国人民大学校部办公楼10-11层,北京市,北京市,,科教文化服务;学校;高等院校,141201,B000A7XLYP,科教文化服务,学校,高等院校,
116.30757462060177,39.967945257063256,中国人民大学哲学院,海淀街道中关村大街59号,北京市,北京市,,科教文化服务;学校;高等院校,141201,B000A7XLYO,科教文化服务,学校,高等院校,
116.30331134146242,39.97109187717101,中国人民大学招生就业处,中关村大街59号中国人民大学内,北京市,北京市,,科教文化服务;学校;高等院校,141201,B000A7XLYN,科教文化服务,学校,高等院校,
116.31054294409546,39.96915969231217,中国人民大学研究生院信息中心,中关村大街59号中国人民大学校部办公楼2层,北京市,北京市,,科教文化服务;学校;高等院校,141201,B000A7XLYL,科教文化服务,学校,高等院校,
116.30331134146242,39.97109187717101,中国人民大学学生处,中关村大街59号中国人民大学,北京市,北京市,,科教文化服务;学校;高等院校,141201,B000A7XLYJ,科教文化服务,学校,高等院校,
116.302602818936,39.971127139445045,中国人民大学新闻学院,中关村大街59号中国人民大学明德新闻楼,北京市,北京市,,科教文化服务;学校;高等院校,141201,B000A7XLYI,科教文化服务,学校,高等院校,
116.31054294409546,39.96915969231217,中国人民大学校园建设管理处,中关村大街59号,北京市,北京市,,科教文化服务;学校;高等院校,141201,B000A7XLYH,科教文化服务,学校,高等院校,
116.30723543855274,39.967301907166906,中国人民大学网络与教育技术中心,中关村大街59号中国人民大学,北京市,北京市,,科教文化服务;学校;高等院校,141201,B000A7XLYB,科教文化服务,学校,高等院校,
116.30979023360165,39.97214797963326,中国人民大学数据工程与知识工程教育部重点实验室,中关村大街59号中国人民大学,北京市,北京市,,科教文化服务;学校;高等院校,141201,B000A7XLYA,科教文化服务,学校,高等院校,
116.30757462060177,39.967945257063256,中国人民大学历史学院,海淀街道中关村大街59号,北京市,北京市,,科教文化服务;学校;高等院校,141201,B000A7XLY3,科教文化服务,学校,高等院校,
116.30107700040493,39.97092184351998,中国人民大学国际关系学院,中关村大街59号中国人民大学,北京市,北京市,,科教文化服务;学校;高等院校,141201,B000A7XLXZ,科教文化服务,学校,高等院校,
116.30331134146242,39.97109187717101,中国人民大学党委学生工作部,中关村大街59号中国人民大学,北京市,北京市,,科教文化服务;学校;高等院校,141201,B000A7XLXV,科教文化服务,学校,高等院校,
116.31054294409546,39.96915969231217,中国人民大学本科教学评估办公室,中关村大街59号中国人民大学校部办公楼7层,北京市,北京市,,科教文化服务;学校;高等院校,141201,B000A7XLXU,科教文化服务,学校,高等院校,
116.32158988253796,40.000605331192496,清华大学外国语言文学系,双清路30号,北京市,北京市,,科教文化服务;学校;高等院校,141201,B000A7X2PL,科教文化服务,学校,高等院校,
116.32288216803784,39.99852993440861,清华大学基础工业训练中心机械制造实习部,双清路30号清华大学,北京市,北京市,,科教文化服务;学校;高等院校,141201,B000A7X2OE,科教文化服务,学校,高等院校,
116.32732331853357,39.99556353594025,清华大学环境影响评价室,清华园华业大厦2504、2506,北京市,北京市,,科教文化服务;学校;高等院校,141201,B000A7X2OD,科教文化服务,学校,高等院校,
116.31331526605692,40.00464699067863,清华大学-化学系,双清路30号清华大学化学馆,北京市,北京市,,科教文化服务;学校;高等院校,141201,B000A7X2OB,科教文化服务,学校,高等院校,
116.30273954976165,39.970999901246586,中国人民大学明德新闻楼,中关村大街59号中国人民大学,北京市,北京市,,科教文化服务;学校;高等院校,141201,B000A7X0EL,科教文化服务,学校,高等院校,
116.30850739348413,39.969462472677634,中国人民大学理学院物理系,中关村街道中关村大街59号,北京市,北京市,,科教文化服务;学校;高等院校,141201,B000A7WY0N,科教文化服务,学校,高等院校,
116.30850739348413,39.969462472677634,中国人民大学理学院化学系,中关村大街59号中国人民大学理工楼1-4层,北京市,北京市,,科教文化服务;学校;高等院校,141201,B000A7WY0M,科教文化服务,学校,高等院校,
116.30850739348413,39.969462472677634,中国人民大学环境学院实验室,中关村大街59号中国人民大学理工楼9层,北京市,北京市,,科教文化服务;学校;高等院校|科教文化服务;科研机构;科研机构,141201|141300,B000A7WSBY,科教文化服务,学校,高等院校|科教文化服务,科研机构
116.30709656553864,39.96868510724417,国家教委中国人民大学文科文献信息中心,中关村大街59号中国人民大学,北京市,北京市,,科教文化服务;学校;高等院校,141201,B000A7WP0Z,科教文化服务,学校,高等院校,
116.29735465811208,39.993348340954284,北京大学心理学系儿童发展中心,颐和园路102号,北京市,北京市,,科教文化服务;学校;高等院校,141201,B000A7WEBB,科教文化服务,学校,高等院校,
116.30628634382973,39.992280627819966,北京大学水电中心电管科,颐和园路5号北京大学,北京市,北京市,,科教文化服务;学校;高等院校,141201,B000A7WEB6,科教文化服务,学校,高等院校,
116.32763004423288,40.00005775636262,清华大学计算机科学与技术系,双清路30号清华大学,北京市,北京市,,科教文化服务;学校;高等院校,141201,B000A7VIDM,科教文化服务,学校,高等院校,
116.30141671558776,39.991480405461196,北京大学南阁,颐和园路5号北京大学,北京市,北京市,,科教文化服务;学校;高等院校,141201,B000A7VIAA,科教文化服务,学校,高等院校,
116.3413228735137,39.98103414136543,北京航空航天大学招生就业处,学院路37号北京航空航天大学,北京市,北京市,,科教文化服务;学校;高等院校|生活服务;人才市场;人才市场,141201|070800,B000A7VGYP,科教文化服务,学校,高等院校|生活服务,人才市场
116.34136379448928,39.98096707144726,北京航空航天大学学生就业指导服务中心,学院路37号北京航空航天大学内,北京市,北京市,,科教文化服务;学校;高等院校,141201,B000A7VGYL,科教文化服务,学校,高等院校,
116.34221201165032,39.98077057923199,北京航空航天大学港澳台事务办公室,学院路37号北京航空航天大学,北京市,北京市,,科教文化服务;学校;高等院校,141201,B000A7TCQK,科教文化服务,学校,高等院校,
116.30634027688049,39.991889545678184,北京大学地球与空间科学学院空间信息科学与技术系,颐和园路5燕园北京大学,北京市,北京市,,科教文化服务;学校;高等院校,141201,B000A7SV4K,科教文化服务,学校,高等院校,
116.30155110502564,39.994130056965695,中国研究生院院长联席会秘书处,颐和园路5镜春路北京大学,北京市,北京市,,科教文化服务;学校;高等院校,141201,B000A7RD3M,科教文化服务,学校,高等院校,
116.30031746641161,39.99545416299898,北京大学中国文物博物馆学院,颐和园路5北京大学,北京市,北京市,,科教文化服务;学校;高等院校,141201,B000A7RCTH,科教文化服务,学校,高等院校,
116.31259626698923,39.96991679900699,中国人民大学培训、英国高等教育办公室,中关村大街甲59号文化大厦1103,北京市,北京市,,科教文化服务;学校;高等院校,141201,B000A7RCAB,科教文化服务,学校,高等院校,
116.30564657371534,39.96961572192115,中国人民大学节能办公室,中关村大街59号中国人民大学,北京市,北京市,,科教文化服务;学校;高等院校,141201,B000A7RCA6,科教文化服务,学校,高等院校,
116.29982379174913,39.992885130219165,北京大学英语语言文学系,颐和园路5号北京大学,北京市,北京市,,科教文化服务;学校;高等院校,141201,B000A7R3HA,科教文化服务,学校,高等院校,
116.30852285661896,39.989319634795244,北京大学逸夫苑,颐和园路5号北京大学,北京市,北京市,,科教文化服务;学校;高等院校,141201,B000A7R2JE,科教文化服务,学校,高等院校,
116.30141671558776,39.991480405461196,香港中文大学驻北京大学联络处,颐和园路5号北京大学,北京市,北京市,,科教文化服务;学校;高等院校,141201,B000A7QSW9,科教文化服务,学校,高等院校,
116.32145347480638,39.998408688590416,清华园街道清华园老龄大学,双清路30号清华园清华大学,北京市,北京市,,科教文化服务;学校;高等院校,141201,B000A7Q6JZ,科教文化服务,学校,高等院校,
116.31294121648507,40.00378673671858,清华大学数学科学系,双清路30号清华大学,北京市,北京市,,科教文化服务;学校;高等院校,141201,B000A7Q6HW,科教文化服务,学校,高等院校,
116.31757868089923,39.99596423790926,清华大学老年活动中心,双清路30号清华大学熊知行楼,北京市,北京市,,科教文化服务;学校;高等院校,141201,B000A7Q6HD,科教文化服务,学校,高等院校,
116.32159486801851,40.000629320558694,清华大学教育研究院,双清路30号,北京市,北京市,,科教文化服务;学校;高等院校|科教文化服务;科研机构;科研机构,141201|141300,B000A7Q6H8,科教文化服务,学校,高等院校|科教文化服务,科研机构
116.32534729874892,40.00002113157487,清华大学激光快速成形中心,双清路30号清华大学,北京市,北京市,,科教文化服务;学校;高等院校,141201,B000A7Q6GY,科教文化服务,学校,高等院校,
116.31336315869348,40.00464290011427,清华大学化学馆,双清路30号清华大学,北京市,北京市,,科教文化服务;学校;高等院校,141201,B000A7Q6GR,科教文化服务,学校,高等院校,
116.32288216803784,39.99852993440861,清华大学红外体温检测仪机械部件部,双清路30号清华园清华大学,北京市,北京市,,科教文化服务;学校;高等院校,141201,B000A7Q6GO,科教文化服务,学校,高等院校,
116.32534729874892,40.00002113157487,清华大学电机工程与应用电子技术系,双清路30号清华园清华大学,北京市,北京市,,科教文化服务;学校;高等院校,141201,B000A7Q6GD,科教文化服务,学校,高等院校,
116.32702965385062,39.9982399832612,清华大学电化教育中心,双清路30号清华大学,北京市,北京市,,科教文化服务;学校;高等院校,141201,B000A7Q6GC,科教文化服务,学校,高等院校,
116.31280847173345,40.0041279728088,清华大学蒙民伟理科馆,双清路30号清华大学,北京市,北京市,,科教文化服务;学校;高等院校,141201,B000A7PZXM,科教文化服务,学校,高等院校,
116.32690793395558,39.9982372163897,清华大学-梁銶琚楼,双清路30号清华园清华大学,北京市,北京市,,科教文化服务;学校;高等院校,141201,B000A7PVPU,科教文化服务,学校,高等院校,
116.3021628521837,39.994025980292015,北京大学均斋(红三楼),颐和园路5号北京大学,北京市,北京市,,科教文化服务;学校;高等院校,141201,B000A7PQ9C,科教文化服务,学校,高等院校,
116.30565381674428,39.99138081946236,北京大学学生课外活动指导中心,颐和园路5号北京大学(临湖路),北京市,北京市,,科教文化服务;学校;高等院校,141201,B000A7ORTH,科教文化服务,学校,高等院校,
116.30092525731705,39.98725244518618,北京大学学生工作部,颐和园路5号北京大学,北京市,北京市,,科教文化服务;学校;高等院校,141201,B000A7ORTF,科教文化服务,学校,高等院校,
116.30616639806621,39.98596511050009,北京大学体育教研部,颐和园路5号北京大学院内燕园,北京市,北京市,,科教文化服务;学校;高等院校,141201,B000A7ORSP,科教文化服务,学校,高等院校,
116.30119480971727,39.99435967421344,北京大学实验室与设备管理部,颐和园路5号北京大学镜春路,北京市,北京市,,科教文化服务;学校;高等院校,141201,B000A7ORSH,科教文化服务,学校,高等院校,
116.30119480971727,39.99435967421344,北京大学审计室,颐和园路5号北京大学,北京市,北京市,,科教文化服务;学校;高等院校,141201,B000A7ORS8,科教文化服务,学校,高等院校,
116.29903167102539,39.99063259363653,北京大学人事部,颐和园路5号北京大学勺园5甲306,北京市,北京市,,科教文化服务;学校;高等院校,141201,B000A7ORS6,科教文化服务,学校,高等院校,
116.3089762105246,39.98655490854232,北京大学联泰供应链系统研究发展中心,中关村北大街151号燕园大厦8层811,北京市,北京市,中关村,科教文化服务;学校;高等院校,141201,B000A7ORRZ,科教文化服务,学校,高等院校,
116.30031746641161,39.99545416299898,北京大学考古文博学院,颐和园路5号北京大学镜春路,北京市,北京市,,科教文化服务;学校;高等院校,141201,B000A7ORRW,科教文化服务,学校,高等院校,
116.3089762105246,39.98655490854232,北京大学经济学院高层研修项目办公室,中关村北大街151号燕园大厦,北京市,北京市,中关村,科教文化服务;学校;高等院校,141201,B000A7ORRV,科教文化服务,学校,高等院校,
116.30141671558776,39.991480405461196,北京大学国际合作部,颐和园路5号北京大学,北京市,北京市,,科教文化服务;学校;高等院校,141201,B000A7ORRE,科教文化服务,学校,高等院校,
116.30141671558776,39.991480405461196,北京大学港澳台事务办公室,颐和园路5号北京大学,北京市,北京市,,科教文化服务;学校;高等院校,141201,B000A7ORR7,科教文化服务,学校,高等院校,
116.30852285661896,39.989319634795244,北京大学地球物理学系,颐和园路5号逸夫苑北京大学,北京市,北京市,,科教文化服务;学校;高等院校,141201,B000A7ORQY,科教文化服务,学校,高等院校,
116.3089762105246,39.98655490854232,北京大学-早稻田大学教学科研联合中心,中关村北大街151号燕园大厦7层701,北京市,北京市,中关村,科教文化服务;学校;高等院校,141201,B000A7ORQK,科教文化服务,学校,高等院校,
116.3089762105246,39.98655490854232,北海道大学北京代表处,中关村北大街151号燕园大厦8层806,北京市,北京市,中关村,科教文化服务;学校;高等院校,141201,B000A7OJPP,科教文化服务,学校,高等院校,
116.31012399821483,39.968161515970735,中国人民大学公共管理学院,中关村大街59号中国人民大学,北京市,北京市,,科教文化服务;学校;高等院校,141201,B000A7MUIF,科教文化服务,学校,高等院校,
116.3089762105246,39.98655490854232,日本创价大学北京代表处,中关村北大街151号燕园大厦,北京市,北京市,中关村,科教文化服务;学校;高等院校,141201,B000A7LKD8,科教文化服务,学校,高等院校,
116.30930730033243,39.97213388013378,中国人民大学信息学院,中关村大街59号中国人民大学,北京市,北京市,,科教文化服务;学校;高等院校,141201,B000A7IG6I,科教文化服务,学校,高等院校,
116.3064050986759,39.992194414284754,北京大学水电中心水管科,颐和园路5号北京大学,北京市,北京市,,科教文化服务;学校;高等院校,141201,B000A7HAJD,科教文化服务,学校,高等院校,
116.30140070928118,39.99179242052375,北京大学北阁,颐和园路5号北京大学,北京市,北京市,,科教文化服务;学校;高等院校,141201,B000A7H252,科教文化服务,学校,高等院校,
116.31800452574434,39.99739336033969,清华大学结算中心,双清路30号清华大学清华园,北京市,北京市,,科教文化服务;学校;高等院校,141201,B000A7D8BV,科教文化服务,学校,高等院校,
116.30576869186666,39.99041665072615,北京大学环境工程系,颐和园路5号北京大学地学楼,北京市,北京市,,科教文化服务;学校;高等院校,141201,B000A77EA0,科教文化服务,学校,高等院校,
116.30690539624152,39.989189623503734,北京大学管理信息中心,颐和园路5号北京大学,北京市,北京市,,科教文化服务;学校;高等院校,141201,B000A77A67,科教文化服务,学校,高等院校,
116.30577673207583,39.98996065516331,北京大学招生办公室,颐和园路5号北京大学,北京市,北京市,,科教文化服务;学校;高等院校,141201,B000A72547,科教文化服务,学校,高等院校,
116.30690539624152,39.989189623503734,北京大学体育教研部教学区,颐和园路5号燕园北京大学,北京市,北京市,,科教文化服务;学校;高等院校,141201,B000A51088,科教文化服务,学校,高等院校,
116.31054294409546,39.96915969231217,中国人民大学研究生院,中关村大街59号,北京市,北京市,,科教文化服务;学校;高等院校,141201,B000A37987,科教文化服务,学校,高等院校,
116.30800514439615,39.988085644222686,北京大学-结算中心,颐和园路5号北京大学(燕园校区)内,北京市,北京市,,科教文化服务;学校;高等院校,141201,B000A329AF,科教文化服务,学校,高等院校,
116.30576869186666,39.99041665072615,北京大学环境科学系,颐和园路5号北京大学地学楼,北京市,北京市,,科教文化服务;学校;高等院校,141201,B000A1CA6B,科教文化服务,学校,高等院校,
116.29967812876112,39.92887495950585,首都师范大学,西三环北路105号,北京市,北京市,,科教文化服务;学校;高等院校,141201,B000A7CDQS,科教文化服务,学校,高等院校,
116.31436388992184,39.94926826850219,中央民族大学,中关村南大街27号,北京市,北京市,白石桥,科教文化服务;学校;高等院校,141201,B000A761D9,科教文化服务,学校,高等院校,
116.31308421801717,39.94575183584492,北京舞蹈学院,万寿寺路1号(中关村南大街口),北京市,北京市,白石桥,科教文化服务;学校;高等院校,141201,B000A88EEF,科教文化服务,学校,高等院校,
116.33666185110613,39.95092877511813,北京交通大学,西直门外上园村3号,北京市,北京市,西直门,科教文化服务;学校;高等院校,141201,B000A81K18,科教文化服务,学校,高等院校,
116.30677313166429,39.953863289481426,北京外国语大学东校区,西三环北路2号院,北京市,北京市,,科教文化服务;学校;高等院校,141201,B000A88EE1,科教文化服务,学校,高等院校,
116.30145790913922,39.94950702420083,中国青年政治学院,西三环北路25号,北京市,北京市,,科教文化服务;学校;高等院校,141201,B000A45608,科教文化服务,学校,高等院校,
116.30178788618795,39.93630996823864,首都师范大学(北一区),西三环北路83号,北京市,北京市,,科教文化服务;学校;高等院校,141201,B000A83MLZ,科教文化服务,学校,高等院校,
116.34103993379212,39.94598104433417,北京交通大学(东校区),高粱桥斜街44号,北京市,北京市,西直门,科教文化服务;学校;高等院校,141201,B000A4EBC7,科教文化服务,学校,高等院校,
116.30958075744566,39.94784633602979,中央社会主义学院,万寿寺甲4号,北京市,北京市,万寿寺,科教文化服务;学校;高等院校,141201,B000A7EJWO,科教文化服务,学校,高等院校,
116.31818036487876,39.92421298516052,首都师范大学东校区,阜外白堆子甲23号,北京市,北京市,,科教文化服务;学校;高等院校,141201,B000A88BHD,科教文化服务,学校,高等院校,
116.29714865111754,39.94088580099435,北京化工大学西校区,紫竹院路98号,北京市,北京市,,科教文化服务;学校;高等院校,141201,B000A7XZ29,科教文化服务,学校,高等院校,
116.33522920615594,39.933804104400714,北京建筑大学(西城校区),展览馆路1号(北京展览馆),北京市,北京市,展览路,科教文化服务;学校;高等院校,141201,B000A856NT,科教文化服务,学校,高等院校,
116.31140416178737,39.928414702400836,中国劳动关系学院,增光路45号,北京市,北京市,车公庄,科教文化服务;学校;高等院校,141201,B0FFFAQ2KS,科教文化服务,学校,高等院校,
116.30045551984517,39.93710327543542,马克思主义教育学院,西三环北路83号首师大北一区,北京市,北京市,,科教文化服务;学校;高等院校,141201,B000A80CD7,科教文化服务,学校,高等院校,
116.34097515348161,39.9295868179035,北京行政学院,车公庄大街6号,北京市,北京市,展览路,科教文化服务;学校;高等院校,141201,B000A6C3A5,科教文化服务,学校,高等院校,
116.3083993453892,39.9320051648828,北京商务研修学院招生部,车公庄西路33号,北京市,北京市,车公庄,科教文化服务;学校;高等院校,141201,B0FFIRYX4N,科教文化服务,学校,高等院校,
116.3003975329724,39.95386470998073,北京外国语大学西校区,西三环北路19号,北京市,北京市,,科教文化服务;学校;高等院校,141201,B000A1183C,科教文化服务,学校,高等院校,
116.32640104287889,39.92758704750283,中建管理学院,三里河路15号中建大厦B座,北京市,北京市,三里河,科教文化服务;学校;高等院校,141201,B000A8UUF7,科教文化服务,学校,高等院校,
116.31267181744617,39.92452647220224,北京工商大学(东区),阜成路11号和33号(航天桥东),北京市,北京市,,科教文化服务;学校;高等院校,141201,B0FFFAID5E,科教文化服务,学校,高等院校,
116.3083213370695,39.93342725178352,北京工业大学中加工商计算机中心,车公庄西路35号,北京市,北京市,车公庄,科教文化服务;学校;高等院校,141201,B0FFH261DM,科教文化服务,学校,高等院校,
116.2947652732294,39.95657514581458,国家行政学院,长春桥路6,北京市,北京市,,科教文化服务;学校;高等院校,141201,B000A7CFGQ,科教文化服务,学校,高等院校,
116.31189356677973,39.95622566922833,北京理工大学研究生院,中关村南大街5号北京理工大学,北京市,北京市,,科教文化服务;学校;高等院校,141201,B000A87K7P,科教文化服务,学校,高等院校,
116.313760355392,39.92464240600971,北京轻工业学院,阜成路11号,北京市,北京市,,科教文化服务;学校;高等院校,141201,B0FFGZNNUH,科教文化服务,学校,高等院校,
116.30205015958317,39.95369381276685,北京外国语大学西校区培训学院,北京外国语大学西校区内综合楼6层,北京市,北京市,,科教文化服务;学校;高等院校|科教文化服务;培训机构;培训机构,141201|141400,B000A84J16,科教文化服务,学校,高等院校|科教文化服务,培训机构
116.30170180494967,39.93040835857003,资源环境与旅游学院,西三环北路105号首都师范大学,北京市,北京市,,科教文化服务;学校;高等院校,141201,B000A84LOK,科教文化服务,学校,高等院校,
116.30593723589331,39.93555054726078,首都师范大学信息工程学院计算机科学与技术实验教学中心,西三环北路56号,北京市,北京市,,科教文化服务;学校;高等院校,141201,B0FFFDCC7B,科教文化服务,学校,高等院校,
116.31625995574763,39.94635376948698,中国空间技术研究院研究生部,中关村南大街31号神舟大厦,北京市,北京市,白石桥,科教文化服务;学校;高等院校,141201,B000A7RBOZ,科教文化服务,学校,高等院校,
116.31604417365733,39.92472405397505,中国人民大学·中国少年报社少年新闻学院,白堆子131号,北京市,北京市,,科教文化服务;学校;高等院校,141201,B000A81F56,科教文化服务,学校,高等院校,
116.32386121594243,39.93289070829464,首都师范大学初等教育学院(教育实践研究基地),车公庄西路7号附近,北京市,北京市,三里河,科教文化服务;学校;高等院校,141201,B0FFFTJSMM,科教文化服务,学校,高等院校,
116.30711806113365,39.93259050493684,北京工业大学中加工商学院,车公庄西路35号,北京市,北京市,车公庄,科教文化服务;学校;高等院校,141201,B0FFFVJVN9,科教文化服务,学校,高等院校,
116.31220654801744,39.95875397899413,北京理工大学机电学院(3号楼),中关村南大街5北京理工大学,北京市,北京市,,科教文化服务;学校;高等院校,141201,B000A85CLB,科教文化服务,学校,高等院校,
116.31076308926296,39.94825810958472,中华文化学院,万寿寺甲4号,北京市,北京市,万寿寺,科教文化服务;学校;高等院校,141201,B0FFHQ9BRI,科教文化服务,学校,高等院校,
116.33232014093541,39.92276599140913,北京华文学院,阜成门外大街39号,北京市,北京市,百万庄,科教文化服务;学校;高等院校|科教文化服务;培训机构;培训机构,141201|141400,B0FFHDP6LT,科教文化服务,学校,高等院校|科教文化服务,培训机构
116.31907991971855,39.951038179142515,北京大学口腔医学院,中关村南大街22号,北京市,北京市,西直门,科教文化服务;学校;高等院校,141201,B000A19285,科教文化服务,学校,高等院校,
116.31364947813401,39.94946161750349,中央民族大学(文华楼西区),中关村南路27号中央民族大学内,北京市,北京市,白石桥,科教文化服务;学校;高等院校,141201,B0FFG4FFBC,科教文化服务,学校,高等院校,
116.33950893642383,39.92470064530404,外交学院展览路校区,展览馆路24号,北京市,北京市,展览路,科教文化服务;学校;高等院校,141201,B0FFH74F65,科教文化服务,学校,高等院校,
116.33213709488942,39.93430086492686,北京教育学院(文兴街校区),西直门外南路文兴街2号院,北京市,北京市,展览路,科教文化服务;学校;高等院校,141201,B0FFIY0GZR,科教文化服务,学校,高等院校,
116.30865990996425,39.92298105122581,北京工商大学(阜成路校区西区)商学院,阜成路,北京市,北京市,,科教文化服务;学校;高等院校,141201,B0G3K1NJ4T,科教文化服务,学校,高等院校,
116.31689113364365,39.92560839816206,首都师范大学后勤集团东校区后勤服务中心,白堆子甲23号,北京市,北京市,,科教文化服务;学校;高等院校,141201,B0FFFA8P5D,科教文化服务,学校,高等院校,
116.31913248401705,39.953533979277395,军事文化学院,中关村南大街与魏公街交叉口东北200米,北京市,北京市,白石桥,科教文化服务;学校;高等院校,141201,B0FFKHTAC5,科教文化服务,学校,高等院校,
116.30043477610698,39.93539838013009,首师大北一区外语楼,西三环北路83号都师范大学北一区,北京市,北京市,,科教文化服务;学校;高等院校,141201,B0FFKCEY0O,科教文化服务,学校,高等院校,
116.30958164791508,39.956640985900414,北京理工大学学生会,中关村南大街5号北京理工大学,北京市,北京市,,科教文化服务;学校;高等院校,141201,B000A7WXZV,科教文化服务,学校,高等院校,
116.31537836279897,39.95901195073512,北京理工大学机械与车辆学院,中关村南大街5号北京理工大学,北京市,北京市,,科教文化服务;学校;高等院校,141201,B000A843AI,科教文化服务,学校,高等院校,
116.31530284667711,39.95653519287436,北京理工大学车辆工程系,中关村南大街5号北京理工大学,北京市,北京市,,科教文化服务;学校;高等院校,141201,B000A80AYC,科教文化服务,学校,高等院校,
116.31567983680443,39.95775442546535,北京理工大学材料学院,中关村南大街5北京理工大学,北京市,北京市,,科教文化服务;学校;高等院校,141201,B0FFFAHX21,科教文化服务,学校,高等院校,
116.33799119268821,39.948790426385735,北京交通大学留园餐厅,交通大学路(北京交通大学),北京市,北京市,西直门,科教文化服务;学校;高等院校|餐饮服务;中餐厅;中餐厅,141201|050100,B0FFGW3YAQ,科教文化服务,学校,高等院校|餐饮服务,中餐厅
116.30908448541423,39.95868183043549,北京理工大学中关村校区,中关村南大街5号,北京市,北京市,,科教文化服务;学校;高等院校,141201,B000A83H2R,科教文化服务,学校,高等院校,
116.3029565814369,39.935321933748206,首都师范大学北一区教学综合楼,西三环北路83号首都师范大学北一区国际文化大厦,北京市,北京市,,科教文化服务;学校;高等院校,141201,B000A7WU0I,科教文化服务,学校,高等院校,
116.33619197674398,39.958147354267666,中央财经大学,学院南路39号,北京市,北京市,北下关,科教文化服务;学校;高等院校,141201,B000A6EA36,科教文化服务,学校,高等院校,
116.30241738874692,39.95376115906858,北京外国语大学国际商学院,三环北路19号北京外国语大学西校区内,北京市,北京市,,科教文化服务;学校;高等院校,141201,B0FFI5EJXY,科教文化服务,学校,高等院校,
116.30044041475449,39.9541106254459,北京外国语大学,西三环北路2号(近魏公村),北京市,北京市,,科教文化服务;学校;高等院校,141201,B0G2J5IJ9U,科教文化服务,学校,高等院校,
116.31568583604395,39.95765241805849,北京理工大学化工与环境学院,中关村南大街5号北京理工大学,北京市,北京市,,科教文化服务;学校;高等院校,141201,B000AA6XCG,科教文化服务,学校,高等院校,
116.34251289574335,39.92944110295893,北京行政学院礼堂北侧教室,车公庄北街与车公庄南街交叉口西南200米,北京市,北京市,百万庄,科教文化服务;学校;高等院校,141201,B0FFFNQFQZ,科教文化服务,学校,高等院校,
116.30589051685271,39.9579657408143,北京理工大学留学生中心,中关村南大街5号北京理工大学,北京市,北京市,,科教文化服务;学校;高等院校,141201,B0FFFE091E,科教文化服务,学校,高等院校,
116.30472841332111,39.95467598108789,语言认知与语言教育实验室,北京外国语大学主楼东北角配楼,北京市,北京市,,科教文化服务;学校;高等院校,141201,B0FFLIBNAR,科教文化服务,学校,高等院校,
116.33968301397418,39.94476152194688,北京交通大学东校区半固体成形实验室,上园村路与高梁桥斜街交叉口东北50米,北京市,北京市,西直门,科教文化服务;学校;高等院校,141201,B0FFHC5FZD,科教文化服务,学校,高等院校,
116.31527092427436,39.95649425535363,北京理工大学中关村校区车辆工程系,紫竹院,北京市,北京市,,科教文化服务;学校;高等院校,141201,B0FFHEQHAK,科教文化服务,学校,高等院校,
116.33610513529783,39.93476144551606,北京建筑工程学院-环境与能源工程学院,[],北京市,北京市,展览路,科教文化服务;学校;高等院校,141201,B0FFIXSLOO,科教文化服务,学校,高等院校,
116.29805678357776,39.941522235791865,北京化工大学西校区国际教育学院,紫竹院路98号北京化工大学西校区,北京市,北京市,,科教文化服务;学校;高等院校,141201,B000AA0MSM,科教文化服务,学校,高等院校,
116.33927837695299,39.925175041688796,外交学院-主楼,展览馆路24外交学院,北京市,北京市,百万庄,科教文化服务;学校;高等院校,141201,B000AA0WU9,科教文化服务,学校,高等院校,
116.33584984577067,39.93363096249378,北京建筑大学西城校区建筑与城市规划学院,展览馆路1号北京建筑大学,北京市,北京市,三里河,科教文化服务;学校;高等院校,141201,B000AA1AFE,科教文化服务,学校,高等院校,
116.29913895092868,39.95486885204312,北京外国语大学国际教育学院,西三环北路19号北京外国语大学西校区,北京市,北京市,,科教文化服务;学校;高等院校,141201,B0FFFE3JRU,科教文化服务,学校,高等院校,
116.31243519828824,39.957465598504115,北京理工大学信息与电子学院,中关村南大街5号北京理工大学,北京市,北京市,,科教文化服务;学校;高等院校,141201,B0FFFE02B4,科教文化服务,学校,高等院校,
116.30686776556884,39.95514606510551,北京外国语大学东校区就业指导中心,西三环北路2号院北京外国语大学东校区,北京市,北京市,,科教文化服务;学校;高等院校|科教文化服务;培训机构;培训机构,141201|141400,B0FFFE3AR2,科教文化服务,学校,高等院校|科教文化服务,培训机构
116.31526693446116,39.95648526331575,北京理工大学中关村校区热能与动力工程系,紫竹院,北京市,北京市,,科教文化服务;学校;高等院校,141201,B0FFHEQH8Q,科教文化服务,学校,高等院校,
116.30840015362425,39.95735215282229,北京理工大学招生就业工作处,中关村南大街5号北京理工大学,北京市,北京市,,科教文化服务;学校;高等院校,141201,B0FFFE00BP,科教文化服务,学校,高等院校,
116.3154412981709,39.958391855294366,北京理工大学管理与经济学院,中关村南大街5号北京理工大学,北京市,北京市,,科教文化服务;学校;高等院校,141201,B0FFFE07R4,科教文化服务,学校,高等院校,
116.31223678198596,39.956361016769385,北京理工大学中关村校区研究生院,中关村南大街5号,北京市,北京市,,科教文化服务;学校;高等院校,141201,B0FFLP5LBS,科教文化服务,学校,高等院校,
116.30126772829665,39.95406017850665,北京外国语大学西校区会计与财务管理系,西三环北路19号北京外国语大学西校区内,北京市,北京市,,科教文化服务;学校;高等院校,141201,B000AA0WK9,科教文化服务,学校,高等院校,
116.31567385015376,39.957756436810676,北京理工大学化工与化学学院,中关村南大街5号,北京市,北京市,,科教文化服务;学校;高等院校,141201,B0FFHEZ4FB,科教文化服务,学校,高等院校,
116.30811856078358,39.959006608314915,北京理工大学10办公楼,体育北路与体育西路交叉口东150米,北京市,北京市,,科教文化服务;学校;高等院校,141201,B0FFHGL8AI,科教文化服务,学校,高等院校,
116.31037593234235,39.956321515208394,北京理工大学中关村校区光电学院,中关村南大街5号北京理工大学,北京市,北京市,,科教文化服务;学校;高等院校,141201,B0FFHLTQCQ,科教文化服务,学校,高等院校,
116.30127765863112,39.95445214553344,北京外国语大学西校区考试中心(厂洼社区卫生服务站东南),西三环北路19号北京外国语大学西校区,北京市,北京市,,科教文化服务;学校;高等院校,141201,B000A9VN8V,科教文化服务,学校,高等院校,
116.31526992653785,39.95649425725558,北京理工大学中关村校区交通工程系,紫竹院,北京市,北京市,,科教文化服务;学校;高等院校,141201,B0FFHEQHC1,科教文化服务,学校,高等院校,
116.2948371923847,39.92422732415656,北京市经济管理学校计算机数码维修教学实践基地,北洼路77-23号,北京市,北京市,,科教文化服务;学校;高等院校,141201,B0FFFZ2L4S,科教文化服务,学校,高等院校,
116.31148907158607,39.95938530546775,北京理工大学中关村校区信息中心,中关村南大街5号北京理工大学中关村校区,北京市,北京市,,科教文化服务;学校;高等院校,141201,B000AA4LQB,科教文化服务,学校,高等院校,
116.3108298253897,39.9571136335865,北京理工大学7教学楼(校园南路),中关村南大街5号北京理工大学,北京市,北京市,,科教文化服务;学校;高等院校,141201,B0FFGZIUV1,科教文化服务,学校,高等院校,
116.33642147381246,39.958098933301144,中央财经大学法学院,学院南路39号中央财经大学,北京市,北京市,皂君庙,科教文化服务;学校;高等院校,141201,B0FFFO6C2X,科教文化服务,学校,高等院校,
116.33669585398076,39.95819442471779,中央财经大学金融学院,学院南路39号中央财经大学主楼919、917办公室,北京市,北京市,大钟寺村,科教文化服务;学校;高等院校,141201,B0FFG05O9B,科教文化服务,学校,高等院校,
116.31472494831966,39.95818622831489,北京理工大学本科生国际教育办公室,中关村南大街5号北京理工大学,北京市,北京市,,科教文化服务;学校;高等院校,141201,B0FFFE07SI,科教文化服务,学校,高等院校,
116.3365291997162,39.95837772395469,中央财经大学会计学院,学院南路39号,北京市,北京市,皂君庙,科教文化服务;学校;高等院校,141201,B0FFG05OBC,科教文化服务,学校,高等院校,
116.33813170208505,39.958106801240184,中央财经大学基建处,学院南路39号中央财经大学北平房23号,北京市,北京市,皂君庙,科教文化服务;学校;高等院校,141201,B0FFFGQEA3,科教文化服务,学校,高等院校,
116.33575506831683,39.93353814142168,北京建筑大学西城校区建筑系,展览馆路1号北京建筑大学,北京市,北京市,展览路,科教文化服务;学校;高等院校,141201,B000A87KIT,科教文化服务,学校,高等院校,
116.33826042601736,39.950180881041426,教育部示范性软件学院建设工作办公室,芳华路与银杏大道交叉口东50米,北京市,北京市,西直门,科教文化服务;学校;高等院校,141201,B0FFH12SSI,科教文化服务,学校,高等院校,
116.3025155013505,39.93532271894668,首都师范大学北一区港澳台事务办公室,西三环北路83号首都师范大学国际文化大厦,北京市,北京市,,科教文化服务;学校;高等院校,141201,B000A7X604,科教文化服务,学校,高等院校,
116.31530284667711,39.95653519287436,北京理工大学交通工程系,中关村南大街5号北京理工大学,北京市,北京市,,科教文化服务;学校;高等院校,141201,B000A7Z0DW,科教文化服务,学校,高等院校,
116.30506903628927,39.936002107586894,首都师范大学北二院数学博士后流动站,西三环北路56号首都师范大学北二院,北京市,北京市,,科教文化服务;学校;高等院校,141201,B000AA1HO8,科教文化服务,学校,高等院校,
116.33554949052241,39.95747756782668,中央财经大学教学管理服务中心,学院南路与皂君庙斜街交叉口东北200米,北京市,北京市,皂君庙,科教文化服务;学校;高等院校,141201,B0FFFDC7NP,科教文化服务,学校,高等院校,
116.30136754228776,39.95390700902229,北京外国语大学西校区出国留学项目部,西三环北路19号北京外国语大学西校区内,北京市,北京市,,科教文化服务;学校;高等院校,141201,B0FFGTFAF3,科教文化服务,学校,高等院校,
116.31583181077505,39.95522323565836,中央广播电视大学(魏公村校区),魏公村路2号,北京市,北京市,,科教文化服务;学校;高等院校,141201,B000AA4XZY,科教文化服务,学校,高等院校,
116.33686339372339,39.95890108889791,中央财经大学书画院,学院南路39号,北京市,北京市,北下关,科教文化服务;学校;高等院校,141201,B0FFLK762X,科教文化服务,学校,高等院校,
116.33646337169594,39.95817185327181,中央财经大学GRE考点,学院南路39号附近,北京市,北京市,皂君庙,科教文化服务;学校;高等院校,141201,B0FFHBR3IU,科教文化服务,学校,高等院校,
116.34238203037748,39.94631565565344,北京交通大学东校区计算机实验教学示范中心,高梁桥斜街44号,北京市,北京市,西直门,科教文化服务;学校;高等院校,141201,B0FFH6MY1G,科教文化服务,学校,高等院校,
116.33626666660994,39.95928517146292,中央财经大学委员会,学院南路39号中央财经大学,北京市,北京市,大钟寺村,科教文化服务;学校;高等院校,141201,B000A9QY4T,科教文化服务,学校,高等院校,
116.3106382632069,39.95701499655651,北京理工大学中关村校区逸夫科技交流中心,[],北京市,北京市,,科教文化服务;学校;高等院校,141201,B0FFLL4HEY,科教文化服务,学校,高等院校,
116.31568382761098,39.95775541780981,北京理工大学中关村校区化工与环境学院,魏公村地铁站A西北口西北150米,北京市,北京市,,科教文化服务;学校;高等院校,141201,B0FFHRBHQY,科教文化服务,学校,高等院校,
116.34043081381415,39.949361997241894,北京交通大学隧道中心,西直门外上园村3号北京交通大学,北京市,北京市,西直门,科教文化服务;学校;高等院校|科教文化服务;培训机构;培训机构,141201|141400,B0FFG40NOY,科教文化服务,学校,高等院校|科教文化服务,培训机构
116.33303617675423,39.9491925803292,8号办公楼,[],北京市,北京市,西直门,科教文化服务;学校;高等院校,141201,B0FFF0E8ZL,科教文化服务,学校,高等院校,
116.31321417144349,39.959668038121976,北京理工大学中关村校区宇航学院,中关村南大街5号北京理工大学,北京市,北京市,,科教文化服务;学校;高等院校,141201,B0FFHRBGO9,科教文化服务,学校,高等院校,
116.33815964046373,39.958109750262594,中央财经大学离退休人员工作处,学院南路39号,北京市,北京市,皂君庙,科教文化服务;学校;高等院校,141201,B0FFG7374J,科教文化服务,学校,高等院校,
116.34259076582107,39.929166977335186,北京行政学院礼堂南侧教室,车公庄南街西100米,北京市,北京市,百万庄,科教文化服务;学校;高等院校,141201,B0FFH178R7,科教文化服务,学校,高等院校,
116.33736542078817,39.93418715265662,北京建筑大学校友工作办公室,展览馆路1号北京建筑大学,北京市,北京市,三里河,科教文化服务;学校;高等院校,141201,B000A81F3H,科教文化服务,学校,高等院校,
116.34238293891244,39.94702062605383,北京交通大学东校区电力馆,高粱桥斜街44号北京交通大学东校区,北京市,北京市,西直门,科教文化服务;学校;高等院校,141201,B0FFG65KOD,科教文化服务,学校,高等院校,
116.33613598823362,39.9590364222789,中央财经大学学生社团联合会,学院南路39号中央财经大学,北京市,北京市,皂君庙,科教文化服务;学校;高等院校,141201,B0FFG05O8A,科教文化服务,学校,高等院校,
116.30173489780339,39.95300939713268,北京外国语大学西校区财务处,西三环北路19号北京外国语大学西校区,北京市,北京市,,科教文化服务;学校;高等院校,141201,B0FFG3UOFW,科教文化服务,学校,高等院校,
116.31551817132917,39.958013723651554,北京理工大学中关村校区管理与经济学院专业学位教育联合中心,教学南路,北京市,北京市,,科教文化服务;学校;高等院校,141201,B0FFLM76KE,科教文化服务,学校,高等院校,
116.3360194581696,39.95737270325541,中央财经大学计算机应用实验教学中心,学院南路39号中央财经大学,北京市,北京市,大钟寺村,科教文化服务;学校;高等院校,141201,B0FFG05OAL,科教文化服务,学校,高等院校,
116.30108443291833,39.935523238325985,首都师范大学中国语言文学博士后流动站,西三环北路83号,北京市,北京市,,科教文化服务;学校;高等院校,141201,B000A848B6,科教文化服务,学校,高等院校,
116.34051863456068,39.94928384326704,北京交大轨道减振与控制实验室,西直门外上园村3号北京交通大学,北京市,北京市,西直门,科教文化服务;学校;高等院校,141201,B0FFFZBEJR,科教文化服务,学校,高等院校,
116.30453304538409,39.9529494024452,中国文化走出去协同创新中心,西三环北路2号院北京外国语大学东校区,北京市,北京市,,科教文化服务;学校;高等院校,141201,B0FFFE38H7,科教文化服务,学校,高等院校,
116.33766769802955,39.95828764021861,中央财经大学工商管理硕士教育中心,中央财经大学39号,北京市,北京市,皂君庙,科教文化服务;学校;高等院校,141201,B0FFGYNW6G,科教文化服务,学校,高等院校,
116.33888016819489,39.94941978641794,微细尺度流动与相变传热北京市重点实验室,西直门外上园村3号北京交通大学,北京市,北京市,西直门,科教文化服务;学校;高等院校,141201,B0FFFAHQHV,科教文化服务,学校,高等院校,
116.31060738791051,39.95656907206256,北京理工大学8教学楼,中关村南大街5号北京理工大学,北京市,北京市,,科教文化服务;学校;高等院校,141201,B0FFFDO045,科教文化服务,学校,高等院校,
116.33738036264744,39.934386117284106,北京建筑大学文法学院,展览馆路1号北京建筑大学,北京市,北京市,展览路,科教文化服务;学校;高等院校,141201,B000AA0X1U,科教文化服务,学校,高等院校,
116.31614000045366,39.95608961272311,北京理工大学百事特计算机教育学院,中关村南大街9号理工科技大厦1501室(近理工大学),北京市,北京市,,科教文化服务;学校;高等院校,141201,B000AA5TQJ,科教文化服务,学校,高等院校,
116.33788734052729,39.95730127843863,中央财经大学文荟轩,学院南路39号中央财经大学学术会堂内,北京市,北京市,皂君庙,科教文化服务;学校;高等院校|科教文化服务;展览馆;展览馆,141201|140200,B000A9PRD8,科教文化服务,学校,高等院校|科教文化服务,展览馆
116.30927099111172,39.95934945710792,北京理工大学离退休工作处,中关村南大街5号,北京市,北京市,,科教文化服务;学校;高等院校,141201,B000AA1F0R,科教文化服务,学校,高等院校,
116.31616664352582,39.95843746878227,北京理工大学EMBA中心,中关村南大街5号北京理工大学研究生教学楼205,北京市,北京市,,科教文化服务;学校;高等院校,141201,B000AA0CDT,科教文化服务,学校,高等院校,
116.3260034774671,39.95510070799673,北京船舶工业管理干部学院校外学习中心,学院南路72甲,北京市,北京市,西直门,科教文化服务;学校;高等院校,141201,B000A85FA4,科教文化服务,学校,高等院校,
116.31530284667711,39.95653519287436,北京理工大学热能与动力工程系,中关村南大街5号北京理工大学,北京市,北京市,,科教文化服务;学校;高等院校,141201,B000A7Z0DV,科教文化服务,学校,高等院校,
116.33628565443263,39.959049145827436,中央财经大学研究生会,学院南路39号中央财经大学,北京市,北京市,大钟寺村,科教文化服务;学校;高等院校,141201,B0FFFTNIHN,科教文化服务,学校,高等院校,
116.33625983086652,39.95811023064467,中央财经大学保险学院,学院南路39号中央财经大学,北京市,北京市,皂君庙,科教文化服务;学校;高等院校,141201,B000AA0VB4,科教文化服务,学校,高等院校,
116.33601640709473,39.957828690815454,中央财经大学商学院,学院南路39号,北京市,北京市,大钟寺村,科教文化服务;学校;高等院校,141201,B000AA0W4Z,科教文化服务,学校,高等院校,
116.30126772829665,39.95406017850665,北京外国语大学西校区-国际经济系,西三环北路19号北京外国语大学西校区内,北京市,北京市,,科教文化服务;学校;高等院校,141201,B000AA0VUO,科教文化服务,学校,高等院校,
116.31146113677285,39.959362358914305,北京理工大学中关村校区计算机实验教学中心,中关村南大街5号,北京市,北京市,,科教文化服务;学校;高等院校,141201,B0FFHRBAPX,科教文化服务,学校,高等院校,
116.3364883228819,39.95812080936664,中央财经大学财政学院,学院南路39号中央财经大学主教学楼11层,北京市,北京市,皂君庙,科教文化服务;学校;高等院校,141201,B000AA0X27,科教文化服务,学校,高等院校,
116.30089756163717,39.953470851489286,中国教育工会北京外国语大学西校区委员会,西三环北路19号北京外国语大学西校区,北京市,北京市,,科教文化服务;学校;高等院校,141201,B0FFFZSGNX,科教文化服务,学校,高等院校,
116.33628963975521,39.95909513665933,中央财经大学学生会,学院南路39号中央财经大学,北京市,北京市,北下关,科教文化服务;学校;高等院校,141201,B0FFFTMIEK,科教文化服务,学校,高等院校,
116.30089756163717,39.953470851489286,北京外国语大学离退休人员工作处,西三环北路19号北京外国语大学西校区,北京市,北京市,,科教文化服务;学校;高等院校,141201,B000AA1YXQ,科教文化服务,学校,高等院校,
116.30069380398798,39.954858153245745,留学生6号楼,西三环北路19号院6号,北京市,北京市,,商务住宅;住宅区;宿舍|科教文化服务;学校;高等院校,120303|141201,B0FFG4VU95,商务住宅,住宅区,宿舍|科教文化服务,学校
116.31409123212795,39.959369386407595,北京理工大学中关村校区校史工作委员会办公室,中关村南大街5号北京理工大学,北京市,北京市,,科教文化服务;学校;高等院校,141201,B0FFFAHJMG,科教文化服务,学校,高等院校,
116.31613501067226,39.9560986218998,北京理工大学成人教育现代远程教育暨中外合作办学项目招生办公室,中关村南大街9号理工科技大厦305室,北京市,北京市,,科教文化服务;学校;高等院校,141201,B000A7ZROO,科教文化服务,学校,高等院校,
116.31084179866264,39.95711461109452,北京理工大学现代教育技术与网络信息中心,中关村南大街5号北京理工大学,北京市,北京市,,科教文化服务;学校;高等院校,141201,B000A7Z0EA,科教文化服务,学校,高等院校,
116.31211610587177,39.95593426129999,北京理工大学热工与流体力学实验室空化水洞,中关村南大街5号北京理工大学,北京市,北京市,,科教文化服务;学校;高等院校,141201,B000A7Z0DQ,科教文化服务,学校,高等院校,
116.30075658864278,39.95555101598989,北京外国语大学西校区留学生办公室,西三环北路19号北京外国语大学西校区内,北京市,北京市,,科教文化服务;学校;高等院校,141201,B000A84J1M,科教文化服务,学校,高等院校,
116.29987951207782,39.95444158837179,北京外国语大学国际交流与合作处外国专家办公室,西三环北路19号北京外国语大学西校区厂洼东二街附近,北京市,北京市,,科教文化服务;学校;高等院校,141201,B000AA1HD2,科教文化服务,学校,高等院校,
116.31196937887154,39.94843683499486,中央民族大学美术学院,中关村南大街27号中央民族大学27号,北京市,北京市,白石桥,科教文化服务;学校;高等院校,141201,B000A8XER1,科教文化服务,学校,高等院校,
116.31057938125309,39.95711510289371,北京理工大学逸夫科技交流中心,中关村南大街5号北京理工大学,北京市,北京市,,科教文化服务;学校;高等院校,141201,B000A7VL3A,科教文化服务,学校,高等院校,
116.31539728920093,39.95132821907293,中央民族大学体育学院,中关村南大街27号,北京市,北京市,白石桥,科教文化服务;学校;高等院校,141201,B000A8VWWD,科教文化服务,学校,高等院校,
116.30955653578617,39.92619425199386,首都师范大学东2区,阜成路北三街5号附近,北京市,北京市,,科教文化服务;学校;高等院校,141201,B0FFGLZIZZ,科教文化服务,学校,高等院校,
116.3094537827511,39.92603045014251,首都师范大学学前教育学院,海淀阜成路北三街5号,北京市,北京市,,科教文化服务;学校;高等院校,141201,B0FFFX8KZV,科教文化服务,学校,高等院校,
116.30307891640838,39.930617905602176,首都师范大学生命科学学院,西三环北路105号首都师范大学,北京市,北京市,,科教文化服务;学校;高等院校,141201,B000A84LOD,科教文化服务,学校,高等院校,
116.31313707349808,39.94595572768166,北京舞蹈学院-多功能排练厅,万寿寺路1号院,北京市,北京市,万寿寺,科教文化服务;学校;高等院校,141201,B0FFG4IDSR,科教文化服务,学校,高等院校,
116.3022087552645,39.93041346179905,首都师范大学电教楼,西三环北路151附近,北京市,北京市,,科教文化服务;学校;高等院校,141201,B0FFFM5897,科教文化服务,学校,高等院校,
116.31303112636886,39.94742586983656,中央民族大学理学院,中关村南大街27号中央民族大学,北京市,北京市,白石桥,科教文化服务;学校;高等院校,141201,B000AA1Z9N,科教文化服务,学校,高等院校,
116.33619921335722,39.948272732291315,北京交通大学电子信息工程学院,西直门外上园村3号北京交通大学,北京市,北京市,西直门,科教文化服务;学校;高等院校,141201,B000A7WTVT,科教文化服务,学校,高等院校,
116.31675961938915,39.94792375165042,中央民族大学中慧楼,中关村南大街27号中央民族大学,北京市,北京市,白石桥,科教文化服务;学校;高等院校,141201,B000AA0CBJ,科教文化服务,学校,高等院校,
116.3043702442808,39.9541126501527,北京外国语大学国际学校,西三环北路2号主楼南侧招生中心,北京市,北京市,,科教文化服务;学校;高等院校,141201,B0FFM92M3H,科教文化服务,学校,高等院校,
116.31440177980892,39.94946218877084,中央民族大学文东,魏公街(中央民族大学),北京市,北京市,白石桥,科教文化服务;学校;高等院校,141201,B0FFLPWPYZ,科教文化服务,学校,高等院校,
116.31618784613549,39.948523821130564,中央民族大学研究生院,中关村南大街27号,北京市,北京市,白石桥,科教文化服务;学校;高等院校,141201,B0FFLPEQDP,科教文化服务,学校,高等院校,
116.33366862328211,39.95020935556947,北京交通大学教学质量监控与评估中心,[],北京市,北京市,西直门,科教文化服务;学校;高等院校,141201,B0FFLOZ68H,科教文化服务,学校,高等院校,
116.31472303503054,39.94960457197529,中央民族大学知行堂,礼堂东路,北京市,北京市,白石桥,科教文化服务;学校;高等院校,141201,B0FFKG768Q,科教文化服务,学校,高等院校,
116.3004884179033,39.92941452863647,首都师范大学-北京师范学院,三环北路105号,北京市,北京市,,科教文化服务;学校;高等院校,141201,B0FFI9PWJ1,科教文化服务,学校,高等院校,
116.33631428973868,39.95354131131202,北京交通大学工会楼,大柳树路2号南12附近,北京市,北京市,西直门,科教文化服务;学校;高等院校,141201,B0FFI2MSQB,科教文化服务,学校,高等院校,
116.29371256865933,39.92213024511356,首都师范大学光学工程博士后科研流动站,阜成路辅路,北京市,北京市,,科教文化服务;学校;高等院校,141201,B0FFHS8313,科教文化服务,学校,高等院校,
116.30221974339196,39.93032644585807,首都师范大学演播厅,西三环北路105号,北京市,北京市,,科教文化服务;学校;高等院校,141201,B0FFHGM1Z4,科教文化服务,学校,高等院校,
116.30334341375516,39.93020744958487,首都师范大学学术报告厅,西三环北路105号首都师范大学内,北京市,北京市,,科教文化服务;学校;高等院校,141201,B0FFHGM0CJ,科教文化服务,学校,高等院校,
116.30767105359003,39.95489859731869,北京外国语东校区大学英语学院,西三环北路2号北京外国语大学,北京市,北京市,,科教文化服务;学校;高等院校,141201,B0FFHDMH27,科教文化服务,学校,高等院校,
116.3356291212734,39.951106672892216,北京交通大学信息储存、显示与材料部级开放实验室,明湖路与知行大道交叉口西北50米,北京市,北京市,西直门,科教文化服务;学校;高等院校,141201,B0FFHC5194,科教文化服务,学校,高等院校,
116.31564992798715,39.949643803902646,中央民族大学财政处,体育场路与礼堂北路交叉口西北50米,北京市,北京市,白石桥,科教文化服务;学校;高等院校,141201,B0FFH87B90,科教文化服务,学校,高等院校,
116.30714527739377,39.95424959097429,北京外国语大学东校区信息化建设与管理办公室,西三环北路2北京外国语大学,北京市,北京市,,科教文化服务;学校;高等院校,141201,B0FFH236PP,科教文化服务,学校,高等院校,
116.33365165789039,39.95023738618293,中国人民解放军驻北京交通大学后备军官选拔培训工作办公室,传习路与知行大道交叉口西南100米,北京市,北京市,西直门,科教文化服务;学校;高等院校,141201,B0FFH1DADA,科教文化服务,学校,高等院校,
116.33091482135512,39.95046452722834,北京交通大学体育部,知行大道与高梁桥斜街交叉口东北100米,北京市,北京市,西直门,科教文化服务;学校;高等院校,141201,B0FFH1D9D2,科教文化服务,学校,高等院校,
116.3168832849342,39.9483394985062,中央民族大学第一排练厅,[],北京市,北京市,白石桥,科教文化服务;学校;高等院校,141201,B0FFH176PV,科教文化服务,学校,高等院校,
116.33736863463575,39.948214586231245,北京交通大学孔子学院办公室,梧桐大道与红果园路交叉口东南150米,北京市,北京市,西直门,科教文化服务;学校;高等院校,141201,B0FFH13LP8,科教文化服务,学校,高等院校,
116.33592774662266,39.9488222114551,北京交通大学SAP大学能力中心(中国),思源路与梧桐大道交叉口东100米,北京市,北京市,西直门,科教文化服务;学校;高等院校,141201,B0FFH13KNL,科教文化服务,学校,高等院校,
116.31161692005038,39.9503894213345,中央民族大学美术学院雕塑工作室,博物馆路与学苑路交叉口西50米,北京市,北京市,白石桥,科教文化服务;学校;高等院校,141201,B0FFH1380K,科教文化服务,学校,高等院校,
116.30163093896428,39.930505479641,首都师范大学本部理科楼,西三环北路105号附近,北京市,北京市,,科教文化服务;学校;高等院校,141201,B0FFGZUM2J,科教文化服务,学校,高等院校,
116.34056250659576,39.949547754374265,北京交通大学土木工程实验中心铁道工程实验室,上园村3号北京交通大学,北京市,北京市,北下关,科教文化服务;学校;高等院校,141201,B0FFGI7QA5,科教文化服务,学校,高等院校,
116.33557636227928,39.950132809129265,北京交通大学博士后科研工作站,思源路与银杏大道交叉口东北50米,北京市,北京市,西直门,科教文化服务;学校;高等院校,141201,B0FFGHQTW9,科教文化服务,学校,高等院校,
116.33731242229852,39.950864584027684,北京交通大学24小时自助还书处,高粱桥斜街44号,北京市,北京市,西直门,科教文化服务;学校;高等院校|生活服务;生活服务场所;生活服务场所,141201|070000,B0FFGHQPAR,科教文化服务,学校,高等院校|生活服务,生活服务场所
116.33561649888007,39.94835080554188,北京交通大学树华无线感知实验室,思源路与高梁桥斜街交叉口东北50米,北京市,北京市,西直门,科教文化服务;学校;高等院校|科教文化服务;科研机构;科研机构,141201|141300,B0FFGHQP4E,科教文化服务,学校,高等院校|科教文化服务,科研机构
116.30800733786369,39.92296825970648,北京工商大学西区,阜城路33号,北京市,北京市,,科教文化服务;学校;高等院校,141201,B0FFGFGX5G,科教文化服务,学校,高等院校,
116.3012423924722,39.949188415974085,中国青年政治学院致善楼,西三环北路25号中国青年政治学院内,北京市,北京市,,科教文化服务;学校;高等院校,141201,B0FFGFDBRR,科教文化服务,学校,高等院校,
116.31409555009468,39.94884079540886,中央民族大学教学楼10,中关村南大街27号,北京市,北京市,白石桥,科教文化服务;学校;高等院校,141201,B0FFGBC6TE,科教文化服务,学校,高等院校,
116.33294925055723,39.95015770512468,北京交通大学建筑艺术楼,上园村3号北京交通大学内,北京市,北京市,西直门,科教文化服务;学校;高等院校,141201,B0FFGBC3JB,科教文化服务,学校,高等院校,
116.31160414647643,39.94881850765818,中央民族大学舞蹈学院,中关村南大街27号中央民族大学,北京市,北京市,白石桥,科教文化服务;学校;高等院校,141201,B0FFGAPL4M,科教文化服务,学校,高等院校,
116.33554870969643,39.94787894972679,北京交通大学招生与就业工作处,思源路与高梁桥斜街交叉口东南50米,北京市,北京市,西直门,科教文化服务;学校;高等院校,141201,B0FFGAOQE1,科教文化服务,学校,高等院校,
116.31548545371098,39.948437165558836,中央民族大学办公楼,中关村南大街27号中央民族大学,北京市,北京市,白石桥,科教文化服务;学校;高等院校,141201,B0FFG4UFQ8,科教文化服务,学校,高等院校,
116.33366063971677,39.950221370021836,北京交通大学教务处,西直门外上园村3号北京交通大学,北京市,北京市,西直门,科教文化服务;学校;高等院校,141201,B0FFG4PR37,科教文化服务,学校,高等院校,
116.33972031803845,39.94960726237658,北京交通大学机械与电子控制工程学院,上园村3号北京交通大学,北京市,北京市,西直门,科教文化服务;学校;高等院校,141201,B0FFG4OOXK,科教文化服务,学校,高等院校,
116.33453428863072,39.953297618030255,北京交通大学房地产管理处,西直门外上园村3号北京交通大学,北京市,北京市,西直门,科教文化服务;学校;高等院校,141201,B0FFG4MMXY,科教文化服务,学校,高等院校,
116.2965415455071,39.927240372430155,首都师范大学14号楼,西三环北路105号,北京市,北京市,,科教文化服务;学校;高等院校,141201,B0FFG4L0FQ,科教文化服务,学校,高等院校,
116.31427830825407,39.947484501965846,中央民族大学1号办公楼,中关村南大街27号中央民族大学,北京市,北京市,白石桥,科教文化服务;学校;高等院校,141201,B0FFG4IUOG,科教文化服务,学校,高等院校,
116.31246710825262,39.949678846737605,中央民族大学后勤产业集团质量与人力管理办公室,博物馆路与文华路交叉口东50米,北京市,北京市,白石桥,科教文化服务;学校;高等院校,141201,B0FFG4IQJC,科教文化服务,学校,高等院校,
116.30269049920759,39.94835688766746,中国青年政治学院学术报告厅,紫竹院街道西三环北路25号中国青年政治学院内,北京市,北京市,,科教文化服务;学校;高等院校,141201,B0FFG4IHGY,科教文化服务,学校,高等院校,
116.31682746886185,39.94789062313731,中央民族大学语言文字测试分中心,体育场路与南睿路交叉口东100米,北京市,北京市,白石桥,科教文化服务;学校;高等院校,141201,B0FFG4GZX4,科教文化服务,学校,高等院校,
116.31246710825262,39.949678846737605,中央民族大学后勤产业集团校园管理部,博物馆路与文华路交叉口东50米,北京市,北京市,白石桥,科教文化服务;学校;高等院校,141201,B0FFG4GYEM,科教文化服务,学校,高等院校,
116.33606447986837,39.94852997061885,北京交通大学中心报告厅,西直门外上园村3号北京交通大学,北京市,北京市,西直门,科教文化服务;学校;高等院校|科教文化服务;会展中心;会展中心,141201|140300,B0FFG40NOV,科教文化服务,学校,高等院校|科教文化服务,会展中心
116.30730792359746,39.95425729157084,北京外国语大学东校区电教中心,西三环北路2号院北京外国语大学东校区,北京市,北京市,,科教文化服务;学校;高等院校,141201,B0FFG3UI7F,科教文化服务,学校,高等院校,
116.30701844296225,39.95511778962849,北京外国语大学东校区学生活动中心,西三环北路2号院北京外国语大学东校区,北京市,北京市,,科教文化服务;学校;高等院校,141201,B0FFG3UI7D,科教文化服务,学校,高等院校,
116.33327367090624,39.94895914439245,北京交通大学-7办公楼,积秀路与银杏大道交叉口南100米,北京市,北京市,北下关,科教文化服务;学校;高等院校,141201,B0FFFTRRFN,科教文化服务,学校,高等院校,
116.33297830615489,39.94920168852538,北京交通大学研究生会,西直门外上园村3号北京交通大学,北京市,北京市,西直门,科教文化服务;学校;高等院校,141201,B0FFFS87MK,科教文化服务,学校,高等院校,
116.33883184191322,39.95282073914484,北京交通大学后勤产业集团科技发展中心,西直门外上园村3号北京交通大学,北京市,北京市,西直门,科教文化服务;学校;高等院校,141201,B0FFFO73W0,科教文化服务,学校,高等院校,
116.30224470954255,39.930183407412095,首都师范大学燕都学院,西三环北路105号首都师范大学,北京市,北京市,,科教文化服务;学校;高等院校,141201,B0FFFLJNPP,科教文化服务,学校,高等院校,
116.30162220765231,39.928508576315856,首都师范大学物理系,西三环北路105号首都师范大学,北京市,北京市,,科教文化服务;学校;高等院校,141201,B0FFFLJNPC,科教文化服务,学校,高等院校,
116.30910995824205,39.954482949399576,北京外国语大学阿拉伯语言学院,西三环北路2号院北京外国语大学东校区,北京市,北京市,,科教文化服务;学校;高等院校,141201,B0FFFE3A0W,科教文化服务,学校,高等院校,
116.31683340926685,39.948255597284515,中央民族大学大学生职业发展与创业教育教研室,中关村南大街27号,北京市,北京市,白石桥,科教文化服务;学校;高等院校,141201,B0FFFE38M7,科教文化服务,学校,高等院校,
116.30396104872935,39.95459736774204,北京外国语大学东校区模拟法庭,西三环北路2号院北京外国语大学东校区,北京市,北京市,,科教文化服务;学校;高等院校,141201,B0FFFE38JF,科教文化服务,学校,高等院校,
116.30371960280438,39.95423981555282,北京外国语大学东校区学业与职业支持中心,西三环北路2号院北京外国语大学东校区,北京市,北京市,,科教文化服务;学校;高等院校,141201,B0FFFDPJH3,科教文化服务,学校,高等院校,
116.33336347204022,39.94893197726373,北京交通大学关心下一代工作委员会,北下关街道西直门外上园村3号北京交通大学,北京市,北京市,西直门,科教文化服务;学校;高等院校,141201,B0FFFDCFT5,科教文化服务,学校,高等院校,
116.29963302054185,39.93046297301274,首都师范大学音乐学院,西三环北路105号首都师范大学,北京市,北京市,,科教文化服务;学校;高等院校,141201,B0FFFDCAAY,科教文化服务,学校,高等院校,
116.30038649550926,39.93044966436041,首都师范大学美术学院,西三环北路105号首都师范大学,北京市,北京市,,科教文化服务;学校;高等院校,141201,B0FFFDCAAQ,科教文化服务,学校,高等院校,
116.34157291924191,39.95286582457932,北京交通大学学苑研究生创新活动中心,西直门外上园村3号北京交通大学,北京市,北京市,西直门,科教文化服务;学校;高等院校,141201,B0FFFDC4QN,科教文化服务,学校,高等院校,
116.30160108926157,39.92979856100848,首都师范大学教务管理信息中心,西三环北路105号首都师范大学,北京市,北京市,,科教文化服务;学校;高等院校,141201,B0FFFDC3BF,科教文化服务,学校,高等院校,
116.31542144589096,39.94965123948224,中央民族大学财务处,中关村南大街27号中央民族大学,北京市,北京市,白石桥,科教文化服务;学校;高等院校,141201,B0FFFAIBDQ,科教文化服务,学校,高等院校,
116.33576298035881,39.949868474414956,北京交通大学发光与光信息技术教育部重点实验室(银杏大道),明湖路与银杏大道交叉口西南50米,北京市,北京市,西直门,科教文化服务;学校;高等院校,141201,B0FFFAI9XX,科教文化服务,学校,高等院校,
116.29911224302862,39.92906792904316,首都师范大学体育教研部,西三环北路105号首都师范大学,北京市,北京市,,科教文化服务;学校;高等院校,141201,B0FFFAI62V,科教文化服务,学校,高等院校,
116.33363169708485,39.95028242172692,北京交通大学信息化办公室,西直门外上园村3号北京交通大学,北京市,北京市,西直门,科教文化服务;学校;高等院校,141201,B0FFFAI2QM,科教文化服务,学校,高等院校,
116.333093998452,39.949570456904084,北京交通大学审计处,积秀路与银杏大道交叉口西北50米,北京市,北京市,西直门,科教文化服务;学校;高等院校,141201,B0FFFAHV4L,科教文化服务,学校,高等院校,
116.33386317679651,39.95028098911038,北京交通大学信息中心,上园村3号北京交通大学内,北京市,北京市,西直门,科教文化服务;学校;高等院校,141201,B0FFFAH135,科教文化服务,学校,高等院校,
116.33844800938624,39.950228538166186,北京交通大学软件学院,西直门外上园村3号,北京市,北京市,西直门,科教文化服务;学校;高等院校,141201,B0FFF5QGPY,科教文化服务,学校,高等院校,
116.34051154583734,39.95010282346598,交大工程训练中心,西直门外上园村3号北京交通大学,北京市,北京市,西直门,科教文化服务;学校;高等院校,141201,B0FFF38O1O,科教文化服务,学校,高等院校,
116.33650439380189,39.94939912541229,北京交通大学东阶梯教室,西直门外上园村3号北京交通大学,北京市,北京市,西直门,科教文化服务;学校;高等院校,141201,B0FFF38O1L,科教文化服务,学校,高等院校,
116.33808491492624,39.94935923307545,北京交通大学教材服务中心,西直门外上园村3号北京交通大学,北京市,北京市,西直门,科教文化服务;学校;高等院校,141201,B0FFF38O15,科教文化服务,学校,高等院校,
116.33317485329823,39.94927731694922,北京交通大学人事处,北京交通大学公寓8号,北京市,北京市,西直门,科教文化服务;学校;高等院校,141201,B0FFF38O0R,科教文化服务,学校,高等院校,
116.333216762642,39.94924723959583,北京交通大学人文社会科学处,西直门外上园村3号北京交通大学,北京市,北京市,西直门,科教文化服务;学校;高等院校,141201,B000ABCLN0,科教文化服务,学校,高等院校,
116.3321122447044,39.94935231057608,北京交通大学学生活动中心,西直门外上园村3号北京交通大学,北京市,北京市,西直门,科教文化服务;学校;高等院校,141201,B000AAAGIZ,科教文化服务,学校,高等院校,
116.30162220765231,39.928508576315856,首都师范大学第三教学楼,西三环北路105号首都师范大学,北京市,北京市,,科教文化服务;学校;高等院校,141201,B000AA6XJD,科教文化服务,学校,高等院校,
116.3398660671568,39.94909702050598,北京交通大学计算机学院,西直门外上园村3号北京交通大学,北京市,北京市,西直门,科教文化服务;学校;高等院校,141201,B000AA6980,科教文化服务,学校,高等院校,
116.33578792587953,39.949860428619864,北京交通大学理学院,上园村3号北京交通大学,北京市,北京市,西直门,科教文化服务;学校;高等院校,141201,B000AA5DPN,科教文化服务,学校,高等院校,
116.33365968103979,39.94991238406695,北京交通大学语言与传播学院,上园村3号北京交通大学思源西楼,北京市,北京市,西直门,科教文化服务;学校;高等院校,141201,B000AA5DPM,科教文化服务,学校,高等院校,
116.340939677244,39.94969507546587,北京交通大学全光网络与现代通信网实验室,西直门外上园村3号北京交通大学,北京市,北京市,西直门,科教文化服务;学校;高等院校,141201,B000AA4KEC,科教文化服务,学校,高等院校,
116.31303112636886,39.94742586983656,中央民族大学信息工程学院,中关村南大街27号中央民族大学,北京市,北京市,白石桥,科教文化服务;学校;高等院校,141201,B000AA1HJ6,科教文化服务,学校,高等院校,
116.2983289687245,39.927772325634834,首都师范大学研究生会,西三环北路105号首都师范大学,北京市,北京市,,科教文化服务;学校;高等院校,141201,B000AA1AWJ,科教文化服务,学校,高等院校,
116.29828304222394,39.92791339832638,首都师范大学学生会,西三环北路105号首都师范大学,北京市,北京市,,科教文化服务;学校;高等院校,141201,B000AA19LR,科教文化服务,学校,高等院校,
116.33365968103979,39.94991238406695,北京交通大学马克思主义学院,西直门外上园村3号北京交通大学,北京市,北京市,西直门,科教文化服务;学校;高等院校,141201,B000AA15ZN,科教文化服务,学校,高等院校,
116.33393706467542,39.94985586796538,北京交通大学人文社会科学学院,上园村3号北京交通大学,北京市,北京市,北下关,科教文化服务;学校;高等院校,141201,B000AA15ZJ,科教文化服务,学校,高等院校,
116.33365968103979,39.94991238406695,北京交通大学法学院,西直门外上园村3号北京交通大学,北京市,北京市,西直门,科教文化服务;学校;高等院校,141201,B000AA15ZH,科教文化服务,学校,高等院校,
116.34056250659576,39.949547754374265,北京交通大学地下工程实验室,西直门外上园村3号北京交通大学,北京市,北京市,西直门,科教文化服务;学校;高等院校,141201,B000AA11PT,科教文化服务,学校,高等院校,
116.29831881306247,39.92917428580546,首都师范大学基建处,西三环北路105号首都师范大学内,北京市,北京市,,科教文化服务;学校;高等院校,141201,B000AA0YTK,科教文化服务,学校,高等院校,
116.31171689737849,39.94879829624169,中央民族大学音乐系,中关村南大街27号中央民族大学,北京市,北京市,白石桥,科教文化服务;学校;高等院校,141201,B000AA0X0S,科教文化服务,学校,高等院校,
116.30757634610009,39.95421179910077,北京外国语大学东校区高级翻译学院,西三环北路2号院北京外国语大学东校区,北京市,北京市,,科教文化服务;学校;高等院校,141201,B000AA0WXH,科教文化服务,学校,高等院校,
116.31188356610694,39.94847299525778,中央民族大学音乐学院,中关村南大街27号中央民族大学,北京市,北京市,白石桥,科教文化服务;学校;高等院校,141201,B000AA0WL8,科教文化服务,学校,高等院校,
116.33282852467477,39.95014493222113,北京交通大学建筑与艺术学院,上园村3号北京交通大学内17号楼,北京市,北京市,西直门,科教文化服务;学校;高等院校,141201,B000AA0VXS,科教文化服务,学校,高等院校,
116.31303112636886,39.94742586983656,中央民族大学生命与环境科学学院,中关村南大街27号中央民族大学,北京市,北京市,白石桥,科教文化服务;学校;高等院校,141201,B000AA0VUA,科教文化服务,学校,高等院校,
116.3136968528765,39.945641679286034,北京舞蹈学院-文化教学楼,万寿寺路1号院2,北京市,北京市,白石桥,科教文化服务;学校;高等院校,141201,B000AA0VPL,科教文化服务,学校,高等院校,
116.30710437033466,39.95421566749601,北京外国语大学东校区信息技术中心,西三环北路2号北京外国语大学内,北京市,北京市,,科教文化服务;学校;高等院校,141201,B000AA0VI3,科教文化服务,学校,高等院校,
116.33898289416372,39.94981458480929,北京交通大学电力工程系,西直门外上园村3号北京交通大学,北京市,北京市,西直门,科教文化服务;学校;高等院校,141201,B000AA0VAX,科教文化服务,学校,高等院校,
116.34088979205106,39.94963416678084,北京交通大学光波楼,西直门外上园村3号北京交通大学,北京市,北京市,西直门,科教文化服务;学校;高等院校,141201,B000AA0V91,科教文化服务,学校,高等院校,
116.31416014752575,39.95087659197004,中央民族大学学生社团联合会,中关村南大街27中央民族大学,北京市,北京市,白石桥,科教文化服务;学校;高等院校|政府机构及社会团体;社会团体;社会团体相关,141201|130400,B000AA0SIN,科教文化服务,学校,高等院校|政府机构及社会团体,社会团体
116.33736863843325,39.94818458741486,北京交通大学国际教育交流中心,西直门外上园村3号北京交通大学南门,北京市,北京市,西直门,科教文化服务;学校;高等院校,141201,B000AA0E2Q,科教文化服务,学校,高等院校,
116.29907019571854,39.93011695876671,首都师范大学后勤管理处,西三环北路105号首都师范大学,北京市,北京市,,科教文化服务;学校;高等院校,141201,B000A9V9LY,科教文化服务,学校,高等院校,
116.33195061583938,39.949312616665324,北京交通大学学生活动服务中心,西直门外上园村3号北京交通大学,北京市,北京市,西直门,科教文化服务;学校;高等院校,141201,B000A9Q93O,科教文化服务,学校,高等院校,
116.33613989766552,39.95179970182344,北京交通大学运输设备教学馆,西直门外上园村3号北京交通大学,北京市,北京市,西直门,科教文化服务;学校;高等院校,141201,B000A9PI5I,科教文化服务,学校,高等院校,
116.33625870364926,39.95125050452483,北京交通大学管理楼,西直门外上园村3号北京交通大学附近,北京市,北京市,西直门,科教文化服务;学校;高等院校,141201,B000A9PHUL,科教文化服务,学校,高等院校,
116.33467926089806,39.95095644103707,北京交通大学第二教学楼,上园村3号北京交通大学内,北京市,北京市,北下关,科教文化服务;学校;高等院校,141201,B000A9KHS5,科教文化服务,学校,高等院校,
116.3337964498349,39.949310152284085,北京交通大学学生处,西直门外上园村3号北京交通大学,北京市,北京市,西直门,科教文化服务;学校;高等院校,141201,B000A96FMY,科教文化服务,学校,高等院校,
116.33558333799355,39.95020179348389,北京交通大学维多利亚理工大学中澳商学院,西直门外上园村3号北京交通大学,北京市,北京市,西直门,科教文化服务;学校;高等院校,141201,B000A8VXGH,科教文化服务,学校,高等院校,
116.33864264008982,39.94978620239331,北京交通大学电气工程学院,西直门外上园村3号北京交通大学,北京市,北京市,西直门,科教文化服务;学校;高等院校,141201,B000A8VXDB,科教文化服务,学校,高等院校,
116.33845299936102,39.95022152937961,北京交通大学逸夫教学楼,西直门外上园村3号,北京市,北京市,西直门,科教文化服务;学校;高等院校,141201,B000A8VXBJ,科教文化服务,学校,高等院校,
116.3363385254725,39.9512593570813,北京交通大学交通运输学院,西直门外上园村3号北京交通大学,北京市,北京市,西直门,科教文化服务;学校;高等院校,141201,B000A8VX9B,科教文化服务,学校,高等院校,
116.33979321877345,39.9491451495661,北京交通大学土木建筑工程学院,上园村3号北京交通大学,北京市,北京市,西直门,科教文化服务;学校;高等院校,141201,B000A8VX81,科教文化服务,学校,高等院校,
116.33558333799355,39.95020179348389,北京交通大学经济管理学院,西直门外上园村3号北京交通大学,北京市,北京市,西直门,科教文化服务;学校;高等院校,141201,B000A8VX4O,科教文化服务,学校,高等院校,
116.312502085185,39.94923979809067,中央民族大学基本建设管理处,中关村南大街27中央民族大学,北京市,北京市,白石桥,科教文化服务;学校;高等院校,141201,B000A8VWXP,科教文化服务,学校,高等院校,
116.3151550583999,39.94958674988446,中央民族大学国际教育学院,中关村南路27号中央民族大学内,北京市,北京市,白石桥,科教文化服务;学校;高等院校,141201,B000A8VWVN,科教文化服务,学校,高等院校,
116.30963591352486,39.95358200589373,北京外国语大学东校区中国语言文学学院,西三环北路2号北京外国语大学东校区,北京市,北京市,,科教文化服务;学校;高等院校,141201,B000A87HVY,科教文化服务,学校,高等院校,
116.30307891640838,39.930617905602176,首都师范大学化学实验教学中心,西三环北路105号首都师范大学,北京市,北京市,,科教文化服务;学校;高等院校,141201,B000A84LOF,科教文化服务,学校,高等院校,
116.30307891640838,39.930617905602176,首都师范大学地理科学与技术实验教学中心,西三环北路105号首都师范大学,北京市,北京市,,科教文化服务;学校;高等院校,141201,B000A84LOE,科教文化服务,学校,高等院校,
116.33615528295397,39.948492804571686,北京交通大学计算机与信息技术学院,上园村3号北京交通大学南门附件9号教学楼,北京市,北京市,西直门,科教文化服务;学校;高等院校,141201,B000A81F54,科教文化服务,学校,高等院校,
116.33418637305441,39.95089636145509,北京交通大学学生心理素质教育中心,西直门外上园村3号北京交通大学,北京市,北京市,西直门,科教文化服务;学校;高等院校,141201,B000A7YWF0,科教文化服务,学校,高等院校,
116.33592774662266,39.9488222114551,北京交通大学国家Linux技术培训与推广中心,交通大学路北京交通大学,北京市,北京市,西直门,科教文化服务;学校;高等院校,141201,B000A7WTW2,科教文化服务,学校,高等院校,
116.3373696325641,39.94821358444463,北京交通大学国际合作交流处,交通大学路北京交通大学,北京市,北京市,西直门,科教文化服务;学校;高等院校,141201,B000A7WTW1,科教文化服务,学校,高等院校,
116.33545351157011,39.9511139976787,北京交通大学材料工程中心,西直门外上园村3号北京交通大学,北京市,北京市,西直门,科教文化服务;学校;高等院校,141201,B000A7TMBE,科教文化服务,学校,高等院校,
116.33124250363107,39.89967301709093,中国人民公安大学木樨地校区,复兴门外木樨地南里甲1号,北京市,北京市,,科教文化服务;学校;高等院校,141201,B000A7E1OS,科教文化服务,学校,高等院校,
116.31194073136297,39.89847297175676,首都医科大学肿瘤学系,[],北京市,北京市,,科教文化服务;学校;高等院校,141201,B0G3119GKS,科教文化服务,学校,高等院校,
116.31122574126566,39.89516246755654,美国管理技术大学北京代表处,莲花池东路120-2号北恒大厦7层6705,北京市,北京市,太平桥,科教文化服务;学校;高等院校,141201,B000A7TYO8,科教文化服务,学校,高等院校,
116.33823111173889,39.897944110380664,中国易明德国学院,白云观街10号附近,北京市,北京市,复兴门,科教文化服务;学校;高等院校,141201,B0FFHN6PBE,科教文化服务,学校,高等院校,
116.33087631412944,39.899841702143355,励警楼,白云观街北里南200米,北京市,北京市,,科教文化服务;学校;高等院校,141201,B000AA72U3,科教文化服务,学校,高等院校,
116.33500403659224,39.89962396863261,北京机电管理干部学院工商大学白云校区办公楼,白云路西里13号,北京市,北京市,,科教文化服务;学校;高等院校,141201,B0FFF37G5C,科教文化服务,学校,高等院校,
116.36733067709143,40.10963094866582,北京邮电大学宏福校区(西2门),郑上路附近,北京市,北京市,北七家,科教文化服务;学校;高等院校,141201,B0FFG4UXOU,科教文化服务,学校,高等院校,
116.36627194410146,40.11111404971368,北京电影学院宏福校区,温都水城火炬广场北街1号,北京市,北京市,北七家,科教文化服务;学校;高等院校,141201,B0FFIAJGXM,科教文化服务,学校,高等院校,
116.36008368070642,40.07728842150777,农业农村部管理干部学院,黄平路209号(回龙观东大街地铁站旁),北京市,北京市,东小口,科教文化服务;学校;高等院校,141201,B000A830CX,科教文化服务,学校,高等院校,
116.36885794633176,40.107372432967615,北京邮电大学(宏福校区),北七家镇郑各庄村,北京市,北京市,北七家,科教文化服务;学校;高等院校,141201,B000A7R4PH,科教文化服务,学校,高等院校,
116.36958855812077,40.103140985551235,中央戏剧学院(昌平校区),北七家镇郑各庄村宏福中路4号,北京市,北京市,北七家,科教文化服务;学校;高等院校,141201,B000A87K2J,科教文化服务,学校,高等院校,
116.36829976892665,40.10663110525982,北京邮电大学宏福校区综合办公室,宏福大街,北京市,北京市,北七家,科教文化服务;学校;高等院校,141201,B0FFG4UXHA,科教文化服务,学校,高等院校,
116.36083338801298,40.10907505891888,宏福教育,宏福苑南二区,北京市,北京市,北七家,科教文化服务;学校;高等院校,141201,B0FFITVKNY,科教文化服务,学校,高等院校,
116.37749794468809,40.103459662851485,中国传媒大学文法学部艺术创作院法治中国诗书画院,王府大街21号宝隆艺园36-38栋,北京市,北京市,北七家,科教文化服务;学校;高等院校,141201,B0FFG1I5TI,科教文化服务,学校,高等院校,
116.36365222093501,40.029408494731335,燕京神学院,清河路181号,北京市,北京市,清河,科教文化服务;学校;高等院校,141201,B000A7J23Z,科教文化服务,学校,高等院校,
116.37099287664051,40.03265598047514,北京石油学院,东升镇宝盛东路,北京市,北京市,清河,科教文化服务;学校;高等院校,141201,B0FFJRV9GR,科教文化服务,学校,高等院校,
116.35549868563255,40.03698931489052,中国沐浴商学院,永泰庄北路,北京市,北京市,永泰,科教文化服务;学校;高等院校,141201,B0G261PQ3V,科教文化服务,学校,高等院校,
116.3433278211563,40.03441520600155,北京信息科技院,前屯路与永泰庄北路交叉口西50米,北京市,北京市,永泰,科教文化服务;学校;高等院校,141201,B0FFHVFH1P,科教文化服务,学校,高等院校,
116.34302835369117,40.03518468961539,北京信息科技大学小营校区(南区),小营东路12号,北京市,北京市,永泰,科教文化服务;学校;高等院校,141201,B0FFHKE1OV,科教文化服务,学校,高等院校,
116.34956489925213,40.0441141780349,Northern Territory商学院,西小口路66号东升科技园B-2-105B附近,北京市,北京市,清河,科教文化服务;学校;高等院校,141201,B0FFGEME6Q,科教文化服务,学校,高等院校,
116.34286272440464,40.035018987965906,北京信息科技大学清河小营校区南区机电工程学院机械工程实验教学中心,小营东路12号北京信息科技大学清河小营校区,北京市,北京市,永泰,科教文化服务;学校;高等院校,141201,B000AA4LE5,科教文化服务,学校,高等院校,
116.3639891755016,40.05706358754441,易修复学院,建材城东路10号,北京市,北京市,西三旗,科教文化服务;学校;高等院校,141201,B0FFJRWGF6,科教文化服务,学校,高等院校,
116.35157875647036,39.983429766667186,北京大学医学部,学院路38号,北京市,北京市,,科教文化服务;学校;高等院校,141201,B000A7CDQ4,科教文化服务,学校,高等院校,
116.35305327118971,39.98901323062317,北京科技大学,学院路30号,北京市,北京市,,科教文化服务;学校;高等院校,141201,B000A7I3OJ,科教文化服务,学校,高等院校,
116.34268783281516,39.98997136249886,中国地质大学(北京),学院路29号,北京市,北京市,五道口,科教文化服务;学校;高等院校,141201,B000A82ZE2,科教文化服务,学校,高等院校,
116.3592840319194,39.9596972732225,北京师范大学,新街口外大街19号,北京市,北京市,小西天,科教文化服务;学校;高等院校,141201,B000A83JHK,科教文化服务,学校,高等院校,
116.34957729604058,39.97025550793099,北京电影学院,西土城路4号,北京市,北京市,,科教文化服务;学校;高等院校,141201,B000A7CYFU,科教文化服务,学校,高等院校,
116.35189811214076,39.96018619764409,北京邮电大学海淀校区,西土城路10号,北京市,北京市,,科教文化服务;学校;高等院校,141201,B000A7CPWG,科教文化服务,学校,高等院校,
116.34502625433564,39.96396036227241,中国政法大学海淀校区,西土城路25,北京市,北京市,北下关,科教文化服务;学校;高等院校,141201,B000A6664A,科教文化服务,学校,高等院校,
116.35091245519828,40.00362096919223,中国农业大学东校区,清华东路17号,北京市,北京市,,科教文化服务;学校;高等院校,141201,B000A82ZEF,科教文化服务,学校,高等院校,
116.3791534087336,39.987395956019895,北京市社会科学院,北四环中路33号,北京市,北京市,,科教文化服务;学校;高等院校,141201,B000A73601,科教文化服务,学校,高等院校,
116.37277925203684,39.99012216234296,中国音乐学院,亚运村街道德胜门外安翔路1号,北京市,北京市,,科教文化服务;学校;高等院校,141201,B000A6D2E7,科教文化服务,学校,高等院校,
116.34926515839753,39.97613977935941,北京联合大学应用文理学院,北土城西路197号,北京市,北京市,,科教文化服务;学校;高等院校,141201,B000A85D7V,科教文化服务,学校,高等院校,
116.34299440139696,39.98041622002829,北京航空航天大学法学院,学院路37号北京航空航天大学,北京市,北京市,,科教文化服务;学校;高等院校,141201,B000A80A6G,科教文化服务,学校,高等院校,
116.36120033668946,39.98775854063052,北京市海淀区学院路学区,志新村小区25号,北京市,北京市,,科教文化服务;学校;高等院校,141201,B0FFHPDOOK,科教文化服务,学校,高等院校,
116.35989529435508,39.981095574498525,北大医疗心理学院,花园北路35号院9号楼健康智谷501号,北京市,北京市,牡丹园,科教文化服务;学校;高等院校,141201,B0FFGKDWMI,科教文化服务,学校,高等院校,
116.36674605076536,39.98028494223954,北京服装学院附属手工艺学校(牡丹园校区),花园北路29号,北京市,北京市,牡丹园,科教文化服务;学校;职业技术学校|科教文化服务;学校;高等院校,141206|141201,B0FFKV8VYM,科教文化服务,学校,职业技术学校|科教文化服务,学校
116.34299440139696,39.98041622002829,北京航空航天大学外国语学院,学院路37号北京航空航天大学,北京市,北京市,,科教文化服务;学校;高等院校,141201,B000A80A6I,科教文化服务,学校,高等院校,
116.37844752297693,39.959843579327256,北京教育学院黄寺校区,什坊街2号,北京市,北京市,德胜门,科教文化服务;学校;高等院校,141201,B000A7BWOZ,科教文化服务,学校,高等院校,
116.34333206443812,39.97747874975085,北京航空航天大学宇航学院,学院路37号北京航空航天大学为民楼5层,北京市,北京市,,科教文化服务;学校;高等院校,141201,B000A7WPYB,科教文化服务,学校,高等院校,
116.34584996470744,39.984359133283185,北京航空航天大学软件学院(世宁大厦),学院路35号世宁大厦708B室,北京市,北京市,五道口,科教文化服务;学校;高等院校,141201,B000A7WPY1,科教文化服务,学校,高等院校,
116.3769753158951,39.987346604819926,北京信息科技大学,北四环中路与北四环中路入口交叉口北100米,北京市,北京市,,科教文化服务;学校;高等院校,141201,B000A9LNDC,科教文化服务,学校,高等院校,
116.34333607331602,39.97734274827397,北京航空航天大学经济管理学院(长城电脑大厦西南),学院路37号北京航空航天大学为民楼6层,北京市,北京市,,科教文化服务;学校;高等院校,141201,B000A7WPXY,科教文化服务,学校,高等院校,
116.3440839309845,39.99758560689254,中国矿业大学(北京校区)环境科学与工程系,学院路丁11号中国矿业大学,北京市,北京市,五道口,科教文化服务;学校;高等院校,141201,B000A7VLBG,科教文化服务,学校,高等院校,
116.34325308846151,39.97859484221256,北京航空航天大学飞行学院,学院路37号北京航空航天大学,北京市,北京市,,科教文化服务;学校;高等院校,141201,B000A8VUK3,科教文化服务,学校,高等院校,
116.34279106636988,39.99427899999438,北京语言大学外国语学部,学院路15号北京语言大学,北京市,北京市,五道口,科教文化服务;学校;高等院校,141201,B000A7Z0R4,科教文化服务,学校,高等院校,
116.37254824353357,39.992218295283905,石油化工管理干部学院分部,安翔北里11号,北京市,北京市,,科教文化服务;学校;高等院校,141201,B000A7U9CY,科教文化服务,学校,高等院校,
116.35109606505019,39.980390656489355,北京大学临床心理中心,花园北路51号院-1,北京市,北京市,,科教文化服务;学校;高等院校,141201,B0FFFE098G,科教文化服务,学校,高等院校,
116.34345082372297,39.97741054554963,北京航空航天大学电子信息工程学院,学院路37北京航空航天大学(学院路校区),北京市,北京市,,科教文化服务;学校;高等院校,141201,B000A7YZAV,科教文化服务,学校,高等院校,
116.34341860345864,39.99538785624734,中国矿业大学(北京)管理学院,学院路丁11号中国矿业大学(北京)内,北京市,北京市,五道口,科教文化服务;学校;高等院校,141201,B000A8WB1E,科教文化服务,学校,高等院校,
116.35234740438578,39.9826345914146,北京大学医学部报告厅,学院路38号,北京市,北京市,,科教文化服务;学校;高等院校,141201,B000A9LERU,科教文化服务,学校,高等院校,
116.34337298497034,39.977427680480794,北京航空航天大学土木工程系,学院路37号北京航空航天大学为民楼6层,北京市,北京市,,科教文化服务;学校;高等院校,141201,B000A7WPY4,科教文化服务,学校,高等院校,
116.36404923284714,39.97775428446473,北京师范大学实验幼儿园教育研究与发展中心,牡丹园西里26-4号,北京市,北京市,牡丹园,科教文化服务;学校;高等院校|科教文化服务;科研机构;科研机构,141201|141300,B0FFIHDQLB,科教文化服务,学校,高等院校|科教文化服务,科研机构
116.34337298497034,39.977427680480794,北京航空航天大学工程系统工程系,学院路37号北京航空航天大学为民楼4层,北京市,北京市,,科教文化服务;学校;高等院校,141201,B000A80A68,科教文化服务,学校,高等院校,
116.3440839309845,39.99758560689254,中国矿业大学矿业环境科学与工程实验教学中心,学院路丁11号中国矿业大学内,北京市,北京市,五道口,科教文化服务;学校;高等院校,141201,B000A8ZGZ0,科教文化服务,学校,高等院校,
116.34288827877907,39.98313929430787,北京航空航天大学学术交流厅,学院路37号北京航空航天大学,北京市,北京市,五道口,科教文化服务;学校;高等院校,141201,B000A8VUBS,科教文化服务,学校,高等院校,
116.3493219864344,39.99231002035986,慧读国际-学院路校区,志新路41号,北京市,北京市,,科教文化服务;学校;高等院校,141201,B0FFICJ9FA,科教文化服务,学校,高等院校,
116.38420197794133,39.963332822609395,中国藏语系高级佛学院,德外黄寺大街11,北京市,北京市,德胜门,科教文化服务;学校;高等院校,141201,B000A7Y27M,科教文化服务,学校,高等院校,
116.35175503146293,39.978645683878085,大唐大学研究生部,学院路40号,北京市,北京市,,科教文化服务;学校;高等院校|科教文化服务;培训机构;培训机构,141201|141400,B0FFFHAV4L,科教文化服务,学校,高等院校|科教文化服务,培训机构
116.34410391500506,39.981673238075835,北京航空航天大学中法工程师学院,学院路37号北京航空航天大学2号教学楼,北京市,北京市,五道口,科教文化服务;学校;高等院校,141201,B000A8VUMW,科教文化服务,学校,高等院校,
116.35292070594987,39.99537916758922,中国石油勘探开发研究院研究生部,学院路20号,北京市,北京市,,科教文化服务;学校;高等院校,141201,B000A87KNS,科教文化服务,学校,高等院校,
116.34336899335341,39.97742768743823,北京航空航天大学材料科学与工程学院(科技园路),学院路37号北航院内(近北航体育馆),北京市,北京市,,科教文化服务;学校;高等院校,141201,B000A7WPXP,科教文化服务,学校,高等院校,
116.34513677764706,39.98163246170316,北京航空航天大学外语系,学院路37号北京航空航天大学,北京市,北京市,,科教文化服务;学校;高等院校,141201,B000AA1ZV6,科教文化服务,学校,高等院校,
116.34438866810568,39.978953856924896,北京航空航天大学计算机学院,学院路37号北京航空航天大学新主楼F座,北京市,北京市,,科教文化服务;学校;高等院校,141201,B000AA11DN,科教文化服务,学校,高等院校,
116.34680761341787,39.97965670734754,北京航空航天大学信息系统系,学院路37号北京航空航天大学新主楼A,北京市,北京市,,科教文化服务;学校;高等院校,141201,B000AA11OM,科教文化服务,学校,高等院校,
116.34680761341787,39.97965670734754,北京航空航天大学企业管理系,学院路37号北京航空航天大学新主楼A,北京市,北京市,,科教文化服务;学校;高等院校,141201,B000AA119X,科教文化服务,学校,高等院校,
116.35135719736269,39.99112579785799,北京科技大学工程训练中心(东区),学院路30号北京科技大学,北京市,北京市,,科教文化服务;学校;高等院校|科教文化服务;培训机构;培训机构,141201|141400,B000A7VC6S,科教文化服务,学校,高等院校|科教文化服务,培训机构
116.38368968890076,39.975739596082974,中国科学院大学微电子学院,北土城西路3号,北京市,北京市,北辰,科教文化服务;学校;高等院校,141201,B0FFFZCHNR,科教文化服务,学校,高等院校,
116.34680362162807,39.979655714098044,北京航空学院信息系统系,学院路37号北京航空航天大学新主楼A,北京市,北京市,,科教文化服务;学校;高等院校,141201,B0FFHD47A8,科教文化服务,学校,高等院校,
116.34311485756965,39.982695916167586,北京航空航天大学国际学院,学院路37号北京航空航天大学,北京市,北京市,五道口,科教文化服务;学校;高等院校,141201,B000A80A5T,科教文化服务,学校,高等院校,
116.34496897939971,39.982769702677345,北京航空航天大学工业设计系,学院路37号北京航空航天大学,北京市,北京市,五道口,科教文化服务;学校;高等院校,141201,B000AA116O,科教文化服务,学校,高等院校,
116.34499592003861,39.982798655285535,北京航空航天大学理学院,学院路37北京航空航天大学,北京市,北京市,五道口,科教文化服务;学校;高等院校,141201,B0FFGY4CT7,科教文化服务,学校,高等院校,
116.34496897939971,39.982769702677345,北京航空航天大学汽车工程系,学院路37号北京航空航天大学,北京市,北京市,五道口,科教文化服务;学校;高等院校,141201,B000AA1ZPZ,科教文化服务,学校,高等院校,
116.34680761341787,39.97965670734754,北京航空航天大学会计系,学院路37号北京航空航天大学新主楼A,北京市,北京市,,科教文化服务;学校;高等院校,141201,B000AA1ABU,科教文化服务,学校,高等院校,
116.3456933592892,39.983780423422246,北京航空航天大学能源与动力工程学院,学院路37号北京航空航天大学,北京市,北京市,五道口,科教文化服务;学校;高等院校,141201,B000A8VUSV,科教文化服务,学校,高等院校,
116.34574785364713,39.979019525386356,北京航空航天大学新主楼,学院路37号北京航空航天大学内,北京市,北京市,,科教文化服务;学校;高等院校,141201,B000A9NIKX,科教文化服务,学校,高等院校,
116.343782725783,39.980573839733125,北京航空航天大学生物与医学工程学院,学院路37号北京航空航天大学,北京市,北京市,,科教文化服务;学校;高等院校,141201,B000A8VUFO,科教文化服务,学校,高等院校,
116.34438558036122,39.97969383213577,北京航空航天大学网络中心,学院路37号北京航空航天大学,北京市,北京市,,科教文化服务;学校;高等院校,141201,B0FFG3YL74,科教文化服务,学校,高等院校,
116.3445713105558,39.99449289736186,北京语言大学教1楼,学院路15号北京语言大学,北京市,北京市,五道口,科教文化服务;学校;高等院校,141201,B0FFG4DYMI,科教文化服务,学校,高等院校,
116.3444416506162,39.97822579510911,北京航空航天大学自动化科学与电气工程学院,学院路37号,北京市,北京市,,科教文化服务;学校;高等院校,141201,B000AA20TS,科教文化服务,学校,高等院校,
116.3493979709086,39.975565586111195,北京联合大学应用学理学院报告厅,北土城西路197号,北京市,北京市,,科教文化服务;学校;高等院校,141201,B0FFH1D5Z5,科教文化服务,学校,高等院校,
116.34377704274051,39.993890296450026,北京语言大学留学生处,学院路15号北京语言大学,北京市,北京市,五道口,科教文化服务;学校;高等院校,141201,B0FFG3C0JP,科教文化服务,学校,高等院校,
116.34491139590648,39.996141242470166,中国矿业大学资源与安全工程学院,学院路丁11号中国矿业大学内,北京市,北京市,五道口,科教文化服务;学校;高等院校,141201,B000A8ZHH9,科教文化服务,学校,高等院校,
116.34312986274834,39.98240690180147,北京航空航天大学北京学院,学院路37号北京航空航天大学,北京市,北京市,五道口,科教文化服务;学校;高等院校,141201,B0FFFE3HAX,科教文化服务,学校,高等院校,
116.34296541568703,39.980784255718866,北京航空航天大学校友工作办公室,学院路37号北京航空航天大学,北京市,北京市,,科教文化服务;学校;高等院校,141201,B0FFF5UWDL,科教文化服务,学校,高等院校,
116.34272120596225,39.9943421197988,北京语言大学行政科研楼,学院路15号北京语言大学,北京市,北京市,五道口,科教文化服务;学校;高等院校,141201,B0FFFDCFZN,科教文化服务,学校,高等院校,
116.3435914939607,39.993398639703436,北京语言大学人文社会科学学部,15号北京语言大学学2楼,北京市,北京市,五道口,科教文化服务;学校;高等院校,141201,B0FFG4G1ED,科教文化服务,学校,高等院校,
116.3441598129918,39.99726948915687,中国矿业大学(北京)机械电子工程系,学院路丁11号中国矿业大学内,北京市,北京市,五道口,科教文化服务;学校;高等院校,141201,B000A8ZGEX,科教文化服务,学校,高等院校,
116.34381895480988,39.9938922236166,北京语言大学商学院,学院路15号北京语言大学,北京市,北京市,五道口,科教文化服务;学校;高等院校,141201,B0FFHEX9DN,科教文化服务,学校,高等院校,
116.3444416506162,39.97822579510911,北京航空航天大学自动控制系,学院路37号北京航空航天大学新主楼E座,北京市,北京市,,科教文化服务;学校;高等院校,141201,B000AA11DP,科教文化服务,学校,高等院校,
116.34442657264495,39.97908478620425,北京市海淀区学院路37号新主楼,学院路141,北京市,北京市,,科教文化服务;学校;高等院校,141201,B0FFFRCAGU,科教文化服务,学校,高等院校,
116.34462827198281,39.978156476371645,北京航空航天大学电气工程系,北京航空航天大学新主楼E座,北京市,北京市,,科教文化服务;学校;高等院校,141201,B0G2Z5E2PC,科教文化服务,学校,高等院校,
116.34561733892278,39.993018168009854,北京语言大学出版社外语教育事业部,学院路15号北京语言大学北京语言大学出版社附近,北京市,北京市,五道口,科教文化服务;学校;高等院校,141201,B0FFGZNWMR,科教文化服务,学校,高等院校,
116.34453363859109,39.992531045275506,北京语言大学港澳台办公室,成府路北100米,北京市,北京市,五道口,科教文化服务;学校;高等院校,141201,B0FFGZOST4,科教文化服务,学校,高等院校,
116.34388868742693,39.99484706212007,北京语言大学外语部,学院路街道学院路15号北京语言大学出版社假山后平房第一间,北京市,北京市,五道口,科教文化服务;学校;高等院校,141201,B0FFH0U3KJ,科教文化服务,学校,高等院校,
116.35174873929323,39.996716942024825,中国石油大学(北京)实验小楼,学院路20号,北京市,北京市,,科教文化服务;学校;高等院校,141201,B000A7QCK2,科教文化服务,学校,高等院校,
116.34438866810568,39.978953856924896,北京航空航天大学数学与系统科学学院,学院路37号北京航空航天大学,北京市,北京市,,科教文化服务;学校;高等院校,141201,B000AA116W,科教文化服务,学校,高等院校,
116.34381767482769,39.980399786171134,北京航空航天大学学院路校区逸夫科学馆,北四环中路251号,北京市,北京市,,科教文化服务;学校;高等院校,141201,B0FFG0VZUG,科教文化服务,学校,高等院校,
116.34328972998372,39.99652103256823,中国矿业大学老两层,学院路丁11号中国矿业大学,北京市,北京市,五道口,科教文化服务;学校;高等院校,141201,B0FFFEFK7G,科教文化服务,学校,高等院校,
116.34506304912074,39.996402971217584,中国矿业大学综合实验楼,学院路丁11中国矿业大学,北京市,北京市,五道口,科教文化服务;学校;高等院校,141201,B0FFI2SWHH,科教文化服务,学校,高等院校,
116.34687296238194,39.97587675087761,文都考研(学院路校区),知春路1号学院国际大厦21层,北京市,北京市,,科教文化服务;学校;高等院校|科教文化服务;培训机构;培训机构,141201|141400,B0FFFW5W0Z,科教文化服务,学校,高等院校|科教文化服务,培训机构
116.3429731264119,39.98293015437702,北京航空航天大学学院路校区兰台苑,北四环中路279号展春园小区10号楼,北京市,北京市,五道口,科教文化服务;学校;高等院校,141201,B0FFL9D15H,科教文化服务,学校,高等院校,
116.34523622394269,39.98437117909308,北京航空航天大学机械工程与自动化学院飞行器制造工程系,学院路37号北京航空航天大学,北京市,北京市,五道口,科教文化服务;学校;高等院校,141201,B0FFFE3TSX,科教文化服务,学校,高等院校,
116.34514729169588,39.99313296588071,北京语言大学语言文字测试分中心,学院路与成府路交叉口西北200米,北京市,北京市,五道口,科教文化服务;学校;高等院校,141201,B0FFGZOJ5I,科教文化服务,学校,高等院校,
116.34337298497034,39.977427680480794,北京航空航天大学可靠性与系统工程学院,花园路街道学院路37号,北京市,北京市,,科教文化服务;学校;高等院校,141201,B000AA0WVU,科教文化服务,学校,高等院校,
116.34292974982108,39.994465749159595,北京语言大学教学楼5(装修中),北京语言大学-教学楼5学院路15号,北京市,北京市,五道口,科教文化服务;学校;高等院校,141201,B0FFG733UD,科教文化服务,学校,高等院校,
116.34595252989533,39.97827120802648,飞行力学实验室(新主楼),学院路37号新主楼F6层D617、D619,北京市,北京市,,科教文化服务;学校;高等院校,141201,B0FFIK6EAM,科教文化服务,学校,高等院校,
116.34337298497034,39.977427680480794,北京航空航天大学仪器科学与光电工程学院,学院路37号北京航空航天大学为民楼5层,北京市,北京市,,科教文化服务;学校;高等院校,141201,B000A7WPYA,科教文化服务,学校,高等院校,
116.34309190856553,39.98267495713171,北京航空航天大学学院路校区国际学院,学院路37号北京航空航天大学内,北京市,北京市,五道口,科教文化服务;学校;高等院校,141201,B0FFKSWNKH,科教文化服务,学校,高等院校,
116.34337298497034,39.977427680480794,北京航空航天大学化学与环境学院,学院路37号北京航空航天大学为民楼,北京市,北京市,,科教文化服务;学校;高等院校,141201,B000AA119A,科教文化服务,学校,高等院校,
116.34413883596613,39.981722175650944,北京航空航天大学学院路校区中法工程师学院,[],北京市,北京市,五道口,科教文化服务;学校;高等院校,141201,B0FFLPWPZ9,科教文化服务,学校,高等院校,
116.3437379562308,39.9794989612925,北京航空航天大学学院路校区共享空间,科技园路,北京市,北京市,,科教文化服务;学校;高等院校,141201,B0FFLKL7NK,科教文化服务,学校,高等院校,
116.343782725783,39.980573839733125,北京航空航天大学新媒体艺术与设计学院,学院路37号北京航空航天大学,北京市,北京市,,科教文化服务;学校;高等院校,141201,B000A80A5O,科教文化服务,学校,高等院校,
116.35590934432065,40.00263833422406,中国农业大学水文地质实验室,清华东路17号中国农业大学东校区附近,北京市,北京市,,科教文化服务;学校;高等院校,141201,B0FFH1890F,科教文化服务,学校,高等院校,
116.34785618110031,39.99003552739879,北京科技大学工程训练中心(西区),学院路30号北京科技大学高等工程师学院工程训练中心,北京市,北京市,,科教文化服务;学校;高等院校|科教文化服务;培训机构;培训机构,141201|141400,B0FFG3Y8M8,科教文化服务,学校,高等院校|科教文化服务,培训机构
116.35283620825435,40.00051507793819,中国农业大学大学生心理素质教育中心,清华东路17号中国农业大学东校区中国农业大学东校区学生1号公寓a座,北京市,北京市,,科教文化服务;学校;高等院校,141201,B0FFFEFJ4A,科教文化服务,学校,高等院校,
116.34680761341787,39.97965670734754,北京航空航天大学金融系,学院路37号北京航空航天大学新主楼A,北京市,北京市,,科教文化服务;学校;高等院校,141201,B000AA11OH,科教文化服务,学校,高等院校,
116.34850153165084,40.00073600444406,中国农业大学东校区经济管理学院,清华东路17号中国农业大学东校区,北京市,北京市,,科教文化服务;学校;高等院校,141201,B0FFF5TVVR,科教文化服务,学校,高等院校,
116.3441598129918,39.99726948915687,中国矿业大学机电与信息工程学院,学院路丁11号中国矿业大学,北京市,北京市,五道口,科教文化服务;学校;高等院校,141201,B000AA11F2,科教文化服务,学校,高等院校,
116.3441598129918,39.99726948915687,中国矿业大学(北京)测控技术与仪器系,学院路丁11号中国矿业大学内,北京市,北京市,五道口,科教文化服务;学校;高等院校,141201,B0FFFAHTVK,科教文化服务,学校,高等院校,
116.34348817706505,39.99758964095286,中国矿业大学(北京)体育运动委员会,学院路丁11号中国矿业大学内,北京市,北京市,五道口,科教文化服务;学校;高等院校,141201,B0FFFAHVTN,科教文化服务,学校,高等院校,
116.35078652583164,40.004965111099715,中国农业大学东校区报告厅,清华东路17号中国农业大学东校区,北京市,北京市,,科教文化服务;学校;高等院校,141201,B0FFF0EUXS,科教文化服务,学校,高等院校,
116.35554401553685,40.002468882192254,中国农业大学东校区体育与艺术教学部,清华东路17号中国农业大学东校区,北京市,北京市,,科教文化服务;学校;高等院校,141201,B0FFFEFJ0S,科教文化服务,学校,高等院校,
116.34463512237409,39.99493076888874,北京语言大学教务处教材保障中心,学院路西200米,北京市,北京市,五道口,科教文化服务;学校;高等院校,141201,B0FFH0U3JE,科教文化服务,学校,高等院校,
116.34240397207613,39.98574103708805,北京航空航天大学自然资源部矿产勘查技术指导中心,北四环中路与北四环中路入口交叉口东北100米,北京市,北京市,五道口,科教文化服务;学校;高等院校,141201,B0FFKV0XPL,科教文化服务,学校,高等院校,
116.34288274804672,39.97954245106794,北京航空航天大学学院路校区无人机培训基地,科技园路(北京航空航天大学学院路校区),北京市,北京市,,科教文化服务;学校;高等院校,141201,B0FFLK0S4X,科教文化服务,学校,高等院校,
116.34338109413626,39.98429538580739,北京航空航天大学机械工程与自动化学院材料加工与控制工程系,学院路37号北京航空航天大学,北京市,北京市,五道口,科教文化服务;学校;高等院校,141201,B0FFFE3TSA,科教文化服务,学校,高等院校,
116.34904329142456,40.00206105752223,中国农业大学教务处教材服务部,清华东路17号,北京市,北京市,,科教文化服务;学校;高等院校,141201,B0FFG8URUJ,科教文化服务,学校,高等院校,
116.35375111007134,40.003673531124534,中国农业大学东校区节能办公室,清华东路17号中国农业大学东校区,北京市,北京市,,科教文化服务;学校;高等院校,141201,B0FFFEFK6W,科教文化服务,学校,高等院校,
116.35236009832191,40.00052881846556,中国农业大学东校区马克思主义学院,清华东路17号中国农业大学东校区,北京市,北京市,,科教文化服务;学校;高等院校,141201,B000A8ZIDT,科教文化服务,学校,高等院校,
116.35632489607013,39.961209429366846,田家炳艺术教育书院,新街口外大街19号,北京市,北京市,小西天,科教文化服务;学校;高等院校,141201,B0FFHRBE6Q,科教文化服务,学校,高等院校,
116.34381385382198,39.99476919525851,北京语言大学语言实践演播室管理办公室,[],北京市,北京市,五道口,科教文化服务;学校;高等院校,141201,B0FFLO36DU,科教文化服务,学校,高等院校,
116.35091249415782,40.0033149825531,中国农业大学东校区教学实验室,清华东路17号中国农业大学东校区,北京市,北京市,,科教文化服务;学校;高等院校,141201,B0FFFEFJ95,科教文化服务,学校,高等院校,
116.34552121422607,39.995547224547174,中国矿业大学力学与建筑工程学院工程力学实验教学中心,学院路丁11中国矿业大学,北京市,北京市,五道口,科教文化服务;学校;高等院校,141201,B0FFFEFK7S,科教文化服务,学校,高等院校,
116.34922585004139,40.0027047311305,中国农业大学东校区教育基金会,清华东路17号中国农业大学东校区,北京市,北京市,,科教文化服务;学校;高等院校,141201,B0FFFEFIP7,科教文化服务,学校,高等院校,
116.34417878262312,39.997197459437736,中国矿业大学(北京)人工智能学院,[],北京市,北京市,五道口,科教文化服务;学校;高等院校,141201,B0H67A1V9I,科教文化服务,学校,高等院校,
116.34496897939971,39.982769702677345,北京航空航天大学应用数学系,学院路37号北京航空航天大学,北京市,北京市,五道口,科教文化服务;学校;高等院校,141201,B000AA11NJ,科教文化服务,学校,高等院校,
116.34361291522168,39.9975914238285,中国矿业大学(北京)体育教研部,学院路丁11号中国矿业大学内,北京市,北京市,五道口,科教文化服务;学校;高等院校,141201,B0FFH26YUU,科教文化服务,学校,高等院校,
116.3444416506162,39.97822579510911,北京航空航天大学机电工程系,学院路37号北京航空航天大学新主楼E座,北京市,北京市,,科教文化服务;学校;高等院校,141201,B000AA11OC,科教文化服务,学校,高等院校,
116.3497069044336,40.00272794752725,中国农业大学东校区CAER编辑部,清华东路17号,北京市,北京市,,科教文化服务;学校;高等院校,141201,B0FFHCBL2R,科教文化服务,学校,高等院校,
116.34866502605641,40.00215967347051,中国农业大学东校区网络技术中心,北学清路静淑东里1号楼底商,北京市,北京市,,科教文化服务;学校;高等院校,141201,B0FFI8C78G,科教文化服务,学校,高等院校,
116.34922585004139,40.0027047311305,中国农业大学东校区校友工作办公室,清华东路17号中国农业大学东校区,北京市,北京市,,科教文化服务;学校;高等院校,141201,B0FFFEFIP9,科教文化服务,学校,高等院校,
116.35546212978295,40.00271899289281,中国农业大学水利与土木工程学院流体力学实验室,小月河西路,北京市,北京市,,科教文化服务;学校;高等院校,141201,B0FFH18845,科教文化服务,学校,高等院校,
116.35590934470302,40.00263533435463,中国农业大学水利与土木工程学院土木工程基础实验室,小月河西路,北京市,北京市,,科教文化服务;学校;高等院校,141201,B0FFH189OV,科教文化服务,学校,高等院校,
116.35746328625468,39.99749529637369,国际关系学院留学教育中心,志新西路3-1号,北京市,北京市,二里庄,科教文化服务;学校;高等院校,141201,B000A7WOYI,科教文化服务,学校,高等院校,
116.34566268445062,39.981720560142854,北京航空航天大学人机与环境工程系,学院路37号北京航空航天大学,北京市,北京市,,科教文化服务;学校;高等院校,141201,B000AA11CW,科教文化服务,学校,高等院校,
116.3493979709086,39.975565586111195,北京联合大学应用文理学院办公楼,北土城西路197号院2,北京市,北京市,,科教文化服务;学校;高等院校,141201,B0FFF5F3TJ,科教文化服务,学校,高等院校,
116.34392027469781,39.997569891069254,中国矿业大学北京化学与环境工程学院,中国矿业大学科研实验楼1-6层,北京市,北京市,五道口,科教文化服务;学校;高等院校,141201,B0FFHS2KH4,科教文化服务,学校,高等院校,
116.34496897939971,39.982769702677345,北京航空航天大学应用物理系,学院路37号北京航空航天大学,北京市,北京市,五道口,科教文化服务;学校;高等院校,141201,B000AA116P,科教文化服务,学校,高等院校,
116.35079753221055,40.00474910304113,中国农业大学东校区东区报告厅,石板房南路,北京市,北京市,,科教文化服务;学校;高等院校,141201,B0FFLQE690,科教文化服务,学校,高等院校,
116.34910518444472,40.00194396142715,中国农业大学东校区网络教育校本部(东区),清华东路17号中国农业大学东校区,北京市,北京市,,科教文化服务;学校;高等院校,141201,B0FFL7H7H1,科教文化服务,学校,高等院校,
116.34907853109205,39.976095085949886,北京联合大学应用文理学院-实验楼,北土城西路197北京联合大学应用文理学院,北京市,北京市,,科教文化服务;学校;高等院校,141201,B000AA0WKV,科教文化服务,学校,高等院校,
116.35161400079912,40.00451181639996,中国农业大学东校区生物质工程中心,小月河西路,北京市,北京市,,科教文化服务;学校;高等院校,141201,B0FFIPD2FQ,科教文化服务,学校,高等院校,
116.34565869276614,39.98171956697992,北航一号教学楼,学院路37北京航空航天大学,北京市,北京市,,科教文化服务;学校;高等院校,141201,B0FFFSL98X,科教文化服务,学校,高等院校,
116.34491139590648,39.996141242470166,中国矿业大学地球科学与测绘工程学院,学院路丁11号中国矿业大学内,北京市,北京市,五道口,科教文化服务;学校;高等院校,141201,B000A8ZHFF,科教文化服务,学校,高等院校,
116.3444157165362,39.993843193115694,北京语言大学电教中心,学院路15号,北京市,北京市,五道口,科教文化服务;学校;高等院校,141201,B000AA0VSU,科教文化服务,学校,高等院校,
116.35099006141891,40.005539760904654,中国农业大学东校区公共实验大厅,[],北京市,北京市,,科教文化服务;学校;高等院校,141201,B0FFH18QPX,科教文化服务,学校,高等院校,
116.34336899335341,39.97742768743823,北京航空航天大学电磁兼容实验室,学院路37北京航空航天大学为民楼,北京市,北京市,,科教文化服务;学校;高等院校,141201,B000AA0WVQ,科教文化服务,学校,高等院校,
116.34611206606071,39.96363852448827,中国法政大学吉林大学武汉大学司法文明协同创新中心,西土城路25号中国政法大学,北京市,北京市,北下关,科教文化服务;学校;高等院校,141201,B0FFFAJ7FC,科教文化服务,学校,高等院校,
116.34487732743317,39.99723225428435,中国矿业大学力学与建筑工程学院,学院路丁11号中国矿业大学内,北京市,北京市,五道口,科教文化服务;学校;高等院校,141201,B000AA11NX,科教文化服务,学校,高等院校,
116.35620007850575,39.96150160075063,北京师范大学化学一级学科博士点,新街口外大街19号,北京市,北京市,小西天,科教文化服务;学校;高等院校,141201,B0FFHD1P8M,科教文化服务,学校,高等院校,
116.35475117042941,39.996744314412766,北京石油大学东教学区,学院路20号,北京市,北京市,,科教文化服务;学校;高等院校,141201,B000A85DF0,科教文化服务,学校,高等院校,
116.34887185825981,39.968872714516856,教学楼C座,西土城路4号电影学院内,北京市,北京市,,科教文化服务;学校;高等院校,141201,B0FFF5815E,科教文化服务,学校,高等院校,
116.3514032599429,40.00562610055835,中国农业大学东校区水利与土木工程学院,清华东路17号,北京市,北京市,,科教文化服务;学校;高等院校,141201,B0FFH18DGP,科教文化服务,学校,高等院校,
116.34865901299015,39.970961980317874,北京电影学院交通服务中心,西土城路辅路东100米,北京市,北京市,,科教文化服务;学校;高等院校,141201,B0FFH1XJHR,科教文化服务,学校,高等院校,
116.34271399854529,39.98823438909923,北京地智科贸中心,学院路29号中国地质大学(北京)内,北京市,北京市,五道口,科教文化服务;学校;高等院校,141201,B000A7GQH7,科教文化服务,学校,高等院校,
116.34312986274834,39.98240690180147,北京航空航天大学现代教育技术中心,学院路37号北京航空航天大学,北京市,北京市,五道口,科教文化服务;学校;高等院校,141201,B000A9LEXF,科教文化服务,学校,高等院校,
116.34287876281606,39.97949246008259,北京航空航天大学学院路校区飞行体验中心,北京航空航天大学体育馆西侧,北京市,北京市,,科教文化服务;学校;高等院校,141201,B0FFL1XFYW,科教文化服务,学校,高等院校,
116.34410391500506,39.981673238075835,北京航空航天大学-教学2号楼,学院路37北京航空航天大学,北京市,北京市,五道口,科教文化服务;学校;高等院校,141201,B0FFFSLYBE,科教文化服务,学校,高等院校,
116.37888515026944,39.95987125738253,北京教育学院教学楼,德胜门外黄寺大街什坊街2号,北京市,北京市,黄寺,科教文化服务;学校;高等院校,141201,B000AA0VQV,科教文化服务,学校,高等院校,
116.3438470133723,39.977256863050634,北京航空航天大学仪器科学与光电工程学院光电工程系,学院路37号北京航空航天大学,北京市,北京市,,科教文化服务;学校;高等院校,141201,B000A80A6C,科教文化服务,学校,高等院校,
116.34381895480988,39.9938922236166,北京语言大学来华留学生招生办公室,学院路15号北京语言大学,北京市,北京市,五道口,科教文化服务;学校;高等院校,141201,B0FFFDK2ZY,科教文化服务,学校,高等院校,
116.34871492397708,40.002185590349754,中国农业大学东校区计算中心,清华东路17号中国农业大学东校区,北京市,北京市,,科教文化服务;学校;高等院校,141201,B000A81HZR,科教文化服务,学校,高等院校,
116.35361355475989,40.00217380732251,中国农业大学东校区校园卡管理中心,清华东路17号中国农业大学东校区,北京市,北京市,,科教文化服务;学校;高等院校|生活服务;生活服务场所;生活服务场所,141201|070000,B0FFFEFJD0,科教文化服务,学校,高等院校|生活服务,生活服务场所
116.3456933592892,39.983780423422246,北京航空航天大学航空推进系,学院路37北京航空航天大学内,北京市,北京市,五道口,科教文化服务;学校;高等院校,141201,B000AA118W,科教文化服务,学校,高等院校,
116.34871492397708,40.002185590349754,中国农业大学电化教育中心,学清路附近,北京市,北京市,,科教文化服务;学校;高等院校,141201,B000A7VC24,科教文化服务,学校,高等院校,
116.37344703143036,40.00171704075209,中国科学院大学奥运村校区,奥运村街道大屯路甲3号,北京市,北京市,林萃,科教文化服务;学校;高等院校,141201,B000AA2178,科教文化服务,学校,高等院校,
116.34729794015581,40.0085626564258,学院8号,学清路东100米,北京市,北京市,,科教文化服务;学校;高等院校,141201,B0FFH6X9MG,科教文化服务,学校,高等院校,
116.34680761341787,39.97965670734754,北京航空航天大学管理科学与工程系,学院路37号北京航空航天大学新主楼A,北京市,北京市,,科教文化服务;学校;高等院校,141201,B000AA11O9,科教文化服务,学校,高等院校,
116.35344820121958,39.96813247147515,新加坡南洋艺术学院,北三环中路77号,北京市,北京市,,科教文化服务;学校;高等院校,141201,B000A8ZMWI,科教文化服务,学校,高等院校,
116.34855484139878,39.98178171384355,北京大学医学部护理学院,学院路38号北京大学医学部,北京市,北京市,,科教文化服务;学校;高等院校,141201,B000A85D0H,科教文化服务,学校,高等院校,
116.34337298497034,39.977427680480794,北京航空航天大学仪器电子信息工程学院,学院路37号北京航空航天大学为民楼4层,北京市,北京市,,科教文化服务;学校;高等院校,141201,B000A81F3E,科教文化服务,学校,高等院校,
116.35538662951068,39.96066083640155,基础教育质量评价与提升协同创新中心,新街口外大街19号北京师范大学,北京市,北京市,小西天,科教文化服务;学校;高等院校,141201,B0FFF5G4XI,科教文化服务,学校,高等院校,
116.35085954118752,39.988060717662265,北京科技大学学院路校区外国语学院,学子西路,北京市,北京市,,科教文化服务;学校;高等院校,141201,B000A84JK0,科教文化服务,学校,高等院校,
116.34990336548748,39.98041556907904,北京大学医学部(南2门),花园北路38号北京大学医学部,北京市,北京市,,科教文化服务;学校;高等院校,141201,B000A7Y1W0,科教文化服务,学校,高等院校,
116.34605481972473,39.9900605489281,中国地质大学北京校区信息工程学院,学院路29号中国地质大学,北京市,北京市,五道口,科教文化服务;学校;高等院校,141201,B000A84MLB,科教文化服务,学校,高等院校,
116.34438866810568,39.978953856924896,北京航空航天大学信息与通信工程系,学院路37号北京航空航天大学,北京市,北京市,,科教文化服务;学校;高等院校,141201,B000AA11YF,科教文化服务,学校,高等院校,
116.34680761341787,39.97965670734754,北京航空航天大学国际贸易系,学院路37号北京航空航天大学新主楼A,北京市,北京市,,科教文化服务;学校;高等院校,141201,B000AA11F8,科教文化服务,学校,高等院校,
116.34376906312929,39.993861311532584,北京语言大学信息科学学院,学院路15号北京语言大学,北京市,北京市,五道口,科教文化服务;学校;高等院校,141201,B000AA11DE,科教文化服务,学校,高等院校,
116.34418766485459,39.982267068886635,北京航空航天大学教材供应中心,学院路37号北京航空航天大学,北京市,北京市,五道口,科教文化服务;学校;高等院校,141201,B000A80A4W,科教文化服务,学校,高等院校,
116.34287940080846,39.99018601773256,中国地质大学研究生院,学院路29号中国地质大学综合办公楼,北京市,北京市,五道口,科教文化服务;学校;高等院校,141201,B000A7XL5U,科教文化服务,学校,高等院校,
116.3563289393798,39.98433849241373,北京大学医学部校园管理中心,学院路38号北大医学部,北京市,北京市,牡丹园,科教文化服务;学校;高等院校,141201,B0FFG730TA,科教文化服务,学校,高等院校,
116.34680761341787,39.97965670734754,北京航空航天大学技术经济与管理系,学院路37号北京航空航天大学新主楼A,北京市,北京市,,科教文化服务;学校;高等院校,141201,B000AA119V,科教文化服务,学校,高等院校,
116.34680761341787,39.97965670734754,北京航空航天大学保险与风险管理系,学院路37北京航空航天大学(学院路校区),北京市,北京市,,科教文化服务;学校;高等院校,141201,B000AA119S,科教文化服务,学校,高等院校,
116.34311485756965,39.982695916167586,北京航空航天大学国际空间教育中心,学院路37号北京航空航天大学内,北京市,北京市,五道口,科教文化服务;学校;高等院校,141201,B000A8VUAU,科教文化服务,学校,高等院校,
116.34496897939971,39.982769702677345,北京航空航天大学机械工程及自动化学院,学院路37号北京航空航天大学,北京市,北京市,五道口,科教文化服务;学校;高等院校,141201,B000A81F3F,科教文化服务,学校,高等院校,
116.34506704075079,39.996403964335414,中国矿业大学iet教育基金理事会秘书处,学院路丁11号中国矿业大学,北京市,北京市,五道口,科教文化服务;学校;高等院校,141201,B000A7VAQS,科教文化服务,学校,高等院校,
116.34438866810568,39.978953856924896,北京航空航天大学电子科学与技术系,学院路37号北京航空航天大学新主楼F座,北京市,北京市,,科教文化服务;学校;高等院校,141201,B000AA11NZ,科教文化服务,学校,高等院校,
116.34496897939971,39.982769702677345,北京航空航天大学电子电工中心试验室,学院路37号北京航空航天大学,北京市,北京市,五道口,科教文化服务;学校;高等院校,141201,B000AA11K4,科教文化服务,学校,高等院校,
116.34438866810568,39.978953856924896,北京航空航天大学光电与信息工程系,学院路37号北京航空航天大学新主楼F座,北京市,北京市,,科教文化服务;学校;高等院校,141201,B000AA1198,科教文化服务,学校,高等院校,
116.35128647736111,40.00566928381122,中国农业大学水利与土木工程实验教学中心,清华东路17号中国农业大学内,北京市,北京市,,科教文化服务;学校;高等院校,141201,B000AA0NDV,科教文化服务,学校,高等院校,
116.35074406383032,40.00138833570956,中国农业大学东校区工学院车辆交通工程系,清华东路17号中国农业大学东校区,北京市,北京市,,科教文化服务;学校;高等院校,141201,B000A81HZD,科教文化服务,学校,高等院校,
116.34491139590648,39.996141242470166,中国矿业大学采矿与安全工程实验教学中心,学院路丁11号中国矿业大学内,北京市,北京市,五道口,科教文化服务;学校;高等院校,141201,B000A8ZGJR,科教文化服务,学校,高等院校,
116.34371953965322,39.99093252103208,中国地质大学工程技术学院,学院路29号中国地质大学(北京)工程技术学院,北京市,北京市,五道口,科教文化服务;学校;高等院校,141201,B000A82ZE4,科教文化服务,学校,高等院校,
116.35687717395426,39.99065643131443,北京科技大学铭德楼,学院路30号北京科技大学,北京市,北京市,,科教文化服务;学校;高等院校,141201,B0FFFAK5R6,科教文化服务,学校,高等院校,
116.35455983471003,39.98641703697907,北京科技大学创新苑,北四环中路辅路253号附近,北京市,北京市,,科教文化服务;学校;高等院校,141201,B0FFG8VGA4,科教文化服务,学校,高等院校,
116.35145453489152,39.98702281484615,北京科技大学冶金与生态工程学院,学院路30号北京科技大学,北京市,北京市,,科教文化服务;学校;高等院校,141201,B000A830SV,科教文化服务,学校,高等院校,
116.34539932980671,39.988755718677545,中国地质大学外国语学院,学院路29号中国地质大学,北京市,北京市,五道口,科教文化服务;学校;高等院校,141201,B000A7XL5S,科教文化服务,学校,高等院校,
116.35316327942022,39.98734613007402,北京科技大学招生办公室,学院路30号北京科技大学,北京市,北京市,,科教文化服务;学校;高等院校,141201,B000A8ZI0L,科教文化服务,学校,高等院校,
116.34399090231732,39.99148202717972,中国地质大学北京校区海洋学院,学院路29号中国地质大学内,北京市,北京市,五道口,科教文化服务;学校;高等院校,141201,B000A8UNHL,科教文化服务,学校,高等院校,
116.34897984087797,39.990887639071346,北京科技大学机械工程学院,学院路30号北京科技大学,北京市,北京市,,科教文化服务;学校;高等院校,141201,B000A84J9N,科教文化服务,学校,高等院校,
116.35563262470721,39.988624340730546,北京科技大学体育部,学院路30号北京科技大学,北京市,北京市,,科教文化服务;学校;高等院校,141201,B000A96GFS,科教文化服务,学校,高等院校,
116.35120043916791,39.9915780276449,北京科技大学东凌经济管理学院,良乡大学城内学院路30号(北京经济管理学院),北京市,北京市,,科教文化服务;学校;高等院校,141201,B000A7VI26,科教文化服务,学校,高等院校,
116.3484769389804,39.99007749896499,北京科技大学文法学院,学院路30号北京科技大学,北京市,北京市,,科教文化服务;学校;高等院校,141201,B000A84J9P,科教文化服务,学校,高等院校,
116.3493870333017,39.990940971954274,北京科技大学计算机与通信工程学院,学院路30号北京科技大学,北京市,北京市,,科教文化服务;学校;高等院校,141201,B000A84JAI,科教文化服务,学校,高等院校,
116.35244712452477,39.983360405929986,北京大学医学教学楼,学院路38号北京大学医学部,北京市,北京市,,科教文化服务;学校;高等院校,141201,B0FFGDXRIY,科教文化服务,学校,高等院校,
116.35301010142044,39.98313254065546,北京大学医学部体育学系,学院路38号北京大学医学部,北京市,北京市,,科教文化服务;学校;高等院校,141201,B0FFFDZVJ7,科教文化服务,学校,高等院校,
116.3538729682518,39.98735604049531,北京科技大学心理素质教育中心,学院路30号北京科技大学,北京市,北京市,,科教文化服务;学校;高等院校,141201,B0FFG8VG1M,科教文化服务,学校,高等院校,
116.34500625988335,39.98781643033967,中国地质大学北京校区能源学院,学院路29号中国地质大学,北京市,北京市,五道口,科教文化服务;学校;高等院校,141201,B000A81F35,科教文化服务,学校,高等院校,
116.34539932993378,39.98875471871902,中国地质大学地质资源勘查实验教学中心,学院路,北京市,北京市,五道口,科教文化服务;学校;高等院校,141201,B000A95CYM,科教文化服务,学校,高等院校,
116.35239227837559,39.982961507912144,北京大学医学部逸夫教学楼,学院路38号北京大学医学部,北京市,北京市,,科教文化服务;学校;高等院校,141201,B000A8VURU,科教文化服务,学校,高等院校,
116.3534084472159,39.99030962889714,北京科技大学商业服务处,学院路30号北京科技大学,北京市,北京市,,科教文化服务;学校;高等院校,141201,B0FFG4RRY2,科教文化服务,学校,高等院校,
116.35135616146047,39.98357911285566,北京大学医学部研究生院,学院路38号北京大学医学部,北京市,北京市,,科教文化服务;学校;高等院校,141201,B0FFG56F0R,科教文化服务,学校,高等院校,
116.3527533279159,39.9851108572351,北京大学医学部中西医结合学系,北四环中路辅路,北京市,北京市,,科教文化服务;学校;高等院校,141201,B0FFM10SKV,科教文化服务,学校,高等院校,
116.3515942683103,39.98702759365875,北京科技大学钢铁共性技术协同创新中心,学院路30号北京科技大学科技楼801,北京市,北京市,,科教文化服务;学校;高等院校,141201,B0FFM10EHZ,科教文化服务,学校,高等院校,
116.34291922717739,39.99088991849361,中国地质大学新闻与信息管理中心,成府路,北京市,北京市,五道口,科教文化服务;学校;高等院校,141201,B0FFM10EHY,科教文化服务,学校,高等院校,
116.36147443489438,39.960080294196196,北京师范大学人工智能学院,新街口外大街19号,北京市,北京市,小西天,科教文化服务;学校;高等院校,141201,B0FFM108BG,科教文化服务,学校,高等院校,
116.34895041362475,39.9711474947474,北京电影学院灯光库,[],北京市,北京市,,科教文化服务;学校;高等院校,141201,B0FFM0XDB7,科教文化服务,学校,高等院校,
116.35026873545208,39.97194032228986,北京电影学院行政处综合库房,黄亭子路,北京市,北京市,,科教文化服务;学校;高等院校,141201,B0FFM0OG4U,科教文化服务,学校,高等院校,
116.34531828359287,39.99042878719213,中国地质大学地球科学与资原学院,[],北京市,北京市,五道口,科教文化服务;学校;高等院校,141201,B0FFLO7L8H,科教文化服务,学校,高等院校,
116.34839800967455,39.99075260078699,北京科技大学国家材料服役安全科学中心,学院路30号北京科技大学内,北京市,北京市,,科教文化服务;学校;高等院校,141201,B0FFLMBLJ3,科教文化服务,学校,高等院校,
116.3440537806279,39.99140692143396,中国地质大学(北京)综合科研楼,学院路29号中国地质大学,北京市,北京市,五道口,科教文化服务;学校;高等院校,141201,B0FFL848FY,科教文化服务,学校,高等院校,
116.36398262318131,39.95980508478143,北京师范大学地理科学学部,新街口外大街19-12,北京市,北京市,小西天,科教文化服务;学校;高等院校,141201,B0FFJH7365,科教文化服务,学校,高等院校,
116.35023521843313,39.984356871988034,北京大学医学部国际合作交流中心,学院路38号,北京市,北京市,,科教文化服务;学校;高等院校,141201,B0FFJ8HCWJ,科教文化服务,学校,高等院校,
116.35140979885622,39.962075893529864,北京邮电大学学生发展中心,西土城路10号北京邮电大学内,北京市,北京市,,科教文化服务;学校;高等院校,141201,B0FFJ1V5U8,科教文化服务,学校,高等院校,
116.34500625988335,39.98781643033967,北京中国地质大学教学楼11,学院路29号中国地质大学,北京市,北京市,五道口,科教文化服务;学校;高等院校,141201,B0FFI2XRTN,科教文化服务,学校,高等院校,
116.35177630308418,39.9604983770426,北京邮电大学网络空间安全学院,西土城路10号附近,北京市,北京市,,科教文化服务;学校;高等院校,141201,B0FFHQM53P,科教文化服务,学校,高等院校,
116.35139781049936,39.962163909029194,北京邮电大学数学中心,西土城路10号北京邮电大学附近,北京市,北京市,,科教文化服务;学校;高等院校,141201,B0FFHQM2OI,科教文化服务,学校,高等院校,
116.35124131173697,39.960573220382,北京邮电大学财务服务厅,西土城路10号,北京市,北京市,,科教文化服务;学校;高等院校,141201,B0FFHQLZPV,科教文化服务,学校,高等院校,
116.35026979097758,39.971488338724996,北京电影学院导演系,黄亭子路西50米,北京市,北京市,,科教文化服务;学校;高等院校,141201,B0FFHQ8GBX,科教文化服务,学校,高等院校,
116.35123237352164,39.991613975406594,北京科技大学东凌经济管理学院学生学习与发展中心,学院路30号北京科技大学,北京市,北京市,,科教文化服务;学校;高等院校,141201,B0FFHDS8ES,科教文化服务,学校,高等院校,
116.34911757415114,39.99085141530371,北京科技大学能源与环境工程学院,学院路30号北京科技大学,北京市,北京市,,科教文化服务;学校;高等院校,141201,B0FFHDNW2F,科教文化服务,学校,高等院校,
116.3507548974327,39.96329788730243,北京邮电大学研究生招生办公室,西土城路10号北京邮电大学,北京市,北京市,,科教文化服务;学校;高等院校,141201,B0FFH3HUXX,科教文化服务,学校,高等院校,
116.3508774935633,39.988163684721265,北京科技大学外国语学院,学院路30号北京科技大学,北京市,北京市,,科教文化服务;学校;高等院校,141201,B0FFH1G923,科教文化服务,学校,高等院校,
116.35713533188752,39.96238720454146,北京师范大学基建处,新街口外大街19号,北京市,北京市,小西天,科教文化服务;学校;高等院校,141201,B0FFH1FTYN,科教文化服务,学校,高等院校,
116.3609223482289,39.95980403914261,北京师范大学MBA教室,新街口外大街19号,北京市,北京市,小西天,科教文化服务;学校;高等院校,141201,B0FFH17KME,科教文化服务,学校,高等院校,
116.3507548974327,39.96329788730243,北京邮电大学本科招生办公室,西土城路10号北京邮电大学,北京市,北京市,,科教文化服务;学校;高等院校,141201,B0FFH14OGV,科教文化服务,学校,高等院校,
116.35139581468573,39.962160912310424,北京邮电大学心理素质教育中心,西土城路10号北京邮电大学,北京市,北京市,,科教文化服务;学校;高等院校,141201,B0FFH14BCW,科教文化服务,学校,高等院校,
116.35055842593815,39.962120248630036,北京邮电大学学生公寓中心,西土城路10号北京邮电大学,北京市,北京市,,科教文化服务;学校;高等院校,141201,B0FFH1485D,科教文化服务,学校,高等院校,
116.35444517866303,39.961821202858154,北京邮电大学保卫处,西土城路10号北京邮电大学北京邮电大学基建处附近,北京市,北京市,,科教文化服务;学校;高等院校,141201,B0FFH13YRK,科教文化服务,学校,高等院校,
116.35178029538976,39.96049937071228,北京邮电大学学术委员会办公室,西土城路10号附近,北京市,北京市,,科教文化服务;学校;高等院校,141201,B0FFH13OX4,科教文化服务,学校,高等院校,
116.3513614733996,39.98889688433433,北京科技大学教育部科技查新工作站,图书馆路,北京市,北京市,,科教文化服务;学校;高等院校,141201,B0FFH13OWT,科教文化服务,学校,高等院校,
116.3503828506331,39.961448557113606,北京邮电大学学生工作基地,师大北路,北京市,北京市,,科教文化服务;学校;高等院校,141201,B0FFH1363Q,科教文化服务,学校,高等院校,
116.36146045927934,39.96006231337919,北京师范大学教师发展中心信息科学与技术学院分中心,新街口外大街19号,北京市,北京市,小西天,科教文化服务;学校;高等院校,141201,B0FFGZSIZX,科教文化服务,学校,高等院校,
116.36146045927934,39.96006231337919,北京师范大学STC高性能单片机联合实验室,新街口外大街19号,北京市,北京市,小西天,科教文化服务;学校;高等院校,141201,B0FFGZSIXE,科教文化服务,学校,高等院校,
116.35220838001935,39.96133566511393,北京邮电大学数字校史馆,西土城路10号北京邮电大学,北京市,北京市,,科教文化服务;学校;高等院校,141201,B0FFGZ0VQZ,科教文化服务,学校,高等院校,
116.34596725858444,39.98801978259515,中国地质大学马克思主义学院,学院路29号中国地质大学,北京市,北京市,五道口,科教文化服务;学校;高等院校,141201,B0FFGJY0UY,科教文化服务,学校,高等院校,
116.34992293392564,39.98350341102096,北京大学医学遗传中心,学院路38号北京大学(医学部)内解剖楼,北京市,北京市,,科教文化服务;学校;高等院校,141201,B0FFGG6O28,科教文化服务,学校,高等院校,
116.35100176998837,39.984123653706206,北京大学生物医学实验教学中心,学院路38号北京大学医学部,北京市,北京市,,科教文化服务;学校;高等院校,141201,B0FFGAPFQ3,科教文化服务,学校,高等院校,
116.34785618122746,39.99003452744042,北京科技大学钢铁生产全流程虚拟仿真实验教学中心,学院路30号北京科技大学,北京市,北京市,,科教文化服务;学校;高等院校,141201,B0FFG8VR0Z,科教文化服务,学校,高等院校,
116.34939112990507,39.9901199996884,北京科技大学材料科学与工程学院实验测试中心,学院路30(北京科技大学),北京市,北京市,,科教文化服务;学校;高等院校|科教文化服务;科研机构;科研机构,141201|141300,B0FFG8VQMF,科教文化服务,学校,高等院校|科教文化服务,科研机构
116.3443613222467,39.989974449846656,中国地质大学工商管理硕士(MBA)教育中心,学院路29号中国地质大学内,北京市,北京市,五道口,科教文化服务;学校;高等院校,141201,B0FFG733YO,科教文化服务,学校,高等院校,
116.35836921408878,39.96243944249303,北京师范大学人民防空办公室,新街口外大街19号,北京市,北京市,小西天,科教文化服务;学校;高等院校,141201,B0FFG733WO,科教文化服务,学校,高等院校,
116.3620693968402,39.96089748083959,北京师范大学离退休工作处,新街口外大街19号北京师范大学,北京市,北京市,小西天,科教文化服务;学校;高等院校,141201,B0FFG56SQ8,科教文化服务,学校,高等院校,
116.34832439642209,39.98101612499855,北京大学医学部有朋馆,学院路38号北京大学医学部,北京市,北京市,,科教文化服务;学校;高等院校,141201,B0FFG56F0F,科教文化服务,学校,高等院校,
116.3505160118715,39.98956020489761,北京科技大学教学楼,学院路30号北京科技大学,北京市,北京市,,科教文化服务;学校;高等院校,141201,B0FFG4RRY5,科教文化服务,学校,高等院校,
116.35893049011214,39.96071972384959,北京师范大学脑成像中心,新街口外大街19号北京师范大学,北京市,北京市,小西天,科教文化服务;学校;高等院校,141201,B0FFG4RP2J,科教文化服务,学校,高等院校,
116.35752780803277,39.961185687939526,北京师范大学物业中心动力保障部,新街口外大街19号北京师范大学,北京市,北京市,小西天,科教文化服务;学校;高等院校,141201,B0FFG4RP2F,科教文化服务,学校,高等院校,
116.35834627988844,39.962227483240326,北京师范大学资产管理处,新街口外大街19号北京师范大学,北京市,北京市,小西天,科教文化服务;学校;高等院校,141201,B0FFG4RP2C,科教文化服务,学校,高等院校,
116.35623698062938,39.96175953638028,北京师范大学化学学院化学一级学科博士点,新街口外大街19号北京师范大学,北京市,北京市,小西天,科教文化服务;学校;高等院校,141201,B0FFG4RNAZ,科教文化服务,学校,高等院校,
116.34943794534496,39.99084789297498,北京科技大学学院路校区信息工程学院,学院路30,北京市,北京市,,科教文化服务;学校;高等院校,141201,B0FFG3Y8N3,科教文化服务,学校,高等院校,
116.36090936913061,39.95980305654422,北京师范大学教育技术学院(京师路),新街口外大街19号,北京市,北京市,小西天,科教文化服务;学校;高等院校,141201,B0FFG0ZLCL,科教文化服务,学校,高等院校,
116.35449607539645,39.961906122559846,北京邮电大学基建处,西土城路10号北京邮电大学,北京市,北京市,,科教文化服务;学校;高等院校,141201,B0FFFGYRZ8,科教文化服务,学校,高等院校,
116.34351126515523,39.965079935095595,中国政法大学司法考试学院,西土城路25号中国政法大学,北京市,北京市,北下关,科教文化服务;学校;高等院校,141201,B0FFFGQNYS,科教文化服务,学校,高等院校,
116.35937681901736,39.96016112651911,北京师范大学教学服务中心,新街口外大街19-1号,北京市,北京市,小西天,科教文化服务;学校;高等院校,141201,B0FFFEFKCZ,科教文化服务,学校,高等院校,
116.35908432709347,39.95998553880657,北京师范大学教育学部,北太平庄街道新街口外大街19号,北京市,北京市,小西天,科教文化服务;学校;高等院校,141201,B0FFFEFKCY,科教文化服务,学校,高等院校,
116.35935984584198,39.96017114957752,北京师范大学党委宣传部新闻中心,新街口外大街19号北京师范大学科技楼C11层,北京市,北京市,小西天,科教文化服务;学校;高等院校,141201,B0FFFEFJMZ,科教文化服务,学校,高等院校,
116.3529641278168,39.96005653915887,北京邮电大学离退休工作处退休科,西土城路10号北京邮电大学,北京市,北京市,,科教文化服务;学校;高等院校,141201,B0FFFEFJJ1,科教文化服务,学校,高等院校,
116.35078084815201,39.96329284601856,北京邮电大学就业指导中心,西土城路10号北京邮电大学,北京市,北京市,,科教文化服务;学校;高等院校,141201,B0FFFEFJIU,科教文化服务,学校,高等院校,
116.3563678284094,39.96114836894689,北京师范大学戏剧影视学博士后科研流动站,新街口外大街19号,北京市,北京市,小西天,科教文化服务;学校;高等院校,141201,B0FFFEFJA1,科教文化服务,学校,高等院校,
116.3563678284094,39.96114836894689,北京师范大学北京大学生电影节组委会,新街口外大街19号北京师范大学京师大厦,北京市,北京市,小西天,科教文化服务;学校;高等院校,141201,B0FFFEFJA0,科教文化服务,学校,高等院校,
116.35639769439324,39.961788299875366,北京师范大学化学楼,新街口外大街19号,北京市,北京市,小西天,科教文化服务;学校;高等院校,141201,B0FFFEFJ9Y,科教文化服务,学校,高等院校,
116.35600638314565,39.961793873898245,北京师范大学化学学科博士后科研流动站,新街口外大街19号北京师范大学,北京市,北京市,小西天,科教文化服务;学校;高等院校,141201,B0FFFEFJ9X,科教文化服务,学校,高等院校,
116.35129421465516,39.96054213763761,北京邮电大学教学楼1号楼,西土城路10号北京邮电大学,北京市,北京市,,科教文化服务;学校;高等院校,141201,B0FFFEFIJT,科教文化服务,学校,高等院校,
116.34524243627715,39.990456915683495,中国地质大学教学楼2号,学院路29号中国地质大学,北京市,北京市,五道口,科教文化服务;学校;高等院校,141201,B0FFFE3OAO,科教文化服务,学校,高等院校,
116.34572378354186,39.98781220494093,中国地质大学现代钻探实践中心,学院路29号中国地质大学,北京市,北京市,五道口,科教文化服务;学校;高等院校,141201,B0FFFE381P,科教文化服务,学校,高等院校,
116.35260658666732,39.98523408029404,北京大学医学部后勤与基建管理处,学院路38号北京大学医学部,北京市,北京市,,科教文化服务;学校;高等院校,141201,B0FFFE08QP,科教文化服务,学校,高等院校,
116.34933293652786,39.984686320139204,北京大学医学部试剂与药品管理办公室,学院路38号北京大学医学部,北京市,北京市,,科教文化服务;学校;高等院校,141201,B0FFFDZZUL,科教文化服务,学校,高等院校,
116.35146212324776,39.98229399772804,北京大学医学部药学实验教学中心,学院路38号北京大学医学部,北京市,北京市,,科教文化服务;学校;高等院校,141201,B0FFFDZVI4,科教文化服务,学校,高等院校,
116.35021020181512,39.984867891220105,北京大学医学部系统生物医学研究所计算生物医学研究室,花园路街道学院路38号北京大学医学部生化系,北京市,北京市,,科教文化服务;学校;高等院校|科教文化服务;科研机构;科研机构,141201|141300,B0FFFDZUSJ,科教文化服务,学校,高等院校|科教文化服务,科研机构
116.35099185858685,39.983577691952576,北京大学医学部教育技术中心,学院路38号北京大学(医学部)内,北京市,北京市,,科教文化服务;学校;高等院校,141201,B0FFFDZUQB,科教文化服务,学校,高等院校,
116.35094387328624,39.98418474347695,北京大学医学部生物医学部实验教学中心,北四环中路与北四环中路入口交叉口西南200米,北京市,北京市,,科教文化服务;学校;高等院校,141201,B0FFFDZUP1,科教文化服务,学校,高等院校,
116.34867667638592,39.98118253796139,北京大学医学部卫生应急管理中心,学院路38号北京大学医学部,北京市,北京市,,科教文化服务;学校;高等院校,141201,B0FFFDZTEH,科教文化服务,学校,高等院校,
116.34863476114604,39.98116860743475,北京大学医学部新公卫楼,学院路38号北京大学医学部,北京市,北京市,,科教文化服务;学校;高等院校,141201,B0FFFDZTEA,科教文化服务,学校,高等院校,
116.34855484139878,39.98178171384355,北京大学医学部护理楼,学院路38号北京大学医学部,北京市,北京市,,科教文化服务;学校;高等院校,141201,B0FFFDZTDJ,科教文化服务,学校,高等院校,
116.34849091377717,39.982208801622846,北京大学医学部医院管理EMBA招生办公室,学院路38号北京大学医学部,北京市,北京市,,科教文化服务;学校;高等院校,141201,B0FFFDZTB0,科教文化服务,学校,高等院校,
116.35109606505019,39.980390656489355,北京大学医学部睡眠医学中心,花园北路51号院-1,北京市,北京市,,科教文化服务;学校;高等院校,141201,B0FFFDZT45,科教文化服务,学校,高等院校,
116.35011910152367,39.987041948144736,北京科技大学腐蚀与防护中心,学院路30号北京科技大学内,北京市,北京市,,科教文化服务;学校;高等院校,141201,B0FFFDCD3Q,科教文化服务,学校,高等院校,
116.34938646034142,39.98759911241171,北京科技大学综合治理办公室,学院路30号北京科技大学,北京市,北京市,,科教文化服务;学校;高等院校,141201,B0FFFDCD3N,科教文化服务,学校,高等院校,
116.35068350205349,39.991024875203195,北京科技大学材料科学与工程学院无机非金属材料系,学院路30号北京科技大学,北京市,北京市,,科教文化服务;学校;高等院校,141201,B0FFFDBZYB,科教文化服务,学校,高等院校,
116.34474376754659,39.96451882503559,中国政法大学社会学院,西土城路25号中国政法大学,北京市,北京市,北下关,科教文化服务;学校;高等院校,141201,B0FFFCTGUB,科教文化服务,学校,高等院校,
116.350704627981,39.98971789614172,北京科技大学学术报告厅,学院路30号,北京市,北京市,,科教文化服务;学校;高等院校,141201,B0FFFCIS0A,科教文化服务,学校,高等院校,
116.35201857008964,39.98619595981288,北京科技大学化学与生物工程学院,学院路30号北京科技大学,北京市,北京市,,科教文化服务;学校;高等院校,141201,B0FFFAHXKM,科教文化服务,学校,高等院校,
116.35110331498561,39.962620358495585,北京邮电大学研究生会,北太平庄街道西土城路10号北京邮电大学,北京市,北京市,,科教文化服务;学校;高等院校,141201,B0FFFAHT3O,科教文化服务,学校,高等院校,
116.34525829192681,39.991333851769696,中国地质大学土地科学技术学院,学院路29号中国地质大学(北京)内,北京市,北京市,五道口,科教文化服务;学校;高等院校,141201,B0FFFAH6JK,科教文化服务,学校,高等院校,
116.34525829192681,39.991333851769696,中国地质大学水资源与环境学院,学院路29号中国地质大学内,北京市,北京市,五道口,科教文化服务;学校;高等院校,141201,B0FFFAH44K,科教文化服务,学校,高等院校,
116.3445339561055,39.99003214971764,中国地质大学(北京)公共管理硕士(MPA)教育中心,学院路29号中国地质大学内,北京市,北京市,五道口,科教文化服务;学校;高等院校,141201,B0FFFAH0YQ,科教文化服务,学校,高等院校,
116.34959607886442,39.97167242063509,北京电影学院-大学科技园,西土城路4号,北京市,北京市,,科教文化服务;学校;高等院校,141201,B0FFFAGXDV,科教文化服务,学校,高等院校,
116.35269767383448,39.95967196773291,北京邮电大学离退休工作处,西土城路10号北京邮电大学,北京市,北京市,,科教文化服务;学校;高等院校,141201,B0FFFA8NTZ,科教文化服务,学校,高等院校,
116.3467678311255,39.96286544827041,中国政法大学法学院在职研究生招生办公室,西土城路25号,北京市,北京市,北下关,科教文化服务;学校;高等院校,141201,B0FFF5FDXO,科教文化服务,学校,高等院校,
116.36146045915198,39.96006331333973,北京师范大学-英特尔嵌入式技术联合实验室,新街口外大街19号,北京市,北京市,小西天,科教文化服务;学校;高等院校,141201,B0FFF5E9R1,科教文化服务,学校,高等院校,
116.36146045927934,39.96006231337919,北京师范大学-美国德州仪器数字信号处理方案实验室,新街口外大街19号北京师范大学,北京市,北京市,小西天,科教文化服务;学校;高等院校,141201,B0FFF59PMX,科教文化服务,学校,高等院校,
116.36146045927934,39.96006231337919,北京师范大学空间多源信息融合与分析实验室,新街口外大街19号,北京市,北京市,小西天,科教文化服务;学校;高等院校,141201,B0FFF59FS8,科教文化服务,学校,高等院校,
116.36146045927934,39.96006231337919,北京师范大学-英特尔多核技术实验室,新街口外大街19号北京师范大学,北京市,北京市,小西天,科教文化服务;学校;高等院校,141201,B0FFF57W5I,科教文化服务,学校,高等院校,
116.35109533027172,39.96262037120012,北京邮电大学学生会,西土城路10号北京邮电大学,北京市,北京市,,科教文化服务;学校;高等院校,141201,B000ABBXGY,科教文化服务,学校,高等院校,
116.36402552411981,39.960082020395014,北京师范大学励耘学苑,新街口外大街19号北京师范大学国际交流服务中心,北京市,北京市,小西天,科教文化服务;学校;高等院校,141201,B000AAAT1G,科教文化服务,学校,高等院校,
116.3516975362772,39.98338658089747,北京大学医学部安全技术防范监控中心,北四环中路辅路,北京市,北京市,,科教文化服务;学校;高等院校|公司企业;公司;公司,141201|170200,B000AA6ZDE,科教文化服务,学校,高等院校|公司企业,公司
116.3505160118715,39.98956020489761,北京科技大学现代教育技术中心,园丁西路与图书馆路交叉口东南100米北京科技大学档案馆,北京市,北京市,,科教文化服务;学校;高等院校,141201,B000AA4MIH,科教文化服务,学校,高等院校,
116.34525829192681,39.991333851769696,中国地质大学水资源与环境工程实验教学中心,学院路29号中国地质大学内,北京市,北京市,五道口,科教文化服务;学校;高等院校,141201,B000AA4LCX,科教文化服务,学校,高等院校,
116.34783018926025,39.990379556153066,北京科技大学国际工程教育中心,学院路30北京科技大学,北京市,北京市,,科教文化服务;学校;高等院校,141201,B000AA1Z2T,科教文化服务,学校,高等院校,
116.34608974852003,39.99005948976989,中国地质大学数理学院,学院路29号中国地质大学内,北京市,北京市,五道口,科教文化服务;学校;高等院校,141201,B000AA1YYK,科教文化服务,学校,高等院校,
116.35054211197088,39.98053353554056,北京大学医学部国内合作与产业管理办公室,学院路38号北京大学医学部,北京市,北京市,,科教文化服务;学校;高等院校,141201,B000AA1HN1,科教文化服务,学校,高等院校,
116.3554429678182,39.98858662385363,北京科技大学-体育运动委员会,学院路30号北京科技大学,北京市,北京市,,科教文化服务;学校;高等院校,141201,B000AA1BXP,科教文化服务,学校,高等院校,
116.35154038100394,39.98694768214316,北京科技大学钢铁冶金系,学院路30号北京科技大学,北京市,北京市,,科教文化服务;学校;高等院校,141201,B000AA11O3,科教文化服务,学校,高等院校,
116.35154038100394,39.98694768214316,北京科技大学生态科学与工程系,学院路30号北京科技大学,北京市,北京市,,科教文化服务;学校;高等院校,141201,B000AA11F7,科教文化服务,学校,高等院校,
116.34895367940403,39.96900957497748,北京电影学院动画学院,西土城路4号,北京市,北京市,,科教文化服务;学校;高等院校,141201,B000AA1193,科教文化服务,学校,高等院校,
116.34921538763219,39.99080525749085,北京科技大学机械工学系,学院路30号北京科技大学,北京市,北京市,,科教文化服务;学校;高等院校,141201,B000AA116S,科教文化服务,学校,高等院校,
116.35016339065969,39.9605459461382,北京邮电大学自动化学院,西土城路10号北京邮电大学,北京市,北京市,,科教文化服务;学校;高等院校,141201,B000AA0WNW,科教文化服务,学校,高等院校,
116.35177231077903,39.96049738337329,北京邮电大学人文学院,学院路街道西土城路10号,北京市,北京市,,科教文化服务;学校;高等院校,141201,B000AA0W43,科教文化服务,学校,高等院校,
116.35016339065969,39.9605459461382,北京邮电大学电子工程学院,西土城路10号北京邮电大学,北京市,北京市,,科教文化服务;学校;高等院校,141201,B000AA0W3V,科教文化服务,学校,高等院校,
116.3517713117813,39.960504384669974,北京邮电大学研究生院,西土城路10号北京邮电大学,北京市,北京市,,科教文化服务;学校;高等院校,141201,B000AA0VQG,科教文化服务,学校,高等院校,
116.34835517340694,39.990135697298435,北京科技大学人文素质教育中心,学院路街道学院路30号北京科技大学,北京市,北京市,,科教文化服务;学校;高等院校,141201,B000AA0VC8,科教文化服务,学校,高等院校,
116.35618007169977,39.96183161702419,北京师范大学化学学院,新街口外大街19号北京师范大学化学院,北京市,北京市,小西天,科教文化服务;学校;高等院校,141201,B000AA0VA8,科教文化服务,学校,高等院校,
116.34369483491551,39.9654386015556,中国政法大学研究生院,西土城路25号中国政法大学,北京市,北京市,北下关,科教文化服务;学校;高等院校,141201,B000AA0EZ1,科教文化服务,学校,高等院校,
116.34347230415003,39.965415989550394,中国政法大学博士后流动站,西土城路25号中国政法大学,北京市,北京市,北下关,科教文化服务;学校;高等院校,141201,B000A9VUT3,科教文化服务,学校,高等院校,
116.34282442814765,39.99088308480726,中国地质大学信息网络中心,学院路29号中国地质大学,北京市,北京市,五道口,科教文化服务;学校;高等院校,141201,B000A96GGJ,科教文化服务,学校,高等院校,
116.34282442814765,39.99088308480726,中国地质大学珠宝与矿物材料实验教学中心,学院路29号中国地质大学,北京市,北京市,五道口,科教文化服务;学校;高等院校,141201,B000A95CYO,科教文化服务,学校,高等院校,
116.34500625988335,39.98781643033967,中国地质大学材料学实验教学中心,学院路29号中国地质大学,北京市,北京市,五道口,科教文化服务;学校;高等院校,141201,B000A91SLP,科教文化服务,学校,高等院校,
116.35239227837559,39.982961507912144,北京大学医学部公共教学部,学院路38号北京大学医学部,北京市,北京市,,科教文化服务;学校;高等院校,141201,B000A8ZNXL,科教文化服务,学校,高等院校,
116.35108852304612,39.984756489500334,北京大学医学部生理学系,学院路38号北京大学医学部,北京市,北京市,,科教文化服务;学校;高等院校,141201,B000A8ZNTF,科教文化服务,学校,高等院校,
116.3503767400955,39.970262215843164,北京电影学院-表演学院,西土城路4号北京电影学院,北京市,北京市,,科教文化服务;学校;高等院校,141201,B000A8ZN0X,科教文化服务,学校,高等院校,
116.35108852304612,39.984756489500334,北京大学医学部药理学系,学院路38号北京大学医学部,北京市,北京市,,科教文化服务;学校;高等院校,141201,B000A8ZMX1,科教文化服务,学校,高等院校,
116.3493870333017,39.990940971954274,北京科技大学自动化学院,学院路30号北京科技大学,北京市,北京市,,科教文化服务;学校;高等院校,141201,B000A8ZI91,科教文化服务,学校,高等院校,
116.34634630033558,39.98947108023863,中国地质大学地质过程与矿产资源国家重点实验室(学院路),学院路29号(中国地质大学北京),北京市,北京市,五道口,科教文化服务;学校;高等院校|科教文化服务;科研机构;科研机构,141201|141300,B000A8ZHX5,科教文化服务,学校,高等院校|科教文化服务,科研机构
116.35687261874428,39.98723358063158,北京科技大学国际合作与交流处,学院路30号北京科技大学,北京市,北京市,,科教文化服务;学校;高等院校,141201,B000A8ZGM4,科教文化服务,学校,高等院校,
116.34783018926025,39.990379556153066,北京科技大学高等工程师学院,学院路30号北京科技大学,北京市,北京市,,科教文化服务;学校;高等院校,141201,B000A8WCH5,科教文化服务,学校,高等院校,
116.3445339561055,39.99003214971764,中国地质大学北京校区思想政治教育学院,学院路29号,北京市,北京市,五道口,科教文化服务;学校;高等院校,141201,B000A8WBTC,科教文化服务,学校,高等院校,
116.35687717395426,39.99065643131443,北京科技大学离退休干部党委,学院路30号北京科技大学,北京市,北京市,,科教文化服务;学校;高等院校,141201,B000A8WB5O,科教文化服务,学校,高等院校,
116.35687717395426,39.99065643131443,北京科技大学离退休干部处,学院路30号(小学校旁边),北京市,北京市,,科教文化服务;学校;高等院校,141201,B000A8W916,科教文化服务,学校,高等院校,
116.348745452548,39.98972007226583,北京科技大学数理学院,学院路30号北京科技大学,北京市,北京市,,科教文化服务;学校;高等院校,141201,B000A8VUV4,科教文化服务,学校,高等院校,
116.35116177423951,39.981685499092094,北京大学医学部病理学系,学院路38号北京大学医学部,北京市,北京市,,科教文化服务;学校;高等院校,141201,B000A8VUTA,科教文化服务,学校,高等院校,
116.35115678416913,39.98168250714762,北京大学医学部微生物学系,学院路38号北京大学医学部,北京市,北京市,,科教文化服务;学校;高等院校,141201,B000A8VUQ8,科教文化服务,学校,高等院校,
116.34867667638592,39.98118253796139,北京大学医学部公共卫生学院,学院路38号北京大学医学部,北京市,北京市,,科教文化服务;学校;高等院校,141201,B000A8VUJG,科教文化服务,学校,高等院校,
116.34811261709494,39.99044308526085,北京科技大学马克思主义学院,学院路30号北京科技大学,北京市,北京市,,科教文化服务;学校;高等院校,141201,B000A8VQLU,科教文化服务,学校,高等院校,
116.34864097675592,39.97152698731553,北京电影学院-逸夫影视艺术中心,西土城路4号,北京市,北京市,,科教文化服务;学校;高等院校,141201,B000A8VPL7,科教文化服务,学校,高等院校,
116.3563678284094,39.96114836894689,北京师范大学田家炳艺术教育书院,新街口外大街19号,北京市,北京市,小西天,科教文化服务;学校;高等院校,141201,B000A85HYK,科教文化服务,学校,高等院校,
116.3563678284094,39.96114836894689,北京师范大学艺术与传媒学院,新街口外大街19号,北京市,北京市,小西天,科教文化服务;学校;高等院校,141201,B000A85CTZ,科教文化服务,学校,高等院校,
116.3563678284094,39.96114836894689,北京师范大学艺术学理论博士后科研流动站,新街口外大街19号,北京市,北京市,小西天,科教文化服务;学校;高等院校,141201,B000A85CTY,科教文化服务,学校,高等院校,
116.35728416050172,39.96171301683536,北京师范大学地理学与遥感科学学院,北太平庄街道新街口外大街19号,北京市,北京市,小西天,科教文化服务;学校;高等院校,141201,B000A85CTV,科教文化服务,学校,高等院校,
116.34524243627715,39.990456915683495,中国地质大学地球科学与资源学院,学院路29号中国地质大学内,北京市,北京市,五道口,科教文化服务;学校;高等院校,141201,B000A84MKR,科教文化服务,学校,高等院校,
116.34969277192563,39.988296585561244,北京科技大学材料科学与工程学院,学院路30号北京科技大学,北京市,北京市,,科教文化服务;学校;高等院校,141201,B000A84JJY,科教文化服务,学校,高等院校,
116.34838302860453,39.990837621929785,北京科技大学土木与资源工程学院,学院路30号北京科技大学,北京市,北京市,,科教文化服务;学校;高等院校,141201,B000A84J9O,科教文化服务,学校,高等院校,
116.3581147305668,39.96177082863527,北京师范大学生命科学学院,新街口外大街19号北京师范大学c座,北京市,北京市,小西天,科教文化服务;学校;高等院校,141201,B000A83LZ5,科教文化服务,学校,高等院校,
116.35851311825971,39.961286285673175,北京师范大学环境学院,新街口外大街19号,北京市,北京市,小西天,科教文化服务;学校;高等院校,141201,B000A8363Q,科教文化服务,学校,高等院校,
116.34282442814765,39.99088308480726,中国地质大学北京校区珠宝学院,学院路29号中国地质大学内,北京市,北京市,五道口,科教文化服务;学校;高等院校,141201,B000A82ZE0,科教文化服务,学校,高等院校,
116.34500625988335,39.98781643033967,中国地质大学材料科学与工程学院,学院路29号中国地质大学,北京市,北京市,五道口,科教文化服务;学校;高等院校,141201,B000A81F33,科教文化服务,学校,高等院校,
116.35123030755004,39.960771230004624,北京邮电大学学生勤工助学中心,西土城路10号北京邮电大学,北京市,北京市,,科教文化服务;学校;高等院校,141201,B000A80BC1,科教文化服务,学校,高等院校,
116.35991483215565,39.96095535575279,北京师范大学审计处,新街口外大街19号,北京市,北京市,小西天,科教文化服务;学校;高等院校,141201,B000A80A1H,科教文化服务,学校,高等院校,
116.35991483215565,39.96095535575279,北京师范大学财经处,新街口外大街19号北京师范大学,北京市,北京市,小西天,科教文化服务;学校;高等院校,141201,B000A80A1G,科教文化服务,学校,高等院校,
116.35687261874428,39.98723358063158,北京科技大学港澳台办公室,学子东路北京科技大学,北京市,北京市,,科教文化服务;学校;高等院校,141201,B000A7Z0QJ,科教文化服务,学校,高等院校,
116.34539932980671,39.988755718677545,中国地质大学地球物理与信息技术学院,学院路29号中国地质大学,北京市,北京市,五道口,科教文化服务;学校;高等院校,141201,B000A7XL5M,科教文化服务,学校,高等院校,
116.3568676275597,39.987232587909574,北京科技大学日本北海道大学国际交流办公室,学子东路北京科技大学,北京市,北京市,,科教文化服务;学校;高等院校,141201,B000A7X37W,科教文化服务,学校,高等院校,
116.3445339561055,39.99003214971764,中国地质大学(北京)经济管理学院,学院路29号中国地质大学教4楼,北京市,北京市,五道口,科教文化服务;学校;高等院校,141201,B000A7X376,科教文化服务,学校,高等院校,
116.37767139166489,39.93485715816177,北京师范大学北校区,定阜街1,北京市,北京市,,科教文化服务;学校;高等院校,141201,B000A80HO9,科教文化服务,学校,高等院校,
116.36948132638338,39.94201542280838,北京大学第四临床医学院,新街口东街31号,北京市,北京市,积水潭,科教文化服务;学校;高等院校,141201,B000A163CF,科教文化服务,学校,高等院校,
116.36214688715454,39.940423191761056,北京市西城区教育研修学院,新街口东新开胡同67号,北京市,北京市,西直门,科教文化服务;学校;高等院校,141201,B000A7QRHH,科教文化服务,学校,高等院校,
116.35809186293298,39.93749582489928,中国人民大学网络(学历)教育,南草厂街22号北京市西城经济学大学远程教育部2层203-204室,北京市,北京市,西直门,科教文化服务;学校;高等院校|科教文化服务;学校;成人教育,141201|141205,B0FFFAI8V1,科教文化服务,学校,高等院校|科教文化服务,学校
116.3583713888664,39.93749942965611,北京市西城经济科学大学(柳巷),南草厂22号,北京市,北京市,西直门,科教文化服务;学校;高等院校,141201,B0FFG9S4B7,科教文化服务,学校,高等院校,
116.35662663843374,39.93553100930738,黄城根小学-北京开放大学,后广平胡同与南草厂街交叉路口往西约50米,北京市,北京市,西直门,科教文化服务;学校;高等院校,141201,B0FFL8GDMY,科教文化服务,学校,高等院校,
116.36613049038485,39.952212781685574,北京市西城区现代管理培训学校(朝阳校区),新街口外大街28号院,北京市,北京市,德胜门,科教文化服务;学校;高等院校|科教文化服务;培训机构;培训机构,141201|141400,B000A7BZM5,科教文化服务,学校,高等院校|科教文化服务,培训机构
116.36119316054248,39.957887753871084,北京师范大学物理学系,新街口外大街19号北京师范大学,北京市,北京市,小西天,科教文化服务;学校;高等院校,141201,B000A85CTB,科教文化服务,学校,高等院校,
116.3737708242005,39.9223299621505,天津大学在职工程硕士研究生北京教学中心,西什库大街74号,北京市,北京市,,科教文化服务;学校;高等院校,141201,B000A7X7YY,科教文化服务,学校,高等院校,
116.36119316054248,39.957887753871084,北京师范大学天文学系,新街口外大街19号北京师范大学,北京市,北京市,小西天,科教文化服务;学校;高等院校,141201,B000A85CS4,科教文化服务,学校,高等院校,
116.377937174118,39.93471896005313,北京师范大学网络教育学院直属辅仁学习中心,定阜街1号,北京市,北京市,,科教文化服务;学校;高等院校,141201,B000A81JBI,科教文化服务,学校,高等院校,
116.35727794430319,39.955648266034615,北京师范大学(南院),学院路街道学院南路12号,北京市,北京市,小西天,科教文化服务;学校;高等院校,141201,B0FFFAIPBR,科教文化服务,学校,高等院校,
116.37056878606676,39.95136091200648,首都医科大学临床护理学院安定护理学系,安康胡同5号,北京市,北京市,德胜门,科教文化服务;学校;高等院校,141201,B000AA1C6P,科教文化服务,学校,高等院校,
116.36772436319194,39.95178296229968,北京邮电大学自学考试办公室,德胜街道新街口外大街28号,北京市,北京市,德胜门,科教文化服务;学校;高等院校,141201,B000A80B1Y,科教文化服务,学校,高等院校,
116.35352177923278,39.938970516681394,西城区教育考试中心义务教育招生办公室,西直门内大街186号,北京市,北京市,西直门,科教文化服务;学校;高等院校|生活服务;生活服务场所;生活服务场所,141201|070000,B0FFHKDYYT,科教文化服务,学校,高等院校|生活服务,生活服务场所
116.3578395293145,39.91206923189439,建行大学,太平桥大街96号,北京市,北京市,,科教文化服务;学校;高等院校,141201,B0FFLMZWER,科教文化服务,学校,高等院校,
116.37056878606676,39.95136091200648,首都医科大学临床心理学系,安康胡同5号,北京市,北京市,德胜门,科教文化服务;学校;高等院校,141201,B000A85EOI,科教文化服务,学校,高等院校,
116.36113013930104,39.95884079999165,北京师范大学数学科学学院,新街口外大街19号北京师范大学,北京市,北京市,小西天,科教文化服务;学校;高等院校,141201,B000A82ZIS,科教文化服务,学校,高等院校,
116.36086360160687,39.95855516723379,京师大学堂师范馆,新街口外大街19号,北京市,北京市,小西天,科教文化服务;学校;高等院校,141201,B0FFF38RCB,科教文化服务,学校,高等院校,
116.34862468466255,39.91116445540255,首都医科大学儿科系,南礼士路56附近,北京市,北京市,复兴门,科教文化服务;学校;高等院校,141201,B0FFG72WHM,科教文化服务,学校,高等院校,
116.35953492829587,39.95725502350857,北京师范大学家教部,学院南路,北京市,北京市,小西天,科教文化服务;学校;高等院校,141201,B0FFGWJJYG,科教文化服务,学校,高等院校,
116.35757804745259,39.9586307172616,北京师范大学学生会,北太平庄街道新街口外大街19号,北京市,北京市,小西天,科教文化服务;学校;高等院校,141201,B0FFG8VTZC,科教文化服务,学校,高等院校,
116.36379401196076,39.95896035375166,北京师范大学瀚德学院,新街口外大街19号北京师范大学,北京市,北京市,小西天,科教文化服务;学校;高等院校,141201,B0FFFEFJ4T,科教文化服务,学校,高等院校,
116.35354575919605,39.93878048749058,西城区教育考试中心普通高等学校招生办公室,西直门内大街186号,北京市,北京市,西直门,科教文化服务;学校;高等院校|生活服务;生活服务场所;生活服务场所,141201|070000,B000AA1BBD,科教文化服务,学校,高等院校|生活服务,生活服务场所
116.35959582064129,39.957311937444,北京师范大学学生资助管理中心,新街口外大街19号北京师范大学,北京市,北京市,小西天,科教文化服务;学校;高等院校,141201,B0FFF2HU0R,科教文化服务,学校,高等院校,
116.36261588400002,39.95828487626061,北京师范大学前主楼,新街口外大街北京师范大学内,北京市,北京市,小西天,科教文化服务;学校;高等院校,141201,B0FFGTFCM1,科教文化服务,学校,高等院校,
116.34691730027328,39.941071062011524,蓝山学院(凯德MALL·西直门),西直门外大街1号凯德MALL-西直门B,北京市,北京市,展览路,科教文化服务;学校;高等院校,141201,B0FFIALMZK,科教文化服务,学校,高等院校,
116.35950198279126,39.957254068935754,北京师范大学信息网络中心,新街口外大街19北京师范大学,北京市,北京市,小西天,科教文化服务;学校;高等院校,141201,B0FFFEFJLW,科教文化服务,学校,高等院校,
116.35329361994816,39.95924106270033,北京邮电大学体育部,西土城路10号北京邮电大学,北京市,北京市,,科教文化服务;学校;高等院校,141201,B0FFFEFJJ0,科教文化服务,学校,高等院校,
116.35715688259853,39.9577743562904,北京师范大学后勤商贸中心,[],北京市,北京市,小西天,科教文化服务;学校;高等院校|生活服务;生活服务场所;生活服务场所,141201|070000,B0FFH1ZUTW,科教文化服务,学校,高等院校|生活服务,生活服务场所
116.3548939790553,39.95701171733993,北京邮电大学马克思主义学院,学院南路与杏坛路交叉口西北50米,北京市,北京市,,科教文化服务;学校;高等院校,141201,B0FFKUQKG9,科教文化服务,学校,高等院校,
116.35004181089498,39.9590991996295,北京邮电大学学术报告厅,西土城路10号北京邮电大学教三楼1层135-136,北京市,北京市,,科教文化服务;学校;高等院校,141201,B0FFFEFIJ9,科教文化服务,学校,高等院校,
116.35014861231325,39.95903003006031,北京邮电大学教学楼3号楼,西土城路10号北京邮电大学,北京市,北京市,,科教文化服务;学校;高等院校,141201,B000ABBX4V,科教文化服务,学校,高等院校,
116.36381519596814,39.95727039413772,北京师范大学国际交流与合作处留学生办公室,北太平庄街道新街口外大街19号,北京市,北京市,小西天,科教文化服务;学校;高等院校,141201,B000A68DFF,科教文化服务,学校,高等院校,
116.35966571348197,39.95724984383113,北京师范大学信息网络综合服务大厅,新街口外大街19号,北京市,北京市,小西天,科教文化服务;学校;高等院校|生活服务;生活服务场所;生活服务场所,141201|070000,B0FFLNAOI8,科教文化服务,学校,高等院校|生活服务,生活服务场所
116.36381519596814,39.95727039413772,北京师范大学经济与工商管理学院MBA教育中心,新街口外大街19号京师大厦4层9403-9408,北京市,北京市,小西天,科教文化服务;学校;高等院校,141201,B0FFFEFKBQ,科教文化服务,学校,高等院校,
116.36381519596814,39.95727039413772,北京师范大学经济与工商管理学院京师大厦办公区,新街口外大街19号,北京市,北京市,小西天,科教文化服务;学校;高等院校,141201,B0FFFEFKBP,科教文化服务,学校,高等院校,
116.36381519596814,39.95727039413772,北京师范大学对外联络办公室(教育基金会),新街口外大街19号京师大厦9层9902-9905,北京市,北京市,小西天,科教文化服务;学校;高等院校,141201,B000A8XES6,科教文化服务,学校,高等院校,
116.36113013930104,39.95884079999165,北京数学奥林匹克学校,新街口外大街19号北京师范大学,北京市,北京市,小西天,科教文化服务;学校;高等院校,141201,B000AA0W63,科教文化服务,学校,高等院校,
116.35287538722694,39.959317705913634,北京邮电大学校园网核心机房,[],北京市,北京市,,科教文化服务;学校;高等院校,141201,B0FFLMBMU3,科教文化服务,学校,高等院校,
116.35197110578493,39.95915212387547,北京邮电大学数字媒体与设计艺术学院,土城路10号北京邮电大学,北京市,北京市,,科教文化服务;学校;高等院校,141201,B0FFF5WC0C,科教文化服务,学校,高等院校,
116.36233216468698,39.959517193954746,北京师范大学教育部科技查新工作站,[],北京市,北京市,小西天,科教文化服务;学校;高等院校,141201,B0FFJS1RA7,科教文化服务,学校,高等院校,
116.35003781865218,39.959099206075024,北京邮电大学现代邮政学院,西土城路10号北京邮电大学内,北京市,北京市,,科教文化服务;学校;高等院校,141201,B0FFH1YNOR,科教文化服务,学校,高等院校,
116.35004181089498,39.9590991996295,北京邮电大学国际学院办公室,西土城路10号北京邮电大学教三楼4层410,北京市,北京市,,科教文化服务;学校;高等院校,141201,B0FFFEFIJF,科教文化服务,学校,高等院校,
116.35182837429632,39.95916434790357,北京邮电大学信息与通信工程学院,西土城路10号北京邮电大学,北京市,北京市,,科教文化服务;学校;高等院校,141201,B0FFFEFJQW,科教文化服务,学校,高等院校,
116.36236312976536,39.95941515788005,中国高校人文社会科学文献中心学科中心,新街口外大街19号,北京市,北京市,小西天,科教文化服务;学校;高等院校,141201,B0FFGZSJ4J,科教文化服务,学校,高等院校,
116.3528195364566,39.958963806553086,北京邮电大学可信网络通信协同创新中心,西土城路10号北京邮电大学,北京市,北京市,,科教文化服务;学校;高等院校,141201,B0FFG8VUU2,科教文化服务,学校,高等院校,
116.35004181089498,39.9590991996295,北京邮电大学电信工程学院办公室,西土城路10号北京邮电大学教三楼7层712、739,北京市,北京市,,科教文化服务;学校;高等院校,141201,B0FFFEFIJG,科教文化服务,学校,高等院校,
116.35004181089498,39.9590991996295,北京邮电大学电信工程学院教研室,西土城路10号北京邮电大学教三楼3层310,北京市,北京市,,科教文化服务;学校;高等院校,141201,B0FFFEFIJD,科教文化服务,学校,高等院校,
116.35004181089498,39.9590991996295,北京邮电大学计算机科学与技术学院,西土城路10号北京邮电大学,北京市,北京市,,科教文化服务;学校;高等院校,141201,B0FFFEFJIO,科教文化服务,学校,高等院校,
116.36236312976536,39.95941515788005,北京地区高校图书馆文献资源保障体系(BALIS)原文传递中心学科服务馆,新街口外大街19号,北京市,北京市,小西天,科教文化服务;学校;高等院校,141201,B0FFGZSJ4R,科教文化服务,学校,高等院校,
116.36404886539223,39.95713610798369,北京师大铭师教育科技中心,新街口外大街19号京师大厦9415A单元,北京市,北京市,小西天,科教文化服务;学校;高等院校,141201,B0FFFWEV3W,科教文化服务,学校,高等院校,
116.36243604611876,39.95918707256156,北京师范大学文学院,新街口外大街19号,北京市,北京市,小西天,科教文化服务;学校;高等院校,141201,B0FFIMCYSS,科教文化服务,学校,高等院校,
116.35004181089498,39.9590991996295,北京邮电大学信息网络中心电话管理办公室,西土城路10号北京邮电大学教三楼2层226,北京市,北京市,,科教文化服务;学校;高等院校,141201,B0FFFEFIJC,科教文化服务,学校,高等院校,
116.35004181089498,39.9590991996295,北京邮电大学信息网络中心多媒体教室办公室,西土城路10号北京邮电大学教三楼2层227,北京市,北京市,,科教文化服务;学校;高等院校,141201,B0FFFEFIJA,科教文化服务,学校,高等院校,
116.36345344961133,39.9595337590766,北京师范大学校长培训学院,新街口外大街19号北京师范大学,北京市,北京市,小西天,科教文化服务;学校;高等院校|科教文化服务;培训机构;培训机构,141201|141400,B0FFFAID1O,科教文化服务,学校,高等院校|科教文化服务,培训机构
116.36381519596814,39.95727039413772,北京师范大学中国易学文化研究院综合办公室,新街口外大街19号京师大厦8层9810,北京市,北京市,小西天,科教文化服务;学校;高等院校,141201,B0FFFEFJIK,科教文化服务,学校,高等院校,
116.36381519596814,39.95727039413772,北京师范大学国际学术交流中心行政办公区,新街口外大街19号京师大厦4层9400,北京市,北京市,小西天,科教文化服务;学校;高等院校,141201,B000A7ZS82,科教文化服务,学校,高等院校,
116.36113013930104,39.95884079999165,北京师范大学教8楼,新街口外大街19号北京师范大学,北京市,北京市,小西天,科教文化服务;学校;高等院校,141201,B000AA0WDP,科教文化服务,学校,高等院校,
116.36381519596814,39.95727039413772,北京师范大学经济与工商管理学院培训中心校友办公室,新街口外大街19号京师大厦4层9409,北京市,北京市,小西天,科教文化服务;学校;高等院校,141201,B0FFFEFKBU,科教文化服务,学校,高等院校,
116.36246608393358,39.95852705987438,北京师范大学政府管理学院,新街口外大街19号北京师范大学主楼A区5层,北京市,北京市,小西天,科教文化服务;学校;高等院校,141201,B0FFFDFVEC,科教文化服务,学校,高等院校,
116.36381519596814,39.95727039413772,北京师范大学国内合作办公室,新街口外大街19号,北京市,北京市,小西天,科教文化服务;学校;高等院校,141201,B000A9FBPH,科教文化服务,学校,高等院校,
116.36006393467312,39.95824125984782,北京师范大学东楼,新街口外大街19号北京师范大学,北京市,北京市,小西天,科教文化服务;学校;高等院校,141201,B000A9PS9X,科教文化服务,学校,高等院校,
116.36381519596814,39.95727039413772,北京师范大学国培计划中小学骨干教师培训项目执行办公室,新街口外大街19号京师大厦11层1106,北京市,北京市,小西天,科教文化服务;学校;高等院校,141201,B000A9FBSM,科教文化服务,学校,高等院校,
116.35329997768208,39.90131243501271,中央音乐学院,鲍家街43号,北京市,北京市,西便门,科教文化服务;学校;高等院校,141201,B000A84APP,科教文化服务,学校,高等院校,
116.35631299976109,39.88983843096471,首都医科大学-生物医学工程学院,长椿街45号院-4,北京市,北京市,广内大街,科教文化服务;学校;高等院校,141201,B000A599F2,科教文化服务,学校,高等院校,
116.35702268801217,39.89041437101957,首都医科大学护理学院,长椿街45号首都医科大学宣武医院东,北京市,北京市,广内大街,科教文化服务;学校;高等院校,141201,B000A49D59,科教文化服务,学校,高等院校,
116.36280988731691,39.89312634093926,中国中医科学院中医药科技合作中心,校场小七条30号附近,北京市,北京市,,科教文化服务;学校;高等院校,141201,B0FFF4SLU8,科教文化服务,学校,高等院校,
116.35701270214703,39.89043938429136,首都医科大学第一临床医学院,长椿街45号院-4,北京市,北京市,广内大街,科教文化服务;学校;高等院校,141201,B000A144D2,科教文化服务,学校,高等院校,
116.36598798499412,39.88711670437208,兰州大学驻北京办事处,广安门内大街6号枫桦豪景A-3-1201,北京市,北京市,广内大街,科教文化服务;学校;高等院校,141201,B000A7PSZ7,科教文化服务,学校,高等院校,
116.35050188888849,39.89641505664068,国家食品药品监督管理总局高级研修学院,宣武门西大街26号院,北京市,北京市,西便门,科教文化服务;学校;高等院校,141201,B0FFIAMK87,科教文化服务,学校,高等院校,
