lon,lat,name,address,pname,cityname,business_area,type,typecode,id,type1,type2,type3,type4
116.08368849501402,40.0941454235772,山泉水石磨卤水豆腐,龙泉寺南路,北京市,北京市,,购物服务;综合市场;农副产品市场,060703,B0FFL6FVNO,购物服务,综合市场,农副产品市场,
116.08484439791951,40.09502195570501,苏家坨镇便民菜店,龙泉寺南路,北京市,北京市,,购物服务;综合市场;蔬菜市场,060705,B0FFL6FVXN,购物服务,综合市场,蔬菜市场,
116.04999513810395,39.97341660687621,乐客蔬菜养殖果园,妙峰山镇陇驾庄村,北京市,北京市,,购物服务;综合市场;农副产品市场,060703,B0FFJ0APB3,购物服务,综合市场,农副产品市场,
116.04755777937402,39.974510158973715,蔬果店,[],北京市,北京市,,购物服务;综合市场;蔬菜市场,060705,B0G09ANXME,购物服务,综合市场,蔬菜市场,
116.08721234501859,39.9968677664743,内蒙牧野锡元精品牛羊肉,北大街与南大街交叉口东南50米,北京市,北京市,军庄镇,购物服务;综合市场;农副产品市场,060703,B0FFKUXNN4,购物服务,综合市场,农副产品市场,
116.06318930088825,39.93699633802427,康依家生鲜社区便利(西山楼店),石巷路西山楼小区14号楼,北京市,北京市,东辛房村,购物服务;综合市场;农副产品市场,060703,B0FFHC96JZ,购物服务,综合市场,农副产品市场,
116.07784590713173,39.93668217802564,精品水果批发,东辛房东街164附近,北京市,北京市,门头沟,购物服务;综合市场;果品市场,060704,B0FFL50A87,购物服务,综合市场,果品市场,
116.08033801080563,39.93033098100032,果蔬便民超市,中门寺街67号院4号楼附近,北京市,北京市,门头沟,购物服务;综合市场;果品市场,060704,B0G33UYC78,购物服务,综合市场,果品市场,
116.07936630143584,39.92989853090987,鸿福立果蔬便民连锁超市,中门花园39号院,北京市,北京市,门头沟,购物服务;综合市场;果品市场,060704,B0FFL6AIHB,购物服务,综合市场,果品市场,
116.08422257346065,39.930666263625824,鲜果多大卖场,龙泉镇中门寺南坡回迁安置小区13号楼,北京市,北京市,门头沟,购物服务;综合市场;果品市场,060704,B0GK7X4HCB,购物服务,综合市场,果品市场,
116.0869778031203,39.93858514963097,康依家生鲜社区店,惠民家园二区23号楼1层101-2号,北京市,北京市,大峪村,购物服务;综合市场;蔬菜市场,060705,B0FFJ2JX4Y,购物服务,综合市场,蔬菜市场,
116.09052598137566,39.93686168779264,壹公里,黑山大街36号,北京市,北京市,门头沟,购物服务;综合市场;果品市场,060704,B0FFL0DTCU,购物服务,综合市场,果品市场,
116.08679378049344,39.938527194663195,新鲜就近社区店,黑山大街与增产路交叉口西南200米路南,北京市,北京市,大峪村,购物服务;综合市场;农副产品市场,060703,B0FFKHFMLJ,购物服务,综合市场,农副产品市场,
116.0885511436776,39.93854984713456,内蒙古牛羊肉,惠民家园二区26号楼底商,北京市,北京市,门头沟,购物服务;综合市场;农副产品市场|购物服务;专卖店;专营店,060703|061200,B0FFM22XWR,购物服务,综合市场,农副产品市场|购物服务,专卖店
116.08319496449734,39.943337144519944,王记清真鲜牛羊肉店,安民西路与门头沟北路交叉口西50米,北京市,北京市,龙泉,购物服务;综合市场;农副产品市场,060703,B0FFGJR85G,购物服务,综合市场,农副产品市场,
116.08443060675836,39.938215890187756,门头沟农副产品集散中心,增产路43号,北京市,北京市,门头沟,购物服务;综合市场;农副产品市场,060703,B000A85V59,购物服务,综合市场,农副产品市场,
116.08770669324979,39.93273222816734,康依家生鲜社区服务便民菜站,龙泉镇坡头新村66号,北京市,北京市,门头沟,购物服务;综合市场;蔬菜市场,060705,B0FFHC4WOI,购物服务,综合市场,蔬菜市场,
116.09063814939532,39.93587971912447,内蒙草原鲜牛羊肉专卖,大峪街道黑山大街13号楼底商,北京市,北京市,门头沟,购物服务;综合市场;农副产品市场,060703,B0FFH2TEFY,购物服务,综合市场,农副产品市场,
116.0866688922382,39.94528795769594,康依家生鲜(二斜井店),二斜井7号楼一楼,北京市,北京市,龙泉,购物服务;综合市场;农副产品市场,060703,B0FFHLM1E0,购物服务,综合市场,农副产品市场,
116.09159154563112,39.90462496907002,老磨坊豆腐,冯万路与西北环线交叉口西100米,北京市,北京市,永定,购物服务;综合市场;农副产品市场,060703,B0FFHC4VSC,购物服务,综合市场,农副产品市场,
116.0902327013146,39.90705893732958,清真牛肉羊肉羊肉片,西北环线附近,北京市,北京市,永定,购物服务;综合市场;农副产品市场,060703,B0FFHC52XW,购物服务,综合市场,农副产品市场,
116.13381069967967,40.13416216366445,大都苏尼特肉业,阳坊龙泉居(北京阳坊大都饭店南),北京市,北京市,阳坊村,购物服务;综合市场;农副产品市场,060703,B0FFFV369R,购物服务,综合市场,农副产品市场,
116.13792201576055,40.13893997163319,新鲜水果(阳坊店),中顺街与阳坊村西大街交叉口西100米,北京市,北京市,阳坊村,购物服务;综合市场;果品市场,060704,B0FFHYLJQB,购物服务,综合市场,果品市场,
116.13482788962212,40.135885513576255,阿利果庄园,S218(温南路),北京市,北京市,阳坊,购物服务;综合市场;果品市场,060704,B0FFL4QJUG,购物服务,综合市场,果品市场,
116.13488095821272,40.13633754936904,好运水果店,S218(温南路),北京市,北京市,阳坊村,购物服务;综合市场;果品市场,060704,B0FFL36I8P,购物服务,综合市场,果品市场,
116.1349541153308,40.136474646093376,小张水果店,S218(温南路),北京市,北京市,阳坊,购物服务;综合市场;果品市场,060704,B0FFL6QA93,购物服务,综合市场,果品市场,
116.13545639638326,40.135873463823714,水果店(阳坊西贯市商业街店),阳坊镇西贯市场,北京市,北京市,阳坊,购物服务;综合市场;果品市场,060704,B0FFHSPL3S,购物服务,综合市场,果品市场,
116.13493606154144,40.13655761081829,鲜牛羊肉,S218(温南路),北京市,北京市,阳坊村,购物服务;综合市场;农副产品市场,060703,B0G3UY08QS,购物服务,综合市场,农副产品市场,
116.13732379116085,40.136994226965406,李记清真牛羊肉食品,阳坊镇西贯市村西河滩北街27号,北京市,北京市,阳坊村,购物服务;综合市场;农副产品市场|购物服务;专卖店;专营店,060703|061200,B0G3L1J7IE,购物服务,综合市场,农副产品市场|购物服务,专卖店
116.13708826822975,40.13656690221272,大又甜水果店,S218(温南路),北京市,北京市,阳坊,购物服务;综合市场;果品市场,060704,B0FFLEX6X2,购物服务,综合市场,果品市场,
116.13536211916454,40.1362682824693,便民粮油,S218(温南路),北京市,北京市,阳坊,购物服务;综合市场;农副产品市场,060703,B0FFFV67TY,购物服务,综合市场,农副产品市场,
116.13581583857696,40.139173686551544,阳坊世广粮油,阳坊村西大街(怡然乡村酒店东南侧约200米),北京市,北京市,阳坊村,购物服务;综合市场;农副产品市场,060703,B0HG0BU43Z,购物服务,综合市场,农副产品市场,
116.1376302826709,40.139040504112394,北京第五肉联厂直销店,阳坊村西大街43号附近,北京市,北京市,阳坊村,购物服务;综合市场;农副产品市场,060703,B0FFFWBB7T,购物服务,综合市场,农副产品市场,
116.13740705183932,40.136557399511595,老兵批发城,西河滩街与村北街交叉口南50米,北京市,北京市,阳坊,购物服务;便民商店/便利店;便民商店/便利店|购物服务;综合市场;综合市场,060200|060700,B000A8XRW1,购物服务,便民商店/便利店,便民商店/便利店|购物服务,综合市场
116.14057100619054,40.1362084746846,张记批零床上用品,阳东路,北京市,北京市,阳坊村,购物服务;综合市场;农副产品市场,060703,B0G21642WT,购物服务,综合市场,农副产品市场,
116.11995610857672,40.11284718080581,绿林深处鲜果园,苏家坨梁家园路杨光果园东行100米路北,北京市,北京市,,购物服务;综合市场;农副产品市场,060703,B0GRHKNNY0,购物服务,综合市场,农副产品市场,
116.11121290344315,40.11033321565004,苏家坨镇便民菜店,聂各庄路18号,北京市,北京市,,购物服务;综合市场;蔬菜市场,060705,B0FFHENOJX,购物服务,综合市场,蔬菜市场,
116.1411500770304,40.115947266246216,苏家坨镇便民菜店,[],北京市,北京市,,购物服务;综合市场;蔬菜市场,060705,B0FFL6FVKN,购物服务,综合市场,蔬菜市场,
116.1417378646995,40.11373541813019,苏家坨镇便民菜店,前沙涧路与苏家坨北路交叉口北200米,北京市,北京市,,购物服务;综合市场;蔬菜市场,060705,B0FFJKNQJU,购物服务,综合市场,蔬菜市场,
116.11435088276968,40.07804922620238,瑞果嘉品水果超市,[],北京市,北京市,,购物服务;综合市场;果品市场,060704,B0G0RRCMAS,购物服务,综合市场,果品市场,
116.11454633824835,40.076958473391876,便民蔬菜水果超市,北安河路47号附近,北京市,北京市,,购物服务;综合市场;蔬菜市场,060705,B0FFL6B97P,购物服务,综合市场,蔬菜市场,
116.11404161895473,40.07625506998608,蔬果庄园,北安河路(亲亲宝贝幼儿早教基地东北侧约150米),北京市,北京市,,购物服务;综合市场;蔬菜市场,060705,B0FFIV6ZU8,购物服务,综合市场,蔬菜市场,
116.11419775826403,40.077109152010976,平价冷鲜肉店,北安河路(隆盛福安大卖场南侧约50米),北京市,北京市,,购物服务;综合市场;农副产品市场,060703,B0GRHYPVEI,购物服务,综合市场,农副产品市场,
116.11456232752344,40.077242469082826,大红门第五肉联厂诚信鲜肉店,北安河路,北京市,北京市,,购物服务;综合市场;农副产品市场,060703,B0FFL5WEQ9,购物服务,综合市场,农副产品市场,
116.11413989522438,40.07532721738138,山东豪康面粉(北京总代理),北安河路东50米,北京市,北京市,,购物服务;综合市场;农副产品市场|公司企业;公司;公司,060703|170200,B0FFLAL1R2,购物服务,综合市场,农副产品市场|公司企业,公司
116.11210674828372,40.098556857289694,金阳万物,苏家坨镇聂各庄村,北京市,北京市,,购物服务;综合市场;果品市场,060704,B0FFG84IDY,购物服务,综合市场,果品市场,
116.11268255310817,40.09909129004405,苏家坨镇便民菜店,苏家坨镇聂各庄东路10号,北京市,北京市,,购物服务;综合市场;蔬菜市场,060705,B0FFID8BGV,购物服务,综合市场,蔬菜市场,
116.11205259004923,40.09915276802226,水果超市,聂各庄路41东70米,北京市,北京市,,购物服务;综合市场;果品市场,060704,B0FFIW1O6Z,购物服务,综合市场,果品市场,
116.13775921551888,40.07962958070041,苏家坨公益果蔬超市,柳林路与苏家坨西路交叉口东100米,北京市,北京市,,购物服务;综合市场;果品市场|购物服务;综合市场;蔬菜市场,060704|060705,B0FFG8WGPZ,购物服务,综合市场,果品市场|购物服务,综合市场
116.12293463525003,40.098658684007944,瑶瑶果园,苏家坨镇聂各庄东路,北京市,北京市,,体育休闲服务;休闲场所;采摘园|购物服务;综合市场;果品市场,080503|060704,B0FFJKNTED,体育休闲服务,休闲场所,采摘园|购物服务,综合市场
116.12379831900807,40.0989326930112,萌芽鲜生,聂各庄东路,北京市,北京市,,购物服务;综合市场;农副产品市场|购物服务;专卖店;专营店,060703|061200,B0HB1CFT0Z,购物服务,综合市场,农副产品市场|购物服务,专卖店
116.12484832175383,40.06878305448404,安河家园便民市场,通元路(安河家园八里),北京市,北京市,,购物服务;综合市场;综合市场,060700,B0FFK6GSV3,购物服务,综合市场,综合市场,
116.09969247412074,40.09398609273366,凤凰慧品有机农场,苏家坨车耳营路口二炮对面,北京市,北京市,,购物服务;综合市场;果品市场|公司企业;农林牧渔基地;其它农林牧渔基地,060704|170400,B0FFHWJFDM,购物服务,综合市场,果品市场|公司企业,农林牧渔基地
116.09306337176784,40.08222971498524,苏家坨镇便民菜店,七王坟路,北京市,北京市,,购物服务;综合市场;蔬菜市场,060705,B0FFL69LRC,购物服务,综合市场,蔬菜市场,
116.10158192867574,40.10403301090677,希希果园,凤凰岭路,北京市,北京市,,购物服务;综合市场;农副产品市场,060703,B0FFH0NG6I,购物服务,综合市场,农副产品市场,
116.11131355340237,40.10643861020015,蔬菜粮油调料鲜肉冻货羊肉片,北安河路与台头村路交叉口东北50米,北京市,北京市,,购物服务;综合市场;农副产品市场,060703,B0G2GHO5AB,购物服务,综合市场,农副产品市场,
116.13402010288388,40.103708125538716,同泽园便民菜市场(装修中),[],北京市,北京市,,购物服务;综合市场;蔬菜市场,060705,B0FFGCCJPR,购物服务,综合市场,蔬菜市场,
116.1328102248068,40.10405532083196,24生鲜(北京同泽园店),同泽园东里3号楼地下一层,北京市,北京市,,购物服务;综合市场;果品市场,060704,B0HGR6NSYM,购物服务,综合市场,果品市场,
116.11102402511204,40.10725731948049,顺鑫粮油,聂各庄路12号附近,北京市,北京市,,购物服务;综合市场;农副产品市场,060703,B0FFG3BTY7,购物服务,综合市场,农副产品市场,
116.09760326281383,40.10555362227724,果色天香,凤凰岭路与长安园路交叉路口往西约150米,北京市,北京市,,购物服务;综合市场;果品市场,060704,B0FFLC1ZVT,购物服务,综合市场,果品市场,
116.11829980607803,40.05294755822495,柴鸡蛋,大觉寺路南50米,北京市,北京市,,购物服务;综合市场;农副产品市场,060703,B0FFJN92ZV,购物服务,综合市场,农副产品市场,
116.11886059630838,39.96886898932497,淯荟沅农村蔬菜,[],北京市,北京市,,购物服务;综合市场;蔬菜市场,060705,B0G0ZCZDMB,购物服务,综合市场,蔬菜市场,
116.10252085346181,40.00333526076179,西杨坨便民市场,军庄镇西杨坨大集市场,北京市,北京市,军庄镇,购物服务;综合市场;综合市场,060700,B0HAF7WDE2,购物服务,综合市场,综合市场,
116.09930379636702,40.00358304980283,隆祥生鲜果蔬折扣店,[],北京市,北京市,军庄镇,购物服务;综合市场;农副产品市场,060703,B0G2R6G1WP,购物服务,综合市场,农副产品市场,
116.10329601889825,39.961664311830354,赤峰瓜子,龙泉镇三家店东街70号,北京市,北京市,,购物服务;综合市场;果品市场,060704,B0HGRHMLSC,购物服务,综合市场,果品市场,
116.12087023447786,39.9615914471576,石景山社区便民菜店,隆恩寺路18号院1一3,北京市,北京市,,购物服务;综合市场;蔬菜市场,060705,B0G3UKYUMF,购物服务,综合市场,蔬菜市场,
116.10374341800463,39.962305501209485,果蔬直营,龙泉镇三家店中街2号,北京市,北京市,,购物服务;综合市场;果品市场,060704,B0HBA5NT4E,购物服务,综合市场,果品市场,
116.10290158485175,39.96180612386544,水果蔬菜专卖店,三家店中街附近,北京市,北京市,,购物服务;综合市场;果品市场,060704,B0FFJKD223,购物服务,综合市场,果品市场,
116.11840273822747,39.96134880826492,优味田园生鲜超市(隆恩寺5店),隆恩寺路19号院2号楼附近,北京市,北京市,,购物服务;综合市场;农副产品市场,060703,B0FFLGABGJ,购物服务,综合市场,农副产品市场,
116.10220974843828,39.96279178053393,粮油调料,三家店东街62号附近,北京市,北京市,,购物服务;综合市场;农副产品市场,060703,B0FFG2XR80,购物服务,综合市场,农副产品市场,
116.10333617993092,39.960743366841086,北京金大庆水果店,三家店东街与石门路交叉路口往西约50米,北京市,北京市,,购物服务;综合市场;果品市场,060704,B0FFL5XCDO,购物服务,综合市场,果品市场,
116.10361338692022,39.961449471585595,北京盛锐世源商贸中心,三家店东街66号,北京市,北京市,,购物服务;综合市场;果品市场|购物服务;便民商店/便利店;便民商店/便利店,060704|060200,B0FFG33H19,购物服务,综合市场,果品市场|购物服务,便民商店/便利店
116.10243306715839,39.96207290494526,新发地蔬菜直销,龙泉镇三家店东街82号,北京市,北京市,,购物服务;综合市场;农副产品市场,060703,B0GDSORCAM,购物服务,综合市场,农副产品市场,
116.10518230951352,39.9601753290569,清真牛羊肉,石门路,北京市,北京市,,购物服务;综合市场;农副产品市场,060703,B0G2M1YSHM,购物服务,综合市场,农副产品市场,
116.10372448767781,39.96160251952606,李金玉水果店,大峪街道三家店东街69号,北京市,北京市,,购物服务;综合市场;果品市场,060704,B0FFFTQPF9,购物服务,综合市场,果品市场,
116.10374951694395,39.961586532372685,大红门冷鲜肉,三家店东街66-108号附近,北京市,北京市,,购物服务;综合市场;农副产品市场,060703,B0FFHACFQT,购物服务,综合市场,农副产品市场,
116.10339214328037,39.961494363897906,粮油,龙泉镇三家店东街68号,北京市,北京市,,购物服务;综合市场;农副产品市场,060703,B0G0RCDU7W,购物服务,综合市场,农副产品市场,
116.10331912593162,39.96102234786744,三家店市场(三家店中街),三家店东街82号院10号,北京市,北京市,,购物服务;综合市场;综合市场,060700,B0FFGI8WNV,购物服务,综合市场,综合市场,
116.10458458655391,39.96047099820598,壹公里果蔬(三家店),三家店东街42号北斗星酒店餐厅三间店(近龙泉宾馆),北京市,北京市,,购物服务;综合市场;蔬菜市场|购物服务;综合市场;果品市场,060705|060704,B0FFIBAV4D,购物服务,综合市场,蔬菜市场|购物服务,综合市场
116.1217863293283,39.93538350809176,自然熟水果店,麻峪东街37号附近,北京市,北京市,广宁,购物服务;综合市场;果品市场,060704,B0FFHSQLDG,购物服务,综合市场,果品市场,
116.12263708015966,39.934593522971376,老张蔬菜水果店,麻峪东街34号附近,北京市,北京市,广宁,购物服务;综合市场;农副产品市场,060703,B0G2X7LFGO,购物服务,综合市场,农副产品市场,
116.12270922278844,39.934582607846444,大红门排酸肉,广宁村麻峪东街50号,北京市,北京市,广宁,购物服务;综合市场;农副产品市场,060703,B0FFGCZ39B,购物服务,综合市场,农副产品市场,
116.12173717996954,39.9358134349128,志远粮油店,麻裕东街33号,北京市,北京市,广宁,购物服务;综合市场;农副产品市场,060703,B0FFFADV16,购物服务,综合市场,农副产品市场,
116.12247174079862,39.934722324938974,六谷香粮油店,麻峪东街52号,北京市,北京市,广宁,购物服务;综合市场;农副产品市场,060703,B0FFFADV08,购物服务,综合市场,农副产品市场,
116.12312321236358,39.93321115009832,粮油食品店,麻峪南街70号,北京市,北京市,广宁,购物服务;综合市场;农副产品市场|购物服务;便民商店/便利店;便民商店/便利店,060703|060200,B0G3ZHSDZ6,购物服务,综合市场,农副产品市场|购物服务,便民商店/便利店
116.10113222516502,39.93527342580218,双峪环岛菜市场,双峪路4号,北京市,北京市,门头沟,购物服务;综合市场;农副产品市场,060703,B0FFGISBDH,购物服务,综合市场,农副产品市场,
116.10897390021266,39.93031685670739,壹公里果蔬,承泽苑(承泽苑路),北京市,北京市,永定,购物服务;综合市场;果品市场,060704,B0G117F8PA,购物服务,综合市场,果品市场,
116.1086174280543,39.93027161368283,万家客生鲜,滨河承泽苑1号楼底商,北京市,北京市,门头沟,购物服务;综合市场;综合市场,060700,B0FFL6YIXU,购物服务,综合市场,综合市场,
116.1089675641417,39.932873750008866,果丰鲜豪水果,滨河绮霞苑丙1号楼底商,北京市,北京市,门头沟,购物服务;综合市场;果品市场,060704,B0FFIUQBHC,购物服务,综合市场,果品市场,
116.11224444576173,39.939107977177855,王金建材水暖(爱玛裕家居购物广场店),双峪路35号F1层B201,北京市,北京市,门头沟,购物服务;家居建材市场;家具建材综合市场,060601,B0FFHGNMTE,购物服务,家居建材市场,家具建材综合市场,
116.10549153418907,39.93005368612314,城子两益顺清真牛羊肉,霁月园底商3号楼155号,北京市,北京市,门头沟,购物服务;综合市场;农副产品市场,060703,B0FFKTTSYT,购物服务,综合市场,农副产品市场,
116.13219130541101,39.935819978354786,天客来生鲜超市,高井路南50米,北京市,北京市,广宁,购物服务;综合市场;农副产品市场|购物服务;便民商店/便利店;便民商店/便利店,060703|060200,B0FFIUP7Q2,购物服务,综合市场,农副产品市场|购物服务,便民商店/便利店
116.13092744230954,39.935700185263116,石景山社区便民菜站,高井路21号,北京市,北京市,广宁,购物服务;综合市场;农副产品市场,060703,B0FFMC4FO8,购物服务,综合市场,农副产品市场,
116.10458651525005,39.929860204991606,大农果园(月季园店),大峪梨园13排6号,北京市,北京市,门头沟,购物服务;综合市场;果品市场,060704,B0FFG9UNX4,购物服务,综合市场,果品市场,
116.10521621509861,39.93003153483497,北京南国伊树水果店,月季园路,北京市,北京市,大峪村,购物服务;综合市场;果品市场,060704,B0GUSLORD5,购物服务,综合市场,果品市场,
116.10281662939937,39.929595354367024,北京吴继伟水果蔬菜店,龙泉镇大峪梨园十四排九号,北京市,北京市,门头沟,购物服务;综合市场;蔬菜市场,060705,B000A7QQO4,购物服务,综合市场,蔬菜市场,
116.10702375159322,39.92727569952082,万家客生鲜社区便民菜站,石担路与德露苑路交叉路口往北约50米(倚山嘉园),北京市,北京市,门头沟,购物服务;综合市场;农副产品市场,060703,B0G221UURC,购物服务,综合市场,农副产品市场,
116.10182600791994,39.93441273496692,北京双峪农副产品批发市场,龙泉双峪市场,北京市,北京市,大峪村,购物服务;综合市场;农副产品市场,060703,B0G2BDAC18,购物服务,综合市场,农副产品市场,
116.10190095218793,39.92762803786167,鸿福立果蔬便民连锁超市,高家园路(桃园小区),北京市,北京市,大峪村,购物服务;综合市场;果品市场,060704,B0FFKQ08EG,购物服务,综合市场,果品市场,
116.10083290393578,39.93557730122981,红房子豆业,双峪市场,北京市,北京市,门头沟,购物服务;综合市场;农副产品市场,060703,B0FFG1DB1T,购物服务,综合市场,农副产品市场,
116.10174892402068,39.934474700979074,田园鲜果,双峪路4号北京双峪农副产品批发市场内122号,北京市,北京市,门头沟,购物服务;综合市场;农副产品市场,060703,B0G3F5JL8L,购物服务,综合市场,农副产品市场,
116.10164982825566,39.93446366125548,51仙果(双峪路店),双峪路4号北京双峪农副产品批发市场内水果厅17、18号,北京市,北京市,大峪村,购物服务;综合市场;果品市场,060704,B0GKYBETIT,购物服务,综合市场,果品市场,
116.10145461729896,39.93462757678919,刘氏水果店,双峪市场刘氏水果店,北京市,北京市,大峪村,购物服务;综合市场;果品市场,060704,B0HG69EPCQ,购物服务,综合市场,果品市场,
116.10078913066096,39.9334913681531,阳澄湖大闸蟹(门头沟店),双峪路1号晨光饭店底商,北京市,北京市,门头沟,购物服务;综合市场;水产海鲜市场,060706,B0GUBOQJQ4,购物服务,综合市场,水产海鲜市场,
116.10098916460083,39.93468939481395,低调法祖,双峪市场,北京市,北京市,大峪村,购物服务;综合市场;果品市场,060704,B0FFKQAARI,购物服务,综合市场,果品市场,
116.1009310232567,39.935364346163944,永红调料,双峪路(门头沟区大峪街道双峪社区东北侧约50米),北京市,北京市,门头沟,购物服务;综合市场;农副产品市场,060703,B0FFKXP2YP,购物服务,综合市场,农副产品市场,
116.12519433375624,39.949290035260475,玉喜粮油店,石门路236号附近,北京市,北京市,,购物服务;综合市场;农副产品市场,060703,B0FFGK8DS2,购物服务,综合市场,农副产品市场,
116.12502601209465,39.949103833054174,老太太水果店,黑石头路五里坨派出所西50米,北京市,北京市,,购物服务;综合市场;果品市场,060704,B0FFG8SNOA,购物服务,综合市场,果品市场,
116.10338162728527,39.93425442917497,农夫果园,双峪路7-4号附近,北京市,北京市,龙泉,购物服务;综合市场;果品市场,060704,B0FFHZTCXI,购物服务,综合市场,果品市场,
116.1016095951289,39.93597458497499,山西粮店,双峪市场北房19号,北京市,北京市,门头沟,购物服务;综合市场;农副产品市场,060703,B0FFGCVIRN,购物服务,综合市场,农副产品市场,
116.10527828567106,39.93004456835742,果果自然熟,滨河路155号霁月园3号楼底商,北京市,北京市,门头沟,购物服务;综合市场;果品市场,060704,B0FFFAEQMA,购物服务,综合市场,果品市场,
116.09872267006581,39.930738806868426,悠优生鲜折扣店,新桥南大街13号院1号楼南-15,北京市,北京市,门头沟,购物服务;综合市场;果品市场|购物服务;综合市场;农副产品市场,060704|060703,B0FFI5K3AC,购物服务,综合市场,果品市场|购物服务,综合市场
116.10132832860984,39.93592847546854,会友粮店,双峪路双峪市场北房3号,北京市,北京市,大峪村,购物服务;综合市场;农副产品市场,060703,B0FFG33HA5,购物服务,综合市场,农副产品市场,
116.10437127998227,39.92980709565954,杰声星空干果店,梨园小楼13-4,北京市,北京市,龙泉,购物服务;综合市场;果品市场,060704,B0FFHC5O4W,购物服务,综合市场,果品市场,
116.10167081993733,39.93468866077164,继升干果店,大峪街道双峪市场南房,北京市,北京市,门头沟,购物服务;综合市场;果品市场,060704,B0FFGJZQJI,购物服务,综合市场,果品市场,
116.10089392979053,39.93582131416749,北京兴盛青山粮店,新桥大街东200米,北京市,北京市,大峪村,购物服务;综合市场;农副产品市场,060703,B0FFG33H95,购物服务,综合市场,农副产品市场,
116.09943267074836,39.94318152365067,果蔬港(绿岛店),绿岛家园底商,北京市,北京市,大峪村,购物服务;综合市场;果品市场|购物服务;专卖店;专营店,060704|061200,B0FFM603XG,购物服务,综合市场,果品市场|购物服务,专卖店
116.10059468732403,39.93554121578118,王致和集团(第七经销部),双峪路4号附近市场治安管理办公室附近,北京市,北京市,大峪村,购物服务;综合市场;农副产品市场,060703,B0FFGCV7BN,购物服务,综合市场,农副产品市场,
116.09631396408442,39.92981828759572,水果超市(梨园店),育园路与高家园路交叉路口西南侧(峪园),北京市,北京市,门头沟,购物服务;综合市场;果品市场,060704,B0FFHVELR2,购物服务,综合市场,果品市场,
116.09847535859592,39.947175087720666,水果蔬菜,水厂北路与水厂路交叉口东100米,北京市,北京市,门头沟,购物服务;综合市场;蔬菜市场,060705,B0FFH1Z6E2,购物服务,综合市场,蔬菜市场,
116.11053143445294,39.950819173660975,维C果生鲜,三家店铁四局1号楼(世纪华联生活超市东20米),北京市,北京市,,购物服务;综合市场;农副产品市场,060703,B0FFL4PHWY,购物服务,综合市场,农副产品市场,
116.12857155895102,39.95654312841372,炮厂菜市场,炮厂路西50米,北京市,北京市,,购物服务;综合市场;蔬菜市场,060705,B000A9QQW1,购物服务,综合市场,蔬菜市场,
116.10102019094097,39.93471240558649,刘记干果店,双峪路2号,北京市,北京市,龙泉,购物服务;综合市场;果品市场,060704,B0FFGCV7G8,购物服务,综合市场,果品市场,
116.09558561121196,39.936544899226995,稻谷香粮油食品销售中心,新桥大街42-1号,北京市,北京市,门头沟,购物服务;综合市场;农副产品市场,060703,B000A7BU8H,购物服务,综合市场,农副产品市场,
116.11145363660923,39.91280141174602,大云便民生鲜超市,惠康嘉园五区,北京市,北京市,永定,购物服务;综合市场;农副产品市场|购物服务;超级市场;超市,060703|060400,B0FFMDS57W,购物服务,综合市场,农副产品市场|购物服务,超级市场
116.0938054267631,39.94519536103475,老农果园,城子大街132-13号附近,北京市,北京市,门头沟,购物服务;综合市场;果品市场,060704,B0G35OYDWV,购物服务,综合市场,果品市场,
116.11014592210121,39.911513469021486,壹公里果蔬(冯村店),永兴家园底商,北京市,北京市,门头沟,购物服务;综合市场;果品市场,060704,B0FFK6QJQK,购物服务,综合市场,果品市场,
116.10605408753906,39.95435804765453,新华调料粮油,西宁路13号西南70米,北京市,北京市,门头沟,购物服务;综合市场;农副产品市场,060703,B0FFLLGDTW,购物服务,综合市场,农副产品市场,
116.097865938416,39.946683949380585,原区医院肉店,水厂北路与水厂路交叉口南100米,北京市,北京市,门头沟,购物服务;综合市场;农副产品市场,060703,B0FFHY0UJY,购物服务,综合市场,农副产品市场,
116.09842131596143,39.94716707342674,原城子牛羊肉铺,水厂北路与水厂路交叉路口东侧(蓝龙家园),北京市,北京市,门头沟,购物服务;综合市场;农副产品市场,060703,B0FFIDO2DN,购物服务,综合市场,农副产品市场,
116.09784989720424,39.94690793665611,北京朝顺新生肉食店,蓝龙家园1号楼底商,北京市,北京市,门头沟,购物服务;综合市场;农副产品市场,060703,B0FFIUQJ26,购物服务,综合市场,农副产品市场,
116.12836512505223,39.95642585624977,石景山社区便民菜店,炮厂小区北区,北京市,北京市,,购物服务;综合市场;蔬菜市场,060705,B0FFIUQKUQ,购物服务,综合市场,蔬菜市场,
116.10647149029167,39.95517426148,京西兴顺市场,龙泉镇西宁路13号,北京市,北京市,门头沟,购物服务;综合市场;综合市场,060700,B0HAKCJY5Z,购物服务,综合市场,综合市场,
116.13045952746751,39.95814665038719,优味田园便民综合超市,炮厂路西50米,北京市,北京市,,购物服务;综合市场;蔬菜市场,060705,B0FFKT4RUK,购物服务,综合市场,蔬菜市场,
116.10574668262366,39.95464485985438,京西兴顺农副产品中心,新建路与西宁路交叉口西南150米,北京市,北京市,门头沟,购物服务;综合市场;农副产品市场,060703,B0FFFADXLA,购物服务,综合市场,农副产品市场,
116.11844709443761,39.95918393875515,老王水果蔬菜,隆恩寺路20院附近,北京市,北京市,,购物服务;综合市场;蔬菜市场,060705,B0FFHB92PH,购物服务,综合市场,蔬菜市场,
116.11939977715947,39.95947092772693,果乐生鲜,龙恩寺路18号院南宫嘉园13楼13-9,北京市,北京市,,购物服务;综合市场;果品市场,060704,B0FFKTGHLO,购物服务,综合市场,果品市场,
116.10483570317128,39.9539953839048,北京京西兴顺农副产品市场中心,新河路(北京市三家店铁路中学西北侧约150米),北京市,北京市,门头沟,购物服务;综合市场;农副产品市场,060703,B0FFGY7WOI,购物服务,综合市场,农副产品市场,
116.11823899287027,39.9023220283799,果缤纷,新城东街19号院西长安一号南区东门底商1-39,北京市,北京市,永定,购物服务;综合市场;果品市场,060704,B0FFKV0SUD,购物服务,综合市场,果品市场,
116.12139073601625,39.89492875809875,阳澄湖大闸蟹专卖店,经济开发区永安路20号3幢1336室,北京市,北京市,永定,购物服务;综合市场;水产海鲜市场,060706,B0FFICKRVK,购物服务,综合市场,水产海鲜市场,
116.11455732766308,39.8900310341035,方圆六合生鲜市集,上园路S1线01-11地块安置房项目小园项目7地块商业3-101号,北京市,北京市,永定,购物服务;综合市场;农副产品市场,060703,B0G2AOCI3Q,购物服务,综合市场,农副产品市场,
116.11414036666105,39.89232555636419,正宗手擀面,上园路二地块,北京市,北京市,永定,购物服务;综合市场;农副产品市场,060703,B0FFJJ39WQ,购物服务,综合市场,农副产品市场,
116.11874282768953,39.90282652789243,华联精品生鲜超市,金沙西街19号院2号楼1层122,北京市,北京市,永定,购物服务;综合市场;农副产品市场|购物服务;超级市场;超市,060703|060400,B0FFL4FTWZ,购物服务,综合市场,农副产品市场|购物服务,超级市场
116.11410330985659,39.89230852438975,兴隆便民菜站,上园路,北京市,北京市,永定,购物服务;综合市场;农副产品市场,060703,B0GRAZ2MJF,购物服务,综合市场,农副产品市场,
116.11705060772356,39.90472872698089,阳澄湖大闸蟹(长安天街店),新城东街17号院2号楼长安天街F1,北京市,北京市,永定,购物服务;综合市场;水产海鲜市场,060706,B0G2M4W75Q,购物服务,综合市场,水产海鲜市场,
116.11531149652639,39.890494701036566,重庆鲜面上园店,永定镇上园路小园三区惠润嘉园七地块,北京市,北京市,永定,购物服务;综合市场;农副产品市场,060703,B0GR0SW2R3,购物服务,综合市场,农副产品市场,
116.11738187563753,39.90711795240998,好又多生鲜超市,曹各庄路34号院5号楼5-113,北京市,北京市,永定,购物服务;综合市场;农副产品市场,060703,B0FFM4HKJ4,购物服务,综合市场,农副产品市场,
116.11913783958833,39.908314705276155,韭园酱菜,"曹各庄路32号院3号楼101,102",北京市,北京市,永定,购物服务;综合市场;农副产品市场,060703,B0FFKT6KKY,购物服务,综合市场,农副产品市场,
116.10751032290031,39.9041919703573,中建三局市场,永定镇石龙工业区石龙东路3号中国兵器大厦12层,北京市,北京市,永定,购物服务;综合市场;综合市场,060700,B0FFL2WS8O,购物服务,综合市场,综合市场,
116.12964991937162,39.901684820173095,北京市门头沟绿色农产品展销中心,泰安路翡翠长安底商10号楼202,北京市,北京市,永定,购物服务;综合市场;农副产品市场,060703,B0FFLFFFSN,购物服务,综合市场,农副产品市场,
116.10677858249757,39.88714828518584,辉全嘉华生鲜食品超市,龙林路(云翔嘉苑西侧约200米),北京市,北京市,永定,购物服务;综合市场;农副产品市场,060703,B0G3YCUYLD,购物服务,综合市场,农副产品市场,
116.13573467352701,39.89623088497123,菜公社(梧桐苑店),龙兴南二路10号院6号楼1层103,北京市,北京市,永定,购物服务;综合市场;农副产品市场,060703,B0G3AG8K7K,购物服务,综合市场,农副产品市场,
116.10507478177603,39.90871833898909,冯村商业街-永定A区,冯石环线与石龙北路交叉口西南150米,北京市,北京市,门头沟,购物服务;综合市场;综合市场,060700,B0FFH7TOSJ,购物服务,综合市场,综合市场,
116.09997689641942,39.89834455662416,鑫维康永和新苑综合便民菜店,永定镇何各庄村永和新苑小区S-5号楼1层,北京市,北京市,永定,购物服务;综合市场;蔬菜市场,060705,B0FFJ274UX,购物服务,综合市场,蔬菜市场,
116.13582476956944,39.89717997968641,绿禄生鲜便民果蔬,永定镇龙兴南二路10号院1号楼,北京市,北京市,永定,购物服务;综合市场;农副产品市场|购物服务;综合市场;果品市场,060703|060704,B0FFI9NEKY,购物服务,综合市场,农副产品市场|购物服务,综合市场
116.10383347964523,39.90800172822262,蔬菜调料,永定冯村嘉园,北京市,北京市,永定,购物服务;综合市场;蔬菜市场,060705,B0GRDOKXX3,购物服务,综合市场,蔬菜市场,
116.13601835529711,39.89623931758369,新发地菜篮子(梧桐苑店),永定镇龙兴南二路10号院六号楼低商,北京市,北京市,永定,购物服务;综合市场;蔬菜市场,060705,B0FFL4LO3W,购物服务,综合市场,蔬菜市场,
116.13657257690454,39.89717612666169,钱大妈(梧桐苑店),[],北京市,北京市,永定,购物服务;综合市场;农副产品市场,060703,B0HAPCT5BC,购物服务,综合市场,农副产品市场,
116.13493063611229,39.8971326272297,四季生鲜旗舰店(梧桐苑店),龙兴南二路与玉带西街交叉路口往西约50米,北京市,北京市,永定,购物服务;综合市场;农副产品市场,060703,B0G2BL97HG,购物服务,综合市场,农副产品市场,
116.10478570970685,39.90669127118568,冯村商业街嘉园区B区,石龙北路53号附近,北京市,北京市,门头沟,购物服务;综合市场;综合市场,060700,B0FFGBC0VY,购物服务,综合市场,综合市场,
116.10014453640801,39.88670814716871,阳澄湖大闸蟹(石门营店),石门营小区A5-8楼附近底商,北京市,北京市,永定,购物服务;综合市场;水产海鲜市场,060706,B0G3A65SXG,购物服务,综合市场,水产海鲜市场,
116.09561284725243,39.88806096967119,锡盟牛羊肉直销(石门营店),石门营A4地块5号楼底商过街天桥下,北京市,北京市,永定,购物服务;综合市场;农副产品市场,060703,B0FFIALIJ0,购物服务,综合市场,农副产品市场,
116.17202618601729,40.12450127427735,干果、调料、粮油,前章村路与沙阳路交叉口南100米,北京市,北京市,,购物服务;综合市场;综合市场,060700,B0FFIXSQQ3,购物服务,综合市场,综合市场,
116.17264706805678,40.123386524056926,粮油,前章村路,北京市,北京市,,购物服务;综合市场;农副产品市场,060703,B0FFIXSO79,购物服务,综合市场,农副产品市场,
116.19262021005326,40.14645818784453,双塔村口菜市场,双塔村村口,北京市,北京市,,购物服务;综合市场;蔬菜市场,060705,B0FFI1703S,购物服务,综合市场,蔬菜市场,
116.19246175801194,40.14696088226887,大平鲜牛羊肉店,上庄路与双横路交叉口西北100米,北京市,北京市,,购物服务;综合市场;农副产品市场,060703,B0FFIXP6XA,购物服务,综合市场,农副产品市场,
116.14601702824781,40.11385861320977,永康粮油批发,苏家坨镇后沙涧村二区132号,北京市,北京市,,购物服务;综合市场;农副产品市场,060703,B0FFFVC1MW,购物服务,综合市场,农副产品市场,
116.14590576934852,40.11357344603341,菜篮子自助果蔬店(后沙涧村店),后沙涧村温阳路西侧,北京市,北京市,,购物服务;综合市场;农副产品市场,060703,B0GU4LW8C9,购物服务,综合市场,农副产品市场,
116.16612920542687,40.0799307643782,苏三四村中心市场,苏家坨镇苏三四西二区156号楼苏家坨苏三四村中心市场,北京市,北京市,,购物服务;综合市场;综合市场,060700,B0FFH0WATB,购物服务,综合市场,综合市场,
116.16547533318926,40.08009853116386,批发零售大米,苏家坨路,北京市,北京市,,购物服务;综合市场;农副产品市场,060703,B0G13L4YIG,购物服务,综合市场,农副产品市场,
116.1661863673255,40.07992987125929,苏三中心市场(非餐),苏家坨路苏三农贸中心市场,北京市,北京市,,购物服务;综合市场;农副产品市场,060703,B0FFKSLMF1,购物服务,综合市场,农副产品市场,
116.16596674066811,40.079969458174,苏三寺中心市场,苏家坨镇,北京市,北京市,,购物服务;综合市场;综合市场,060700,B0FFJOKMLG,购物服务,综合市场,综合市场,
116.16760334762438,40.08015150360034,蔬菜,苏家坨路南50米,北京市,北京市,,购物服务;综合市场;蔬菜市场,060705,B0FFJG779A,购物服务,综合市场,蔬菜市场,
116.15260779409203,40.07542808233015,世纪家家福生鲜超市,温阳路与苏家坨路交叉路口西南侧(金百万烤鸭北侧),北京市,北京市,,购物服务;综合市场;农副产品市场|购物服务;超级市场;超市,060703|060400,B0FFH6X94A,购物服务,综合市场,农副产品市场|购物服务,超级市场
116.18109890012938,40.03989663372897,小邓牛羊肉,温泉路白家疃东公交站,北京市,北京市,,购物服务;综合市场;农副产品市场|购物服务;超级市场;超市,060703|060400,B0GRDZFAM6,购物服务,综合市场,农副产品市场|购物服务,超级市场
116.16680812543571,40.04838194354132,未来生鲜,温泉路温泉凯盛家园一区,北京市,北京市,,购物服务;综合市场;农副产品市场,060703,B0FFLG3G0J,购物服务,综合市场,农副产品市场,
116.16580629845556,40.04832707445593,华联生鲜超市,凯盛家园一区2号楼,北京市,北京市,,购物服务;综合市场;农副产品市场,060703,B0G3RA9QVR,购物服务,综合市场,农副产品市场,
116.15868811357875,40.05680134026414,新鲜果蔬,[],北京市,北京市,,购物服务;综合市场;果品市场,060704,B0G0GZI6D8,购物服务,综合市场,果品市场,
116.19213444673143,39.99208058912762,香山农贸市场(北京香山别墅西南),香山煤厂街14号,北京市,北京市,香山,购物服务;综合市场;农副产品市场,060703,B0FFFADUQ9,购物服务,综合市场,农副产品市场,
116.162187786136,39.931937353035636,果之乐精品店,金顶北街西100米,北京市,北京市,金顶街,购物服务;综合市场;果品市场,060704,B0FFHB9423,购物服务,综合市场,果品市场,
116.16255711762426,39.92964713332312,壹公里果蔬(金隅店),金顶北街金隅科技大厦负一层,北京市,北京市,金顶街,购物服务;综合市场;果品市场,060704,B0FFJCFO9U,购物服务,综合市场,果品市场,
116.1632626084028,39.92569360897888,壹公里果蔬(金顶街店),金顶北路69号,北京市,北京市,石景山,购物服务;综合市场;果品市场,060704,B0FFJ1DNCF,购物服务,综合市场,果品市场,
116.17946789571113,39.933310253297705,海特社区便民菜站,西井路19号院3号楼1层,北京市,北京市,西山,购物服务;综合市场;农副产品市场|购物服务;综合市场;蔬菜市场,060703|060705,B0FFISA8XZ,购物服务,综合市场,农副产品市场|购物服务,综合市场
116.15275049310114,39.93126401811435,首农优加生鲜超市,金顶街模式口南里小区5号楼西侧底商首农超市,北京市,北京市,金顶街,购物服务;综合市场;农副产品市场,060703,B0FFK4BX2H,购物服务,综合市场,农副产品市场,
116.15830850908023,39.92685435342959,玲玲水果蔬菜(012店),金顶街北路18号院5栋,北京市,北京市,金顶街,购物服务;综合市场;果品市场,060704,B0FFJH5RZV,购物服务,综合市场,果品市场,
116.18027709390805,39.93326970488692,果蔬超市,西井路17号诚海大厦1层,北京市,北京市,石景山,购物服务;综合市场;果品市场,060704,B0GUSCLLVS,购物服务,综合市场,果品市场,
116.15392583440399,39.930492175642165,首钢乐嘉天天精品会员生鲜超市,模式口南里18号楼北侧,北京市,北京市,金顶街,购物服务;综合市场;农副产品市场|购物服务;超级市场;超市,060703|060400,B0FFJ1YRR3,购物服务,综合市场,农副产品市场|购物服务,超级市场
116.16319936599717,39.92619947046857,社区升级菜市场(金顶街店),金顶北街68号,北京市,北京市,金顶街,购物服务;综合市场;综合市场,060700,B0FFHIRN2S,购物服务,综合市场,综合市场,
116.17865324353131,39.9288069667972,果唯伊社区便民果蔬店,苹果园大街104号附近,北京市,北京市,石景山,购物服务;综合市场;果品市场,060704,B0FFL3ZH3V,购物服务,综合市场,果品市场,
116.15765868823561,39.92685315405134,便民水果蔬菜超市,金顶北路20号院8栋1层,北京市,北京市,金顶街,购物服务;综合市场;果品市场,060704,B0FFFW80PD,购物服务,综合市场,果品市场,
116.15467894151597,39.93032855160411,模式口社区便民市场,金顶街街道模式口南里20号楼旁边,北京市,北京市,金顶街,购物服务;综合市场;综合市场,060700,B0FFHF3YF7,购物服务,综合市场,综合市场,
116.15851630830356,39.92514180675631,蔬果超市,金顶街柳青园20号院19栋底商,北京市,北京市,金顶街,购物服务;综合市场;蔬菜市场,060705,B0FFKRFDVM,购物服务,综合市场,蔬菜市场,
116.15473109772647,39.93023765026577,模式口南里便民菜市场,[],北京市,北京市,,购物服务;综合市场;蔬菜市场,060705,B0G3HU74M7,购物服务,综合市场,蔬菜市场,
116.15375063714426,39.928221948878594,果果鲜水果超市,金顶西街8号,北京市,北京市,金顶街,购物服务;综合市场;果品市场,060704,B0FFH0WTUQ,购物服务,综合市场,果品市场,
116.17932852242474,39.93326700457916,汇百佳生鲜(海特社区便民菜站店),西井路19号,北京市,北京市,西山,购物服务;综合市场;果品市场,060704,B0HGOCWGEE,购物服务,综合市场,果品市场,
116.1548493892069,39.93052885420902,前便民市场,金顶街街道模式口南里11号楼前便民市场,北京市,北京市,金顶街,购物服务;综合市场;综合市场,060700,B0FFM9HG61,购物服务,综合市场,综合市场,
116.1536242961075,39.928157722435536,水果干果超市,金顶西街4附近,北京市,北京市,,购物服务;综合市场;果品市场,060704,B0G29RQ2V8,购物服务,综合市场,果品市场,
116.15421306882993,39.92701883686917,栗香园,金顶西街18号附近,北京市,北京市,金顶街,购物服务;综合市场;果品市场,060704,B0FFIUP7Q4,购物服务,综合市场,果品市场,
116.15344584807566,39.927803413465554,锡盟牛羊肉启程商贸,金顶街今时宾馆底商青年公寓旁锡盟牛羊肉店,北京市,北京市,金顶街,购物服务;综合市场;农副产品市场,060703,B0FFIKZ68V,购物服务,综合市场,农副产品市场,
116.18243905238081,39.932073589944906,社区便利菜店,苹果园海特花园商业2号-15,北京市,北京市,石景山,购物服务;综合市场;蔬菜市场|购物服务;专卖店;专营店,060705|061200,B0FFIYANPR,购物服务,综合市场,蔬菜市场|购物服务,专卖店
116.18539820126965,39.92941585159201,牛街清真肉铺(海特店),苹果园派出路实兴大街苹果园派出所南牛街清真肉铺海特店,北京市,北京市,石景山,购物服务;综合市场;农副产品市场,060703,B0FFH9QENS,购物服务,综合市场,农副产品市场,
116.15454107620761,39.926240464948144,石景山区便民菜站,金顶东街西口3-1,北京市,北京市,金顶街,购物服务;综合市场;果品市场,060704,B0FFJ1YRR4,购物服务,综合市场,果品市场,
116.15466455476222,39.93307041594826,干果,[],北京市,北京市,,购物服务;综合市场;果品市场,060704,B0G0CUYB2W,购物服务,综合市场,果品市场,
116.18365010164975,39.93342366031267,亿果家族,八大处高科技园区西井路3号1号楼,北京市,北京市,西山,购物服务;综合市场;果品市场,060704,B0HGOUV6JI,购物服务,综合市场,果品市场,
116.18031612899728,39.92586207204562,百姓菜篮子市场,苹果园杨庄大街2号,北京市,北京市,石景山,购物服务;综合市场;综合市场,060700,B0FFLAFKKX,购物服务,综合市场,综合市场,
116.18539303364591,39.93064579335892,优农果园(苹果园店),西井四区9号楼1层1.2单元底商,北京市,北京市,石景山,购物服务;综合市场;果品市场,060704,B0FFH0VS0Q,购物服务,综合市场,果品市场,
116.15379176868423,39.92808102914102,臻鲜果水果干果,金顶北路青年公寓对面,北京市,北京市,金顶街,购物服务;综合市场;果品市场,060704,B0G35RYBJ2,购物服务,综合市场,果品市场,
116.18075629831539,39.92601385142354,苹果园市场,苹果园大街196号,北京市,北京市,石景山,购物服务;综合市场;综合市场,060700,B0FFIX1N8S,购物服务,综合市场,综合市场,
116.15456633517724,39.924746571416634,ABC果蔬,金顶西街与金顶路交叉路口东侧,北京市,北京市,广宁,购物服务;综合市场;果品市场|购物服务;专卖店;专营店,060704|061200,B0FFM4D48Z,购物服务,综合市场,果品市场|购物服务,专卖店
116.18539118042206,39.929435838703405,栗粒香干果店,实兴大街苹果园一区8号楼,北京市,北京市,石景山,购物服务;综合市场;果品市场,060704,B0FFIORWET,购物服务,综合市场,果品市场,
116.155506900239,39.925122272389224,果唯伊(石景山社区便民菜店),金顶路与金顶西街交叉路口往东约50米(碧泉商场),北京市,北京市,金顶街,购物服务;综合市场;果品市场,060704,B0FFICUVW5,购物服务,综合市场,果品市场,
116.15470854166541,39.926232770245925,石景山社区便民菜店,北辛安路6号附近,北京市,北京市,金顶街,购物服务;综合市场;蔬菜市场,060705,B0FFIUP7Q6,购物服务,综合市场,蔬菜市场,
116.1551769853396,39.92510267036989,丰园水果,金顶路,北京市,北京市,金顶街,购物服务;综合市场;果品市场,060704,B0FFHK0KGW,购物服务,综合市场,果品市场,
116.16726441002095,39.921732247121916,阳澄湖大闸蟹(首特创业园店),阜石路300号,北京市,北京市,古城,购物服务;综合市场;水产海鲜市场,060706,B0G0A7W94F,购物服务,综合市场,水产海鲜市场,
116.18560148556809,39.9313821223986,蔬果宴,海特花园57号楼2层3号商业2-1、2-3号,北京市,北京市,石景山,购物服务;综合市场;果品市场,060704,B0G3ZYPCBA,购物服务,综合市场,果品市场,
116.16737071220649,39.92171444641999,美心木门,天大国际家居三楼,北京市,北京市,古城,购物服务;家居建材市场;家具建材综合市场,060601,B0FFLKHAX4,购物服务,家居建材市场,家具建材综合市场,
116.15578677172968,39.924390814114176,物业四宿舍市场,古城街道古城首钢物业四宿舍市场,北京市,北京市,金顶街,购物服务;综合市场;综合市场,060700,B0HGV7PXF9,购物服务,综合市场,综合市场,
116.14896918922716,39.93118727999485,社区便民菜站,[],北京市,北京市,金顶街,购物服务;综合市场;蔬菜市场,060705,B0G0JCJATI,购物服务,综合市场,蔬菜市场,
116.14872653475747,39.93118585335197,水果蔬菜,模式口西里与石门路交叉路口西侧,北京市,北京市,金顶街,购物服务;综合市场;蔬菜市场,060705,B0G3LPE4MC,购物服务,综合市场,蔬菜市场,
116.19172665947296,39.92647953942959,鲜果美水果超市(杨庄东街),杨庄东街51-17号,北京市,北京市,石景山,购物服务;综合市场;果品市场,060704,B0FFGB1I25,购物服务,综合市场,果品市场,
116.18361315967915,39.924203966697746,一公里果蔬店,[],北京市,北京市,石景山,购物服务;综合市场;农副产品市场,060703,B0FFKT6HD5,购物服务,综合市场,农副产品市场,
116.18986129114272,39.93225726336492,蔬菜水果,西井路西井二区甲7号,北京市,北京市,石景山,购物服务;综合市场;蔬菜市场,060705,B0H6VYEJ9D,购物服务,综合市场,蔬菜市场,
116.18229504074311,39.92112577881897,华弟生鲜,杨庄路110-5号西50米,北京市,北京市,古城,购物服务;综合市场;农副产品市场,060703,B0G0HKFIRU,购物服务,综合市场,农副产品市场,
116.19157420472325,39.92710626774351,壹公里,杨庄东街(首钢黄南苑居民小区),北京市,北京市,石景山,商务住宅;住宅区;住宅小区|购物服务;综合市场;果品市场,120302|060704,B0FFJD5N5N,商务住宅,住宅区,住宅小区|购物服务,综合市场
116.14695072337575,39.93158273908168,菜老包(模式口西里店),模式口西里31号楼对面万信小花蔬菜水果超市,北京市,北京市,金顶街,购物服务;综合市场;农副产品市场,060703,B0FFKS8JFC,购物服务,综合市场,农副产品市场,
116.18377797274006,39.9211953772435,蔬果优品生鲜超市,杨庄路(杨庄中区西侧),北京市,北京市,石景山,购物服务;综合市场;蔬菜市场,060705,B0HB4UADAC,购物服务,综合市场,蔬菜市场,
116.18993542661856,39.924672691036726,日日生鲜(当代店),当代商城B1层,北京市,北京市,石景山,购物服务;超级市场;超市|购物服务;综合市场;综合市场,060400|060700,B0FFIAPSLD,购物服务,超级市场,超市|购物服务,综合市场
116.18296283084999,39.92104095724939,阳澄湖大闸蟹(杨庄路八大处店),杨庄路112号华信大厦底商,北京市,北京市,古城,购物服务;综合市场;水产海鲜市场,060706,B0FFJATXK7,购物服务,综合市场,水产海鲜市场,
116.18974859775277,39.92754326668615,餐碗便民果蔬(杨北店),杨庄北区东街,北京市,北京市,石景山,购物服务;综合市场;农副产品市场,060703,B0G1LK3JXH,购物服务,综合市场,农副产品市场,
116.19157521321868,39.92705827131392,您身边的果蔬专家,杨庄东街29号附近,北京市,北京市,石景山,购物服务;综合市场;果品市场,060704,B0G0P9HL4D,购物服务,综合市场,果品市场,
116.18347275657631,39.91647403922331,壹公里(古城店),古城北路20号嘉和农贸市场,北京市,北京市,石景山,购物服务;综合市场;果品市场|餐饮服务;餐饮相关场所;餐饮相关,060704|050000,B0FFK81NKQ,购物服务,综合市场,果品市场|餐饮服务,餐饮相关场所
116.18122158437282,39.90979835149732,香栗坊,古城大街12号,北京市,北京市,石景山,购物服务;综合市场;果品市场,060704,B0FFF597IZ,购物服务,综合市场,果品市场,
116.18762901030006,39.921166988436354,榴莲专卖店,杨庄路杨庄中区21号楼1层六单元101,北京市,北京市,石景山,购物服务;综合市场;果品市场,060704,B0G2AR6KQ0,购物服务,综合市场,果品市场,
116.1833156315397,39.914147861487955,垦荒人(古城北路店),古城街道古城北路25号楼,北京市,北京市,古城,购物服务;综合市场;农副产品市场,060703,B0G09PM9SZ,购物服务,综合市场,农副产品市场,
116.19157055893663,39.91620570881187,牛街清真肉铺(八角北路),杨庄东街93-16号,北京市,北京市,古城,购物服务;综合市场;农副产品市场,060703,B0FFG71725,购物服务,综合市场,农副产品市场,
116.18076083629816,39.913848360453336,四季鲜水果店,古城路1号楼附近,北京市,北京市,古城,购物服务;综合市场;果品市场,060704,B0G2U94F45,购物服务,综合市场,果品市场,
116.19232960205379,39.914801989627506,鲜果佳园水果干果超市,八角西街37号八角西街北口公交站,北京市,北京市,古城,购物服务;综合市场;果品市场,060704,B0FFJ7WEEI,购物服务,综合市场,果品市场,
116.18309217167022,39.913084514643685,果惠美生鲜超市(古城店),古城小街泰康医院对面,北京市,北京市,石景山,购物服务;综合市场;农副产品市场|购物服务;综合市场;蔬菜市场,060703|060705,B0FFHR52V7,购物服务,综合市场,农副产品市场|购物服务,综合市场
116.18312432911016,39.91250959524312,叮咚买菜,古城小街1-6号,北京市,北京市,石景山,购物服务;综合市场;蔬菜市场,060705,B0G01DRUV6,购物服务,综合市场,蔬菜市场,
116.18305508920547,39.9129564550004,生鲜超市(古城店),古城路特钢公司食堂院3幢1号,北京市,北京市,石景山,购物服务;综合市场;农副产品市场,060703,B0FFL4A2XH,购物服务,综合市场,农副产品市场,
116.18308513707423,39.91321149696569,一商·大红门肉食,[],北京市,北京市,石景山,购物服务;综合市场;农副产品市场,060703,B0GU39LPDD,购物服务,综合市场,农副产品市场,
116.19068676491673,39.91301340577303,福临生鲜,八角北路44号楼-1层-38号附近,北京市,北京市,石景山,购物服务;综合市场;农副产品市场,060703,B0FFIDJSJF,购物服务,综合市场,农副产品市场,
116.19229261652552,39.9139609655939,古香粮油店,八角西街55号古香粮店内,北京市,北京市,石景山,购物服务;综合市场;农副产品市场,060703,B0FFFFDN6M,购物服务,综合市场,农副产品市场,
116.180978931011,39.9098029198213,糖炒栗子转炉瓜子,古城南路与古城大街交叉口东50米,北京市,北京市,石景山,购物服务;综合市场;果品市场,060704,B0FFIUDQB7,购物服务,综合市场,果品市场,
116.18635668281857,39.91355014550076,蒙牛专卖店,古城东街,北京市,北京市,石景山,购物服务;综合市场;农副产品市场,060703,B0G3DNYUXU,购物服务,综合市场,农副产品市场,
116.1837763688824,39.91001784104666,京西菜市(五星市场),古城南路14号,北京市,北京市,石景山,购物服务;综合市场;蔬菜市场,060705,B0FFM1Y0R7,购物服务,综合市场,蔬菜市场,
116.19090450731521,39.911411828750104,便民果蔬,古城路56号楼底商,北京市,北京市,石景山,购物服务;综合市场;蔬菜市场,060705,B0FFIU8HGU,购物服务,综合市场,蔬菜市场,
116.18870617679319,39.90984426882572,陈记清真牛羊肉店,[],北京市,北京市,古城,购物服务;综合市场;农副产品市场,060703,B0G0XSZCSL,购物服务,综合市场,农副产品市场,
116.16879543841048,39.89222537778125,优味,燕堤南路2号院,北京市,北京市,,购物服务;综合市场;农副产品市场,060703,B0FFJIYHH0,购物服务,综合市场,农副产品市场,
116.16907230290231,39.891547925234235,果荔园水果干果,燕瑅南路2号院12号楼1层103,北京市,北京市,,购物服务;综合市场;蔬菜市场,060705,B0FFFV9PS6,购物服务,综合市场,蔬菜市场,
116.16923274943963,39.89158722256694,牛街清真牛羊肉(燕堤店),燕堤南路二号院十二号楼底商,北京市,北京市,,购物服务;综合市场;农副产品市场,060703,B0HB6YK31I,购物服务,综合市场,农副产品市场,
116.17284695402661,39.90692425472334,阳澄湖大闸蟹(古城店),城兴街中海大厦B座F1,北京市,北京市,古城,购物服务;综合市场;水产海鲜市场,060706,B0GDV77NB8,购物服务,综合市场,水产海鲜市场,
116.17589345963275,39.90656287490454,社区便民菜站(古城店),石景山路与城通街交叉路口北侧(十万平小区),北京市,北京市,石景山,购物服务;综合市场;蔬菜市场,060705,B0FFL3YKUI,购物服务,综合市场,蔬菜市场,
116.18426371707501,39.90952171067466,果多美(石景山古城南路店),古城南路35号楼1层35-1,北京市,北京市,古城,购物服务;综合市场;果品市场,060704,B0FFI2Q08M,购物服务,综合市场,果品市场,
116.17944026419345,39.90586333732311,阳澄湖大闸蟹(首钢店),石景山路54号院7号楼1层,北京市,北京市,石景山,购物服务;综合市场;水产海鲜市场,060706,B0H6DH9OBE,购物服务,综合市场,水产海鲜市场,
116.17564473647329,39.90684940742332,十万平便民市场,老古城大楼9室,北京市,北京市,石景山,购物服务;综合市场;综合市场,060700,B0FFGW4PVH,购物服务,综合市场,综合市场,
116.17981381915023,39.9095198507902,二商·大红门肉食,古城大街39号(物美大卖场旁),北京市,北京市,古城,购物服务;综合市场;农副产品市场,060703,B0G3DU0SX7,购物服务,综合市场,农副产品市场,
116.17928760899605,39.90778098038858,社区便民菜店,古城南路41号楼凯迪宾馆旁,北京市,北京市,古城,购物服务;综合市场;蔬菜市场,060705,B0FFI9JA3E,购物服务,综合市场,蔬菜市场,
116.18310088118274,39.907605762757726,万果汇(水果干果店),古城街道古城南路27栋,北京市,北京市,石景山,购物服务;综合市场;果品市场,060704,B0FFISGLFC,购物服务,综合市场,果品市场,
116.17126121282114,39.90935621173558,石景山社区便民菜站(金玺公馆店),中海金玺公馆2号楼西侧,北京市,北京市,石景山,购物服务;综合市场;蔬菜市场,060705,B0FFJ1YRR2,购物服务,综合市场,蔬菜市场,
116.1885618418486,39.90958903864308,陈记牛街清真肉店,八角街道八角南路小区,北京市,北京市,石景山,购物服务;综合市场;农副产品市场,060703,B0G23ABAAC,购物服务,综合市场,农副产品市场,
116.19005865056283,39.90936553055345,八角社区便民果蔬店,八角南路12附近,北京市,北京市,石景山,购物服务;综合市场;农副产品市场,060703,B0FFL9JPY0,购物服务,综合市场,农副产品市场,
116.22026184426659,40.1401884060349,超市牛奶批发,[],北京市,北京市,,购物服务;综合市场;农副产品市场|购物服务;超级市场;超市,060703|060400,B0G0SU0T9N,购物服务,综合市场,农副产品市场|购物服务,超级市场
116.21761469353771,40.14178590365973,果蔬超市,[],北京市,北京市,,购物服务;综合市场;果品市场,060704,B0G0D59PQ7,购物服务,综合市场,果品市场,
116.20909506121762,40.1249704581449,田园果蔬店,馨悦南街上庄镇馨瑞嘉园北门旁,北京市,北京市,,购物服务;综合市场;果品市场|购物服务;超级市场;超市,060704|060400,B0FFHRUP0N,购物服务,综合市场,果品市场|购物服务,超级市场
116.20077754370452,40.13606554642941,白水洼村菜市场,白水洼村,北京市,北京市,,购物服务;综合市场;蔬菜市场,060705,B0FFI17KOA,购物服务,综合市场,蔬菜市场,
116.21046886414379,40.123185228887834,馨园果蔬,馨瑞东路懒兔儿美甲工作室旁,北京市,北京市,,购物服务;综合市场;果品市场,060704,B0FFIXFF1I,购物服务,综合市场,果品市场,
116.21053999548204,40.12318631064058,阳坊牛羊肉专卖,上庄馨瑞家园7号楼1层1单元110室,北京市,北京市,,购物服务;综合市场;农副产品市场,060703,B0FFKTS439,购物服务,综合市场,农副产品市场,
116.2011523889992,40.13589809161216,肉联排酸肉,[],北京市,北京市,,购物服务;综合市场;农副产品市场,060703,B0HGRHNVK7,购物服务,综合市场,农副产品市场,
116.2106611661849,40.12360641207834,蔬菜水果(北大资源研修学院店),上庄镇馨瑞嘉园20号,北京市,北京市,,购物服务;综合市场;蔬菜市场|购物服务;综合市场;农副产品市场,060705|060703,B0FFMBHT5M,购物服务,综合市场,蔬菜市场|购物服务,综合市场
116.19879048241661,40.12507571763514,果蔬103,上庄镇三嘉信苑14号楼一层一单元103,北京市,北京市,,购物服务;综合市场;果品市场,060704,B0GR5H28J7,购物服务,综合市场,果品市场,
116.19593624968971,40.122139710823916,北京市上庄水乡农副产品市场中心,东小营西路399号院,北京市,北京市,,购物服务;综合市场;农副产品市场,060703,B0G136WK8J,购物服务,综合市场,农副产品市场,
116.21016374016251,40.111706865195906,五肉联排酸肉,上庄中路东200米,北京市,北京市,,购物服务;综合市场;农副产品市场,060703,B0G3UG0V1D,购物服务,综合市场,农副产品市场,
116.22781795675093,40.087534226948556,蒙牛奶站,大牛坊安置小区三区底商1层304,北京市,北京市,,购物服务;综合市场;农副产品市场,060703,B0FFMD53CI,购物服务,综合市场,农副产品市场,
116.21512322749469,40.073800028543864,果佳园,西北旺镇永丰屯村309号,北京市,北京市,西北旺,购物服务;综合市场;农副产品市场,060703,B0FFIINKLE,购物服务,综合市场,农副产品市场,
116.21566350910389,40.09460013137367,水果蔬菜店,[],北京市,北京市,,购物服务;综合市场;果品市场,060704,B0FFIN52QJ,购物服务,综合市场,果品市场,
116.2291197891682,40.08380620841881,鲜乐安民果蔬社区便民服务(大牛坊店),西北旺大牛房社区1期底商,北京市,北京市,西北旺,购物服务;综合市场;果品市场,060704,B0FFHMBXXM,购物服务,综合市场,果品市场,
116.20917969754157,40.09730884717859,上庄水乡农贸市场,上庄家园西路,北京市,北京市,,购物服务;综合市场;综合市场,060700,B0FFFV5ESE,购物服务,综合市场,综合市场,
116.20311746236214,40.08954668909359,东马坊果蔬生鲜基地直采超市,西马坊路(北大资源研修学院西侧约250米),北京市,北京市,,购物服务;综合市场;蔬菜市场|购物服务;综合市场;果品市场,060705|060704,B0FFL4YAJP,购物服务,综合市场,蔬菜市场|购物服务,综合市场
116.20887497051693,40.09847339522439,青青果园,上庄家园西路与东马坊路交叉口西北50米,北京市,北京市,,购物服务;综合市场;果品市场,060704,B0FFH9579D,购物服务,综合市场,果品市场,
116.21112351891239,40.071779873090364,新发地精品水果批发零售,[],北京市,北京市,,购物服务;综合市场;果品市场,060704,B0FFL2RKBJ,购物服务,综合市场,果品市场,
116.20819592049355,40.064549880388086,干果,屯佃路,北京市,北京市,西北旺,购物服务;综合市场;果品市场,060704,B0FFL5WBRY,购物服务,综合市场,果品市场,
116.21791775376529,40.033344023888944,老张蔬菜水果店,冷泉路靠近北京慧聪双语艺术幼儿园,北京市,北京市,西北旺,购物服务;综合市场;蔬菜市场,060705,B0FFIG10IR,购物服务,综合市场,蔬菜市场,
116.2165236020735,40.03308972376527,霏霏水果便利店,冷泉村西北街西湖照相馆旁,北京市,北京市,西北旺,购物服务;综合市场;果品市场,060704,B0FFK6I1CL,购物服务,综合市场,果品市场,
116.21475275991813,40.03267298669142,调料蔬菜店,[],北京市,北京市,西北旺,购物服务;综合市场;农副产品市场,060703,B0G30AHZS5,购物服务,综合市场,农副产品市场,
116.21950322036146,40.03264647434168,粮油百货店,冷泉路,北京市,北京市,西北旺,购物服务;综合市场;农副产品市场,060703,B0FFL5WCGR,购物服务,综合市场,农副产品市场,
116.21236666446829,40.03256646718749,筷子优先生鲜超市,冷泉西路(天赐睿智双语艺术幼儿园东北侧),北京市,北京市,,购物服务;综合市场;农副产品市场,060703,B0GR45IQKG,购物服务,综合市场,农副产品市场,
116.21311097490292,40.032539275071976,老董粮油,冷泉西路(天赐睿智双语艺术幼儿园东北侧约100米),北京市,北京市,西北旺,购物服务;综合市场;农副产品市场,060703,B0G2L6ILOO,购物服务,综合市场,农副产品市场,
116.21118826021774,40.03487303972413,天恩御坊,林语山庄路与冷泉西路交叉路口西南侧(山语间),北京市,北京市,,购物服务;综合市场;农副产品市场,060703,B0FFL4YV1K,购物服务,综合市场,农副产品市场,
116.20847715295567,40.035109853681504,农夫园,冷泉林语山庄二区14-111正南方向40米,北京市,北京市,,购物服务;综合市场;蔬菜市场,060705,B0FFGONKK2,购物服务,综合市场,蔬菜市场,
116.20781874434235,40.03616599693221,便民果蔬店,林语山庄路(林语公馆),北京市,北京市,,购物服务;综合市场;果品市场,060704,B0FFL4PQW2,购物服务,综合市场,果品市场,
116.20842499272459,40.03558676630674,日日生鲜生活超市,冷泉林语山庄二区14-105,北京市,北京市,,购物服务;综合市场;农副产品市场|购物服务;超级市场;超市|购物服务;便民商店/便利店;便民商店/便利店,060703|060400|060200,B000AB96IY,购物服务,综合市场,农副产品市场|购物服务,超级市场
116.2270974643099,40.02917723930045,龙泉果蔬店(龙泉驾校对面),龙泉驾校,北京市,北京市,西北旺,购物服务;综合市场;果品市场,060704,B0GRG6N2L1,购物服务,综合市场,果品市场,
116.2153959007536,40.02408305659663,五谷源食品(西北旺店),西北旺镇冷泉南羊坊路22号院(近龙泉驾校),北京市,北京市,西北旺,购物服务;综合市场;农副产品市场,060703,B0FFF34ZLP,购物服务,综合市场,农副产品市场,
116.22186893897974,40.02162196564201,孙利樱桃采摘1号园,冷泉东路-孙利樱桃园,北京市,北京市,,购物服务;综合市场;农副产品市场,060703,B0FFKOI9TE,购物服务,综合市场,农副产品市场,
116.24118526756126,40.03749968508984,糖炒栗子(韩家川村店),韩家川路34号盛川快捷酒店南侧20米路东,北京市,北京市,西北旺,购物服务;综合市场;果品市场,060704,B0FFH1412A,购物服务,综合市场,果品市场,
116.23359715432207,40.04944334123304,鲜美多生鲜超市,西北旺北路北京颐和中心诊所东80米,北京市,北京市,西北旺,购物服务;综合市场;农副产品市场,060703,B0FFH2RZ0H,购物服务,综合市场,农副产品市场,
116.19655636332,40.04536999853912,好乐家生鲜超市,龙潭街与画眉山东路交叉路口东南侧(水岸温泉),北京市,北京市,,购物服务;综合市场;农副产品市场,060703,B0FFH9E3TY,购物服务,综合市场,农副产品市场,
116.23196286657222,40.048780729216375,千喜鹤冷鲜肉,西北旺镇颐和山庄云锦园5号楼2单元,北京市,北京市,西北旺,购物服务;综合市场;农副产品市场,060703,B0FFM23JP9,购物服务,综合市场,农副产品市场,
116.22206479928761,39.99282339350069,老北京特产,香山买卖街中段,北京市,北京市,香山,购物服务;综合市场;农副产品市场,060703,B0FFL7BBD3,购物服务,综合市场,农副产品市场,
116.21797093609305,39.976484584065496,步步高厨房选优,门头馨园路,北京市,北京市,香山,购物服务;综合市场;农副产品市场,060703,B0G0CRXX47,购物服务,综合市场,农副产品市场,
116.21707458661608,39.97614976191981,北京洼洼石磨面粉,[],北京市,北京市,香山,购物服务;综合市场;农副产品市场,060703,B0G3HS6AIV,购物服务,综合市场,农副产品市场,
116.20134124250983,39.989029604684355,水果蔬菜店,香山南辛村10-1号,北京市,北京市,香山,购物服务;综合市场;蔬菜市场,060705,B0FFFZ41CQ,购物服务,综合市场,蔬菜市场,
116.20033990761605,39.99009214437027,幸福彩虹买菜超市,香山街道南辛村10-19号,北京市,北京市,香山,购物服务;综合市场;蔬菜市场,060705,B0FFIVNNVG,购物服务,综合市场,蔬菜市场,
116.20041006910077,39.990043246442006,邻和便民菜店,南辛村10号(香山街道第二社区服务站对面),北京市,北京市,香山,购物服务;综合市场;蔬菜市场,060705,B0FFG8RYMK,购物服务,综合市场,蔬菜市场,
116.20086638400889,39.97958732015557,蔬菜豆腐鸡蛋粮油,香山南路,北京市,北京市,香山,购物服务;综合市场;农副产品市场,060703,B0FFM0NVW7,购物服务,综合市场,农副产品市场,
116.20088040907382,39.97963333813427,主营水果蔬菜干果冷饮生活用品,香山南路红旗村4号院北炮社区服务中心,北京市,北京市,香山,购物服务;综合市场;农副产品市场,060703,B0FFKRT96O,购物服务,综合市场,农副产品市场,
116.2077175487462,39.97218769485074,糖炒栗子(京香店),京香广场超市,北京市,北京市,香山,购物服务;综合市场;果品市场,060704,B0FFK9H5PH,购物服务,综合市场,果品市场,
116.199396360226,39.99362564043548,霜叶水果蔬菜超市,香山南营56号,北京市,北京市,香山,购物服务;综合市场;农副产品市场|购物服务;综合市场;蔬菜市场,060703|060705,B0FFFQ79HX,购物服务,综合市场,农副产品市场|购物服务,综合市场
116.19897055385145,39.99240407201106,水果专卖店,[],北京市,北京市,香山,购物服务;综合市场;果品市场,060704,B0G3H564AU,购物服务,综合市场,果品市场,
116.1995637404777,39.993587884308305,爱心家园社区便民菜站,卧佛寺西路,北京市,北京市,香山,购物服务;综合市场;蔬菜市场,060705,B0G0CLXXJF,购物服务,综合市场,蔬菜市场,
116.19617095270628,39.99362584450059,五金店,煤厂街(香山佟峪东南侧约50米),北京市,北京市,香山,购物服务;家居建材市场;建材五金市场|购物服务;综合市场;综合市场,060603|060700,B0FFH14OUH,购物服务,家居建材市场,建材五金市场|购物服务,综合市场
116.2007331418836,39.9631877815646,三元牛奶,香山南路黄土坡9号,北京市,北京市,香山,购物服务;综合市场;农副产品市场,060703,B0FFFZDNIN,购物服务,综合市场,农副产品市场,
116.19376420890026,39.99374411166215,干果调料粮油,煤厂街3号附近,北京市,北京市,香山,购物服务;综合市场;农副产品市场,060703,B0G2R4I16G,购物服务,综合市场,农副产品市场,
116.24101111728645,39.965938820198865,果好鲜水果超市,四季青镇闵庄南路-C9号,北京市,北京市,,购物服务;综合市场;果品市场,060704,B0FFK29LAE,购物服务,综合市场,果品市场,
116.24093518479057,39.96513484509695,天天鲜水果干果超市(闵庄南路),闵庄南路9-a区西南70米,北京市,北京市,,购物服务;综合市场;果品市场,060704,B0FFG8SNHJ,购物服务,综合市场,果品市场,
116.23819587991238,39.964613472137124,京西菜市(泉馨苑店),闵庄南路京泉馨苑便民市场卖菜的第二家,北京市,北京市,,购物服务;综合市场;蔬菜市场,060705,B0FFL897IO,购物服务,综合市场,蔬菜市场,
116.22303392494003,39.92989064266079,锦绣大地批发市场(巨山路),田村路,北京市,北京市,,购物服务;综合市场;综合市场,060700,B000A7PMVI,购物服务,综合市场,综合市场,
116.21629117315683,39.92935985857921,阳澄湖大闸蟹,宝山中路(大地客户公寓),北京市,北京市,,购物服务;综合市场;水产海鲜市场,060706,B0FFJ04TBJ,购物服务,综合市场,水产海鲜市场,
116.2211820313987,39.94114175188688,巨山综合便民中心,四季青镇巨山路巨山馨苑小区往南200米,北京市,北京市,西山,购物服务;综合市场;蔬菜市场,060705,B0FFIL3GYJ,购物服务,综合市场,蔬菜市场,
116.22295584489291,39.92971459132845,锦绣大地生鲜食品厅,阜石路锦绣大地物流港一楼110号,北京市,北京市,,购物服务;综合市场;农副产品市场,060703,B0FFIG71WV,购物服务,综合市场,农副产品市场,
116.21722460796292,39.92971573779384,楼兰红枣,锦绣大地碧桐园小区7号楼211室,北京市,北京市,,购物服务;综合市场;果品市场,060704,B0FFGYVOCE,购物服务,综合市场,果品市场,
116.22306598985966,39.92970467408935,锦绣大地肉类批发,阜石路69号北京锦绣大地农副产品批发市场南临建31号1b097,北京市,北京市,,购物服务;综合市场;农副产品市场,060703,B0FFI9DQJ8,购物服务,综合市场,农副产品市场,
116.22306500200763,39.92959667770661,海纳百川生鲜店,阜石路69号锦绣大地农副产品批发市场一层D区080号,北京市,北京市,,购物服务;综合市场;农副产品市场,060703,B0FFMHCUDA,购物服务,综合市场,农副产品市场,
116.22234111959803,39.929014152236114,批发柴鸡蛋,锦绣大地物流港16号门,北京市,北京市,,购物服务;综合市场;农副产品市场,060703,B0FFHXQHY0,购物服务,综合市场,农副产品市场,
116.22306500287952,39.929589677989505,京深渔港生鲜超市,阜石路69号锦绣大地农副产品批发市场一层D区097号,北京市,北京市,,购物服务;综合市场;农副产品市场,060703,B0G3ZHQBNL,购物服务,综合市场,农副产品市场,
116.22313908256248,39.92972372774495,翁友才海鲜店,阜石路69号锦绣大地物流港1c141-143号,北京市,北京市,,购物服务;综合市场;水产海鲜市场,060706,B0FFKQE598,购物服务,综合市场,水产海鲜市场,
116.2254717295665,39.93178828381126,姐妹批发鸡蛋,田村路北50米,北京市,北京市,,购物服务;综合市场;农副产品市场,060703,B0FFHB2U57,购物服务,综合市场,农副产品市场,
116.22323714677715,39.930229780083216,鸿天和果业,锦绣大地物流港1C076,北京市,北京市,,购物服务;综合市场;果品市场,060704,B0FFK5QDIL,购物服务,综合市场,果品市场,
116.22323614548102,39.93022977934235,家和商贸,锦绣大地物流港1C057,北京市,北京市,,购物服务;综合市场;果品市场,060704,B0FFK63K0V,购物服务,综合市场,果品市场,
116.22323614548102,39.93022977934235,嘉利泰生活体验店,锦绣大地物流港1C138,北京市,北京市,,购物服务;综合市场;果品市场,060704,B0FFK90UEE,购物服务,综合市场,果品市场,
116.22307100995569,39.92959568222735,菜公社(五孔桥店),阜石路69号锦绣大地农副产品批发市场一层E区049A号,北京市,北京市,,购物服务;综合市场;果品市场,060704,B0HAF1X9WE,购物服务,综合市场,果品市场,
116.22429159749116,39.92933357711113,京宝鸿运,阜石路69号锦绣大地物流港1层,北京市,北京市,,购物服务;综合市场;果品市场,060704,B0GK3RSX2D,购物服务,综合市场,果品市场,
116.22323714677715,39.930229780083216,倍实在粮油,锦绣大地物流港1B139,北京市,北京市,,购物服务;综合市场;农副产品市场,060703,B0FFKB87E6,购物服务,综合市场,农副产品市场,
116.22323714677715,39.930229780083216,回民粮油,锦绣大地物流港1B033,北京市,北京市,,购物服务;综合市场;农副产品市场,060703,B0FFK65EO3,购物服务,综合市场,农副产品市场,
116.22323714677715,39.930229780083216,聚源隆粮油,锦绣大地物流港1B030,北京市,北京市,,购物服务;综合市场;农副产品市场,060703,B0FFK65B0J,购物服务,综合市场,农副产品市场,
116.20885466015538,39.93279562858387,丽园之家,田村路557号合众建国饭店南门,北京市,北京市,,购物服务;家居建材市场;家具建材综合市场,060601,B0FFGY7G6S,购物服务,家居建材市场,家具建材综合市场,
116.22316216328242,39.92931576134495,鼎盛诚达水果卡订购处,锦绣大地物流港1C039,北京市,北京市,,购物服务;综合市场;果品市场,060704,B0HG9YP73P,购物服务,综合市场,果品市场,
116.22303895961676,39.92966465552955,惠民生鲜超市,阜石路69号锦绣大地农副产品批发市场水产海鲜厅95号,北京市,北京市,,购物服务;综合市场;农副产品市场,060703,B0HAY10DVD,购物服务,综合市场,农副产品市场,
116.22236011373462,39.92926515674107,妙生鲜(锦绣大地店),阜石路68号锦绣大地物流港A区(16号门)蔬菜摊1A87号,北京市,北京市,,购物服务;综合市场;农副产品市场,060703,B0HA1DFDQE,购物服务,综合市场,农副产品市场,
116.22848617557983,39.931200140877976,盛达绿源蔬菜批发,田村路156附近,北京市,北京市,,购物服务;综合市场;蔬菜市场,060705,B0FFG36JNJ,购物服务,综合市场,蔬菜市场,
116.22429159699304,39.92933757694938,鲜果汇,锦绣大地物流港1C043号,北京市,北京市,,购物服务;综合市场;果品市场,060704,B0FFINH15Q,购物服务,综合市场,果品市场,
116.22383894798051,39.92998422897841,北京金福五常乔府大院大米直销公司,阜石路69号物流港东2楼2D022号,北京市,北京市,,购物服务;综合市场;农副产品市场,060703,B0FFHJZUY7,购物服务,综合市场,农副产品市场,
116.22822671842087,39.93267893648248,四川湖南广东腊味总经销,田村北路南100米,北京市,北京市,,购物服务;综合市场;农副产品市场,060703,B0FFG96CTE,购物服务,综合市场,农副产品市场,
116.22776533000055,39.93183070665498,胖子主食批发零售,田村路东100米,北京市,北京市,,购物服务;综合市场;农副产品市场,060703,B0FFG34K71,购物服务,综合市场,农副产品市场,
116.22725360879562,39.933129352994534,北京日兴同乐冻货批发中心,田村北路南50米,北京市,北京市,,购物服务;综合市场;农副产品市场,060703,B0FFG36JG8,购物服务,综合市场,农副产品市场,
116.22782542238375,39.931609750329585,山东老刘蔬菜批发配送零售,田村路,北京市,北京市,,购物服务;综合市场;蔬菜市场,060705,B0FFG34K7B,购物服务,综合市场,蔬菜市场,
116.2225698151737,39.925868455086054,百果园(西山国际城店),阜石路甲69号院12号楼1层1单元112号,北京市,北京市,,购物服务;综合市场;果品市场,060704,B0FFIC5V23,购物服务,综合市场,果品市场,
116.22418307816265,39.924379701654324,锦绣大地A区,阜石路甲69号院14,北京市,北京市,,商务住宅;楼宇;商务写字楼|购物服务;综合市场;农副产品市场,120201|060703,B0FFG2WKNV,商务住宅,楼宇,商务写字楼|购物服务,综合市场
116.22429020053441,39.92447077347718,明起干果批发,线1层附近,北京市,北京市,,购物服务;综合市场;果品市场,060704,B0FFGJ595U,购物服务,综合市场,果品市场,
116.22980334436555,39.932554785163795,大名府香油坊,田村北路南50米,北京市,北京市,,购物服务;综合市场;农副产品市场,060703,B0FFG34K7S,购物服务,综合市场,农副产品市场,
116.22317758305178,39.92610190294294,金锣调味料,阜石路西山国际城内,北京市,北京市,,购物服务;综合市场;农副产品市场,060703,B0FFK6KG7N,购物服务,综合市场,农副产品市场,
116.19393369549894,39.92122826897391,居然之家(八角店),阜石路168号,北京市,北京市,石景山,购物服务;家居建材市场;家具建材综合市场,060601,B0FFFDX0M1,购物服务,家居建材市场,家具建材综合市场,
116.2031843187691,39.93210840314918,西黄村便民菜站,田村路西黄新村南里3号楼,北京市,北京市,石景山,购物服务;综合市场;蔬菜市场,060705,B0FFL18ZZE,购物服务,综合市场,蔬菜市场,
116.22444234061513,39.924863864034016,海底捞调味品批发部,线2楼B区2排021号,北京市,北京市,,购物服务;综合市场;农副产品市场,060703,B0FFKBM9WP,购物服务,综合市场,农副产品市场,
116.2335092141611,39.92804859292615,天天果蔬鲜,田村西口圣华里一号楼底商8号烟酒便利店,北京市,北京市,,购物服务;综合市场;果品市场|餐饮服务;餐饮相关场所;餐饮相关,060704|050000,B0FFIQBANZ,购物服务,综合市场,果品市场|餐饮服务,餐饮相关场所
116.22434727178924,39.92446881363954,干果批发零售,阜石路,北京市,北京市,,购物服务;综合市场;农副产品市场,060703,B0FFLJH0LW,购物服务,综合市场,农副产品市场,
116.20328596978997,39.928614681105145,鲜果蔬水果店,晋元庄路5号院,北京市,北京市,石景山,购物服务;综合市场;果品市场,060704,B0FFLIEIRA,购物服务,综合市场,果品市场,
116.23234867716162,39.93265695219004,田村便民市场粮油(非餐),田村北路与砂石厂路交叉口西50米菜市场内,北京市,北京市,,购物服务;综合市场;农副产品市场,060703,B0FFKTTHW8,购物服务,综合市场,农副产品市场,
116.22273218979886,39.92458163094847,帅博鑫焱祥商贸,阜石路甲69号院14号楼锦绣大地农副产品批发市场F2层F2B2排021号,北京市,北京市,,购物服务;综合市场;综合市场,060700,B0FFI433MB,购物服务,综合市场,综合市场,
116.22296248630148,39.92462780257634,北京锦绣大地农副产品批发市场,四季青镇巨山路,北京市,北京市,,购物服务;综合市场;农副产品市场,060703,B0FFH5S19R,购物服务,综合市场,农副产品市场,
116.20272323547503,39.932934742347534,果然美(水果&干果&蔬菜),西黄村新村西里4号楼1层107,北京市,北京市,石景山,购物服务;综合市场;果品市场,060704,B0FFICG4UM,购物服务,综合市场,果品市场,
116.2229675102787,39.92448781205446,北京大地明珠商贸有限公司,线B1B5排10号,北京市,北京市,,购物服务;综合市场;农副产品市场|公司企业;公司;公司,060703|170200,B0FFF34MY9,购物服务,综合市场,农副产品市场|公司企业,公司
116.22336605030536,39.92430411542637,北京宁乡绿然商贸有限公司,[],北京市,北京市,,购物服务;综合市场;农副产品市场,060703,B0GRR7KN0R,购物服务,综合市场,农副产品市场,
116.22321983469033,39.924518998742556,北京首联五丰农副产品批发有限公司,阜石路69号甲,北京市,北京市,,购物服务;综合市场;农副产品市场,060703,B0FFGB7O6X,购物服务,综合市场,农副产品市场,
116.20086040765783,39.93128321710219,水果蔬菜,北工大北街与田村路交叉路口往南约50米,北京市,北京市,石景山,购物服务;综合市场;蔬菜市场,060705,B0HGUGDUZD,购物服务,综合市场,蔬菜市场,
116.22277826936954,39.92442967201505,云南过桥米线调料西府米线北京总代理,锦绣大地商务在线B区2楼2排13号,北京市,北京市,,购物服务;综合市场;农副产品市场,060703,B0FFKZTW4N,购物服务,综合市场,农副产品市场,
116.2002697016551,39.942513931784,壹公里果蔬(八大处店),香山南路西山枫林11楼底商,北京市,北京市,香山,购物服务;综合市场;果品市场,060704,B0FFK64VDN,购物服务,综合市场,果品市场,
116.19463186701154,39.94124555791861,百果园(西山枫林店),香山南路168号院2号楼一层114号,北京市,北京市,香山,购物服务;综合市场;果品市场,060704,B0FFHHYRU6,购物服务,综合市场,果品市场,
116.23492730448966,39.9280280819694,名烟名酒超市,田村路圣华里小区6号楼,北京市,北京市,,购物服务;专卖店;烟酒专卖店|购物服务;综合市场;蔬菜市场,061210|060705,B0FFH5J5SC,购物服务,专卖店,烟酒专卖店|购物服务,综合市场
116.22203311567657,39.92572104663732,京福祥副食经销处,锦绣大地批发市场西4楼1层10号,北京市,北京市,,购物服务;综合市场;农副产品市场,060703,B000A7PNI8,购物服务,综合市场,农副产品市场,
116.23612614646878,39.928026436359424,鲜然四季果蔬,田村后街与田村路交叉口东南150米圣华里6号楼底商,北京市,北京市,,购物服务;综合市场;果品市场,060704,B0FFL4PH7Y,购物服务,综合市场,果品市场,
116.2375687945128,39.94628206339856,干果超市,四季青南平庄192号,北京市,北京市,西山,购物服务;综合市场;果品市场,060704,B0FFF5ECKO,购物服务,综合市场,果品市场,
116.22902464159164,39.94800776708928,青菜,,北京市,北京市,西山,购物服务;综合市场;蔬菜市场,060705,B0FFLHI7US,购物服务,综合市场,蔬菜市场,
116.21865657914445,39.899357333339076,匠心奶站,永乐西小区39号楼平房院内鲁谷老街坊便民服务市场内,北京市,北京市,永乐,购物服务;综合市场;农副产品市场,060703,B0HBOYKT0Q,购物服务,综合市场,农副产品市场,
116.21809975339777,39.89922083578082,社区商业便民小院,鲁谷南路鲁谷奥运文化公园东门北行20米路东,北京市,北京市,石景山,购物服务;综合市场;综合市场,060700,B0FFG8G84F,购物服务,综合市场,综合市场,
116.22213442951573,39.90016320856708,郑顺斋酱肉店,鲁谷大街11号(永乐社区卫生服务站东南),北京市,北京市,石景山,购物服务;综合市场;农副产品市场|餐饮服务;餐饮相关场所;餐饮相关,060703|050000,B0FFGIDJME,购物服务,综合市场,农副产品市场|餐饮服务,餐饮相关场所
116.21856146040363,39.89916225672828,鲁谷便民综合市场,永乐西小区39号楼,北京市,北京市,永乐,购物服务;综合市场;综合市场,060700,B0HGK5HYTR,购物服务,综合市场,综合市场,
116.2183401189434,39.89922005447856,邻里万家老街坊便民服务中心,永乐西小区39号楼平方院内,北京市,北京市,石景山,购物服务;综合市场;综合市场,060700,B0FFK0NFO8,购物服务,综合市场,综合市场,
116.21119444404252,39.897261852032905,北京方圆六合菜市场,六合园12附近,北京市,北京市,石景山,购物服务;综合市场;蔬菜市场|购物服务;综合市场;农副产品市场,060705|060703,B0FFFXT6TJ,购物服务,综合市场,蔬菜市场|购物服务,综合市场
116.21196458483844,39.899238625768064,佳栗香干果(依翠园店),[],北京市,北京市,石景山,购物服务;综合市场;果品市场,060704,B0FFK5CG3O,购物服务,综合市场,果品市场,
116.22291975976995,39.89784291265588,壹公里果蔬(石景山五芳园店),鲁谷大街21-8号,北京市,北京市,永乐,购物服务;综合市场;果品市场,060704,B0FFL45E4N,购物服务,综合市场,果品市场,
116.21938228494332,39.902349841785096,快水果,永乐西小区3号楼4单元101室,北京市,北京市,永乐,购物服务;综合市场;果品市场,060704,B0FFGFYVJK,购物服务,综合市场,果品市场,
116.21001932783301,39.89689651866045,牛街清真肉铺,半月园南路七星园小区12号楼商铺,北京市,北京市,石景山,购物服务;综合市场;农副产品市场,060703,B0FFH0WENG,购物服务,综合市场,农副产品市场,
116.21611527690898,39.90214082900646,2003水果店,鲁谷路紫御国际,北京市,北京市,石景山,购物服务;综合市场;果品市场,060704,B0FFL6UTOO,购物服务,综合市场,果品市场,
116.22274418032009,39.9006516549367,永乐鲜水果蔬菜,[],北京市,北京市,永乐,购物服务;综合市场;果品市场,060704,B0G0Z5YFMQ,购物服务,综合市场,果品市场,
116.21101911271413,39.897360648809446,菜老包(芳园美菜市场店),六合园12号楼首层2号方圆六合农贸市场内14号,北京市,北京市,石景山,购物服务;综合市场;蔬菜市场,060705,B0FFK9KVVJ,购物服务,综合市场,蔬菜市场,
116.21119643970434,39.897325851414166,24生鲜(六合园店),六合园12号楼首层,北京市,北京市,石景山,购物服务;综合市场;果品市场,060704,B0H6LPCAQ0,购物服务,综合市场,果品市场,
116.21096300613934,39.8973945834792,恒康粮油,六合园12号楼底商方园六合,北京市,北京市,石景山,购物服务;综合市场;农副产品市场,060703,B0FFIWPSVU,购物服务,综合市场,农副产品市场,
116.21101709435386,39.897478641216416,芳圆鲜果水果店,六合园12号楼方圆美市场底商,北京市,北京市,石景山,购物服务;综合市场;果品市场,060704,B0G3A7GKS1,购物服务,综合市场,果品市场,
116.22261901240856,39.900673558928524,优味田园生鲜连锁超市(永乐西小区店),鲁谷大街永乐西小区57号楼底商,北京市,北京市,石景山,购物服务;综合市场;农副产品市场,060703,B0FFKV8L77,购物服务,综合市场,农副产品市场,
116.21051018350558,39.89733006797797,菜市场,七星街六合园,北京市,北京市,石景山,购物服务;综合市场;蔬菜市场,060705,B0FFG9UGMV,购物服务,综合市场,蔬菜市场,
116.21085481614709,39.89733246296771,六合园农贸市场,半月园南路与七星东街交叉路口往南约100米,北京市,北京市,石景山,购物服务;综合市场;综合市场,060700,B0FFHS3FXU,购物服务,综合市场,综合市场,
116.2110231206423,39.89735565358818,缤纷果蔬(北京方圆六合店),六合园12号楼首层2号方圆六合农贸市场31号,北京市,北京市,石景山,购物服务;综合市场;果品市场,060704,B0G3V4CFV9,购物服务,综合市场,果品市场,
116.22480958596641,39.90238706800843,便民水果蔬菜,鲁谷路114-10号,北京市,北京市,石景山,购物服务;综合市场;果品市场,060704,B0FFIWNIRF,购物服务,综合市场,果品市场,
116.21145874719107,39.898672086759184,百菜宴(鲁谷依翠园店),鲁谷南路依翠园14号楼底商,北京市,北京市,石景山,购物服务;综合市场;蔬菜市场,060705,B0G231F17M,购物服务,综合市场,蔬菜市场,
116.21132366343656,39.89738199254848,芳园美菜市场,六合园12号楼底商(近石景山银河小学),北京市,北京市,石景山,购物服务;综合市场;综合市场,060700,B000A7OX1Q,购物服务,综合市场,综合市场,
116.22452877040664,39.89812706348068,中国印象有机谷食品安全成果展,鲁谷大街12号永乐东区36号楼,北京市,北京市,永乐,购物服务;综合市场;农副产品市场,060703,B0FFKEAPCA,购物服务,综合市场,农副产品市场,
116.22020228106292,39.90390647660061,鲜榨水果吧,政达路北方中惠国际C座华夏信用卡中心,北京市,北京市,石景山,购物服务;综合市场;果品市场,060704,B0HAFHTQ1T,购物服务,综合市场,果品市场,
116.21873797973251,39.90516115057073,举个栗子(万达广场店),石景山路乙18号院4号楼万达广场三层3F-X028,北京市,北京市,石景山,购物服务;综合市场;果品市场,060704,B0G1ZY3YB4,购物服务,综合市场,果品市场,
116.221006602093,39.90243020905652,永乐西小区便民老街坊莱市场,鲁谷街道鲁谷路116号永乐西小区便民老街坊莱市场,北京市,北京市,石景山,购物服务;综合市场;综合市场,060700,B0G3AZDA8A,购物服务,综合市场,综合市场,
116.22648102891158,39.89862233126663,东区粮店,莲石东路永乐东小区39号楼5单元2层201,北京市,北京市,永乐,购物服务;综合市场;农副产品市场,060703,B0FFFAEIYI,购物服务,综合市场,农副产品市场,
116.22781518437044,39.90125001805073,吃了乐果蔬店(永乐店),鲁谷大街永乐小区69号楼底商,北京市,北京市,石景山,购物服务;综合市场;蔬菜市场,060705,B0FFH5GGTG,购物服务,综合市场,蔬菜市场,
116.2261181439109,39.90238493464182,鲜领惠火锅烧烤食材超市,"鲁谷路,永乐东区76号楼底商",北京市,北京市,石景山,购物服务;综合市场;农副产品市场,060703,B0GKRUCXLM,购物服务,综合市场,农副产品市场,
116.20861716977957,39.90097467301359,北京菜篮子社区生活超市,银河大街13-1依翠园3号楼,北京市,北京市,石景山,购物服务;综合市场;蔬菜市场|购物服务;超级市场;超市,060705|060400,B0FFITL2GR,购物服务,综合市场,蔬菜市场|购物服务,超级市场
116.23022460529734,39.90156429342522,百果园(鲁谷东街店),鲁谷东街远洋山水北区6号楼1层,北京市,北京市,石景山,购物服务;综合市场;果品市场,060704,B0FFIISU2Q,购物服务,综合市场,果品市场,
116.22934897357926,39.89971293135175,糖炒栗子,[],北京市,北京市,永乐,购物服务;综合市场;果品市场,060704,B0G0YZJW2X,购物服务,综合市场,果品市场,
116.2217202976004,39.90475868117072,樱花集市(丰台万达广场店),万达广场一层中厅,北京市,北京市,石景山,购物服务;综合市场;综合市场,060700,B0G3AP9JLW,购物服务,综合市场,综合市场,
116.21877274408071,39.907475081368055,迪亚天天(老山店),老山东里,北京市,北京市,石景山,购物服务;综合市场;农副产品市场|购物服务;便民商店/便利店;便民商店/便利店,060703|060200,B0FFFZJWK8,购物服务,综合市场,农副产品市场|购物服务,便民商店/便利店
116.20826300298594,39.90487207287166,宝能生鲜(翠园西路店),石景山路24号南楼1层底商7号,北京市,北京市,石景山,购物服务;综合市场;农副产品市场,060703,B0G03HGMCG,购物服务,综合市场,农副产品市场,
116.22562427073998,39.8886532381686,鲜肉专卖店,鲁谷大街51号,北京市,北京市,石景山,购物服务;综合市场;农副产品市场,060703,B0G3ZBMS0Y,购物服务,综合市场,农副产品市场,
116.2117530618411,39.90843598869012,壹公里果蔬（老山西里店）,石景山路老山西里,北京市,北京市,石景山,购物服务;综合市场;果品市场,060704,B0FFJIXHXX,购物服务,综合市场,果品市场,
116.23133488832175,39.89959890382071,家合蔬菜水果,鲁谷村7-17鲁谷村路,北京市,北京市,石景山,购物服务;综合市场;蔬菜市场,060705,B0FFF5I68W,购物服务,综合市场,蔬菜市场,
116.22563527207842,39.8887472409849,一楼便民菜市,鲁谷大街53附近,北京市,北京市,石景山,购物服务;综合市场;蔬菜市场,060705,B0FFL81YQD,购物服务,综合市场,蔬菜市场,
116.22933170811818,39.90171083366285,李记·糖炒板栗(鲁谷昌乐店),永乐东区72号首层1-6号,北京市,北京市,永乐,购物服务;综合市场;果品市场,060704,B0HATR27GG,购物服务,综合市场,果品市场,
116.19905995544843,39.8947741771322,石景山社区便民菜店,景阳东街65号院2号楼底商,北京市,北京市,衙门口,购物服务;综合市场;蔬菜市场,060705,B0FFIK479K,购物服务,综合市场,蔬菜市场,
116.23657125001951,39.89735885854815,新鲜水果,八宝山街道远洋山水(南区)远洋山水南区东门29一9,北京市,北京市,石景山,购物服务;综合市场;果品市场,060704,B0HG6YCQ91,购物服务,综合市场,果品市场,
116.23670633290376,39.89739489125535,甜妈的肉铺,八宝山街道远洋山水南区,北京市,北京市,石景山,购物服务;综合市场;农副产品市场,060703,B0FFKCPFRF,购物服务,综合市场,农副产品市场,
116.23420589994683,39.90278190545233,仟果鲜,鲁谷路附近,北京市,北京市,石景山,购物服务;综合市场;果品市场,060704,B0FFL4LO31,购物服务,综合市场,果品市场,
116.23584655285349,39.89907458568794,友邻优选,玉泉西里二区22号楼1层,北京市,北京市,石景山,购物服务;综合市场;蔬菜市场|购物服务;便民商店/便利店;便民商店/便利店,060705|060200,B0GR6NWW3D,购物服务,综合市场,蔬菜市场|购物服务,便民商店/便利店
116.19406248047383,39.90141531198466,吉祥果蔬园,体育场西街拾景名苑20号院106底商,北京市,北京市,石景山,购物服务;综合市场;果品市场,060704,B0FFLBS8JM,购物服务,综合市场,果品市场,
116.2375366089947,39.899335000186454,汇百佳生鲜(石景山生鲜店),鲁谷路74号院39号楼,北京市,北京市,石景山,购物服务;综合市场;农副产品市场,060703,B0GR513SLZ,购物服务,综合市场,农副产品市场,
116.19566630813239,39.9093494563484,果又多,八角南路48-3号,北京市,北京市,石景山,购物服务;综合市场;果品市场,060704,B0FFGZYZA7,购物服务,综合市场,果品市场,
116.20332917657402,39.88757651140029,二商集团大红门肉联厂冷却排酸肉,衙门口东街10号附近,北京市,北京市,衙门口,购物服务;综合市场;农副产品市场,060703,B0FFH98EBZ,购物服务,综合市场,农副产品市场,
116.1950618688571,39.90141086915454,拾景名苑果蔬店,拾景北路与体育场南街交叉路口往西约150米,北京市,北京市,石景山,购物服务;综合市场;果品市场,060704,B0FFKTENMB,购物服务,综合市场,果品市场,
116.24094567172851,39.8888400133255,兆丰园服务中心,吴家村路96号附近,北京市,北京市,石景山,购物服务;综合市场;农副产品市场,060703,B0FFHB3TQP,购物服务,综合市场,农副产品市场,
116.2417582002632,39.90338041577449,花鸟鱼工艺品市场,石槽中街与鲁谷路交叉口西北100米,北京市,北京市,石景山,购物服务;综合市场;综合市场,060700,B0FFGBMP39,购物服务,综合市场,综合市场,
116.26780316613615,40.137552396540016,昌平民园小区生鲜便民店,于善街(民园小区东南侧),北京市,北京市,沙河,购物服务;综合市场;农副产品市场,060703,B0FFM3EJ43,购物服务,综合市场,农副产品市场,
116.26345933831233,40.13164553360068,优品生鲜(北京沙湖店),沙河镇北二村(八达岭高速路西白土场),北京市,北京市,沙河,购物服务;综合市场;农副产品市场,060703,B0FFK699C7,购物服务,综合市场,农副产品市场,
116.2627958912105,40.13079610070924,京昌二手家具家电办公家具,沙河镇工商南街,北京市,北京市,沙河,购物服务;综合市场;旧货市场,060702,B0FFMFJSXA,购物服务,综合市场,旧货市场,
116.261867607578,40.12978385078333,百旺蔬果,沙河镇巩华大街86号,北京市,北京市,沙河,购物服务;综合市场;蔬菜市场,060705,B0HAGMW62V,购物服务,综合市场,蔬菜市场,
116.2693230971303,40.142835466831876,美团买菜(沙河店),沙河镇路松街顺沙路19号院3区9-5,北京市,北京市,沙河,购物服务;综合市场;农副产品市场,060703,B0GRNLDJCS,购物服务,综合市场,农副产品市场,
116.26275959879045,40.14127210424868,新鲜蔬菜水果店,沙河镇路庄村德福公寓01号室,北京市,北京市,沙河,购物服务;综合市场;果品市场,060704,B0FFMDNH06,购物服务,综合市场,果品市场,
116.2549970229697,40.13496623740858,小胡蔬菜水果超市,李庄路(万家创业园南侧),北京市,北京市,沙河,购物服务;综合市场;蔬菜市场,060705,B0G0K1VKUZ,购物服务,综合市场,蔬菜市场,
116.26282156518559,40.125295591888495,新旧家电出售回收,沙河镇工商街78号附近,北京市,北京市,沙河,购物服务;综合市场;旧货市场,060702,B0GUF1FEFL,购物服务,综合市场,旧货市场,
116.26921623285789,40.14256859498353,百菜宴(悦鲜果蔬生鲜超市店),沙河镇百沙路顺沙路19号院3区南门9-2底商,北京市,北京市,沙河,购物服务;综合市场;蔬菜市场,060705,B0GKUXODV0,购物服务,综合市场,蔬菜市场,
116.27343465288001,40.14387919145814,黄记牛羊肉店,路松街顺沙路19号院一区6号楼底商6-1,北京市,北京市,沙河,购物服务;综合市场;农副产品市场,060703,B0FFH71SGC,购物服务,综合市场,农副产品市场,
116.26448155931836,40.124090452747524,红都市场,工商南街,北京市,北京市,沙河,购物服务;综合市场;旧货市场,060702,B000A9PVOZ,购物服务,综合市场,旧货市场,
116.26738047806298,40.122118219884705,惠宾清真肉食部,安济桥路甲3号院底商,北京市,北京市,沙河,购物服务;综合市场;农副产品市场,060703,B0FFG96IRI,购物服务,综合市场,农副产品市场,
116.25430720348331,40.13496053193474,超吉特菜市场,李庄路(万家创业园南侧),北京市,北京市,沙河,购物服务;综合市场;综合市场,060700,B0G2U41LBN,购物服务,综合市场,综合市场,
116.26131579043735,40.122997847590625,鑫之星市场,沙河镇巩华大街58号,北京市,北京市,沙河,购物服务;综合市场;综合市场,060700,B000A8817R,购物服务,综合市场,综合市场,
116.277795418907,40.14286728935355,特盛源生鲜超市,沙河能源南街西区北门,北京市,北京市,沙河,购物服务;综合市场;农副产品市场,060703,B0FFHRJ0EC,购物服务,综合市场,农副产品市场,
116.26188445295685,40.122969463779135,天鲜郡果蔬(沙河大桥店),沙河镇巩华城大街28号鑫之星农副产品零售市场内农贸厅水果区2号,北京市,北京市,沙河,购物服务;综合市场;农副产品市场,060703,B0FFKUO0DM,购物服务,综合市场,农副产品市场,
116.2599712327025,40.12540649740544,二粮库菜市场,沙河镇站前路1号,北京市,北京市,沙河,购物服务;综合市场;综合市场,060700,B0FFG8E7SY,购物服务,综合市场,综合市场,
116.26132178704778,40.1229968436667,沙河农贸市场(非餐),沙河镇站前路11号昌平沙河鑫之新农贸市场,北京市,北京市,沙河,购物服务;综合市场;农副产品市场,060703,B0G3Z9U36Y,购物服务,综合市场,农副产品市场,
116.2815350264167,40.144333394392284,A+生鲜(北二村店),沙河镇北二村顺沙路8号院一区1号楼06号底商,北京市,北京市,沙河,购物服务;综合市场;农副产品市场,060703,B0FFMAZR4K,购物服务,综合市场,农副产品市场,
116.26742145644496,40.122006193739224,安记牛羊肉,扶京门路甲4号靠近沙河奶站西20米,北京市,北京市,沙河,购物服务;综合市场;农副产品市场,060703,B0FFI91YR3,购物服务,综合市场,农副产品市场,
116.26103097436034,40.122847050265186,果君淑菜(鑫之星店),巩华城大街28号鑫之星农副产品零售市场农贸厅2号,北京市,北京市,沙河,购物服务;综合市场;果品市场,060704,B0FFK0Y1Z4,购物服务,综合市场,果品市场,
116.27505615070052,40.14864990104617,菜老包(兆丰家园店),兆丰家园西区6号楼底商,北京市,北京市,沙河,购物服务;综合市场;农副产品市场,060703,B0FFMHARYN,购物服务,综合市场,农副产品市场,
116.26168159445173,40.122825615814094,京西菜市(鑫之星店),站前路鑫之星购物中心内,北京市,北京市,沙河,购物服务;综合市场;蔬菜市场,060705,B0FFLBYKWS,购物服务,综合市场,蔬菜市场,
116.268974083894,40.121719808497815,六六八八菜店,扶京门路与安济桥路交叉路口往东约100米,北京市,北京市,沙河,购物服务;综合市场;蔬菜市场,060705,B0HGRHN8EM,购物服务,综合市场,蔬菜市场,
116.26118292461851,40.122545976642655,比邻鲜(鑫星店),沙河镇巩华城大街28号北京沙河鑫之星农副产品零售市场农贸厅2号,北京市,北京市,沙河,购物服务;综合市场;果品市场,060704,B0FFIQSYD5,购物服务,综合市场,果品市场,
116.27861167041371,40.14809274598482,五五田园鲜果,沙河镇百沙路兆丰家园便民市场东区,北京市,北京市,沙河,购物服务;综合市场;农副产品市场,060703,B0FFK9EGAV,购物服务,综合市场,农副产品市场,
116.26211434147946,40.12272432627253,鑫之星便民菜市场,沙河镇巩华大街28号沙河鑫之星农副产品零售市场,北京市,北京市,沙河,购物服务;综合市场;综合市场,060700,B0FFIBSI58,购物服务,综合市场,综合市场,
116.26895307841475,40.12192081023629,蔬菜水果,扶京门路与安济桥路交叉路口往东约50米,北京市,北京市,沙河,购物服务;综合市场;农副产品市场,060703,B0FFIISK14,购物服务,综合市场,农副产品市场,
116.2608980219163,40.1230711174918,农贸大厅,沙河镇巩华大街28号,北京市,北京市,沙河,购物服务;综合市场;综合市场,060700,B0FFJKC4U8,购物服务,综合市场,综合市场,
116.26307090357416,40.12128277101837,首茂便民综合体,S216(G110辅路),北京市,北京市,沙河,购物服务;综合市场;综合市场,060700,B0FFMDFW9B,购物服务,综合市场,综合市场,
116.28156580226216,40.14575320671126,A+生鲜(巩华家园店),沙河镇巩华家园8号院一区2号楼底商,北京市,北京市,沙河,购物服务;综合市场;农副产品市场,060703,B0G29SO9IM,购物服务,综合市场,农副产品市场,
116.27407023835133,40.14929893213578,2号铺子,六环以内沙河镇南丰路,北京市,北京市,沙河,购物服务;综合市场;果品市场,060704,B0G1LZ69YG,购物服务,综合市场,果品市场,
116.28519428967155,40.14536026775569,农夫生鲜超市,沙河镇于辛庄北四条一号西门向东300米,北京市,北京市,沙河,购物服务;综合市场;农副产品市场|购物服务;超级市场;超市,060703|060400,B0G13BYEB6,购物服务,综合市场,农副产品市场|购物服务,超级市场
116.27857477583093,40.147651838118904,活鱼海鲜超市(兆丰店),新飞达电子科技中心南门(兆丰便民市场南门西43号),北京市,北京市,沙河,购物服务;综合市场;水产海鲜市场,060706,B0FFKRT6EM,购物服务,综合市场,水产海鲜市场,
116.27357272830523,40.1499704040836,智农生鲜超市,高教园南三街南50米,北京市,北京市,沙河,购物服务;综合市场;农副产品市场,060703,B0FFJZ5X8I,购物服务,综合市场,农副产品市场,
116.2786267113362,40.1476067785608,北京二商(大红门五肉联专卖店),沙河镇福田西路中石化加油站隔壁,北京市,北京市,沙河,购物服务;综合市场;农副产品市场,060703,B0FFKT9U1I,购物服务,综合市场,农副产品市场,
116.27836101736975,40.14801806334526,优品生鲜(沙河店),沙河镇兆丰家园东区南门对面西32号,北京市,北京市,沙河,购物服务;综合市场;农副产品市场,060703,B0G0C9XQ0Y,购物服务,综合市场,农副产品市场,
116.25179319817556,40.14659028351115,满井家佳蔬菜水果店,沙河满井东队G6北京神康康复医院,北京市,北京市,沙河,购物服务;综合市场;蔬菜市场,060705,B0FFFDBWZH,购物服务,综合市场,蔬菜市场,
116.2810455952026,40.145471920366745,新发地菜篮子便民直营店(巩华家园北二村分店),路松街(巩华家园-北二村),北京市,北京市,沙河,购物服务;综合市场;蔬菜市场,060705,B0FFKW0E40,购物服务,综合市场,蔬菜市场,
116.2784138910543,40.14845695185762,王胖子干调批发零售,南丰路62号附近,北京市,北京市,沙河,购物服务;综合市场;农副产品市场,060703,B0FFIUCR8B,购物服务,综合市场,农副产品市场,
116.27751895363866,40.149440938673976,养乃世家(沙河店),百沙路辅路沙河镇兆丰家园西区南门,北京市,北京市,沙河,购物服务;综合市场;农副产品市场|购物服务;专卖店;专营店,060703|061200,B0G0S5ZCPH,购物服务,综合市场,农副产品市场|购物服务,专卖店
116.27769471836177,40.14947872221557,阳坊尚源斋牛羊肉,沙河镇兆丰家园东区10号楼底商107号,北京市,北京市,沙河,购物服务;综合市场;农副产品市场,060703,B0FFKG8GU1,购物服务,综合市场,农副产品市场,
116.26623801738167,40.11753960623389,北京二商大红门肉类食品旗舰店,沙河镇巩华城大街6号21号楼一层101,北京市,北京市,沙河,购物服务;综合市场;农副产品市场,060703,B0FFKVX2FB,购物服务,综合市场,农副产品市场,
116.26622302448425,40.11758061530501,大红门冷鲜肉直营店,沙河镇南大桥西面,北京市,北京市,沙河,购物服务;综合市场;农副产品市场,060703,B000A883A3,购物服务,综合市场,农副产品市场,
116.25376315903009,40.120372099465484,天天新鲜蔬菜水果店,沙河镇沙阳路11号西侧平房-27号(临时),北京市,北京市,,购物服务;综合市场;果品市场,060704,B0HB27VPLT,购物服务,综合市场,果品市场,
116.2610186579249,40.117457532563485,华联果蔬生鲜超市(保利罗兰店),沙河镇沙阳路32号院8号楼底商,北京市,北京市,沙河,购物服务;综合市场;果品市场,060704,B0FFHBUX5X,购物服务,综合市场,果品市场,
116.27827010362644,40.14830014535844,海鲜,丰善东路与百沙路交叉口东北200米,北京市,北京市,沙河,购物服务;综合市场;水产海鲜市场,060706,B0FFIUCR8J,购物服务,综合市场,水产海鲜市场,
116.29130792531102,40.14506614990735,每日生鲜(于辛庄店),于新庄路(三号公寓),北京市,北京市,沙河,购物服务;综合市场;农副产品市场,060703,B0GDL7L8SK,购物服务,综合市场,农副产品市场,
116.29042672504424,40.14327870734606,富地家园水果店,沙河镇于辛庄富地家园富地家园水果店,北京市,北京市,沙河,购物服务;综合市场;果品市场,060704,B0HGUPE8S4,购物服务,综合市场,果品市场,
116.26754012385767,40.11586762480085,沙河大集,[],北京市,北京市,,购物服务;综合市场;综合市场,060700,B0HAA74DWC,购物服务,综合市场,综合市场,
116.24964062952326,40.12033840476123,大山栗子,沙河镇沙阳路一通小区六号楼,北京市,北京市,,购物服务;综合市场;果品市场,060704,B0HG6LF3I7,购物服务,综合市场,果品市场,
116.26088574791727,40.11734262970697,惠民天下蔬果超市(芳园店),福田居住区规划一路(保利芳园),北京市,北京市,沙河,购物服务;综合市场;蔬菜市场,060705,B0G2UB1RHO,购物服务,综合市场,蔬菜市场,
116.2670827139669,40.11432615790169,鸽子市场(暂停营业),京藏高速沙河南大桥沙河南一休闲广场内,北京市,北京市,,购物服务;综合市场;综合市场,060700,B0FFGVWGA3,购物服务,综合市场,综合市场,
116.29129496442873,40.1449411831727,新旧家具家电,于辛庄村,北京市,北京市,沙河,购物服务;综合市场;旧货市场,060702,B0FFG96UN0,购物服务,综合市场,旧货市场,
116.24576026046401,40.144460746542194,胖子粮油调料酒水饮料批发部,满白路北50米,北京市,北京市,,购物服务;综合市场;农副产品市场,060703,B0FFITVKNK,购物服务,综合市场,农副产品市场,
116.29216260547446,40.151161157586756,百旺生鲜,于辛庄村北二条17号,北京市,北京市,沙河,购物服务;综合市场;农副产品市场,060703,B0GKVZ2AZB,购物服务,综合市场,农副产品市场,
116.28611641628832,40.148406627617334,阳坊胜利羊肉·火锅食材超市,沙河镇政府东100米,北京市,北京市,沙河,购物服务;综合市场;农副产品市场,060703,B0G3DR4AJI,购物服务,综合市场,农副产品市场,
116.28977908405943,40.14946905883385,胖子粮油调料,百沙路(兰堡公寓西南侧约50米),北京市,北京市,沙河,购物服务;综合市场;农副产品市场,060703,B0G1ZN0EFA,购物服务,综合市场,农副产品市场,
116.29209527476723,40.14683972338461,果天下水果干果(于辛庄店),[],北京市,北京市,沙河,购物服务;综合市场;果品市场,060704,B0G0G7JZHB,购物服务,综合市场,果品市场,
116.29257287582165,40.150988523111955,松兰堡便民市场,百沙路(蓝天宾馆东侧约100米),北京市,北京市,沙河,购物服务;综合市场;综合市场,060700,B0FFLGBFTK,购物服务,综合市场,综合市场,
116.2586499648095,40.116757051891405,新发地菜篮子社区便民服务店(保利罗兰店),沙阳路32号保利罗兰香谷(昌平区第四实验小学对面),北京市,北京市,沙河,购物服务;综合市场;蔬菜市场,060705,B0FFKU48MI,购物服务,综合市场,蔬菜市场,
116.2440310878833,40.11076396398128,好运来水果店,老牛湾路沙河镇小博士幼儿园附近,北京市,北京市,,购物服务;综合市场;果品市场,060704,B0FFHKUY5V,购物服务,综合市场,果品市场,
116.26241281575659,40.07757960819108,首鲜选生鲜超市(友谊路店),友谊路102号院西门20号,北京市,北京市,,购物服务;综合市场;农副产品市场,060703,B0G29SMTLO,购物服务,综合市场,农副产品市场,
116.28339446650742,40.09491124371779,祥云小混沌(永旺国际商城店),北清路1号永旺国际商城2层,北京市,北京市,回龙观,购物服务;综合市场;果品市场,060704,B0FFH9J5YR,购物服务,综合市场,果品市场,
116.28315880053103,40.09511855104117,举个栗子(昌平永旺店),回龙观镇北清路1号院1号楼一层101内S-1-2,北京市,北京市,回龙观,购物服务;综合市场;果品市场,060704,B0GKA6WQSI,购物服务,综合市场,果品市场,
116.28022887631185,40.096936299952894,精品水果生活超市,市场中路(珠江摩尔国际中心),北京市,北京市,回龙观,购物服务;综合市场;果品市场,060704,B0FFKT1FUB,购物服务,综合市场,果品市场,
116.24639349557599,40.063625139714496,鲜乐安民果蔬,永旺家园五区(永捷南路南)01号,北京市,北京市,西北旺,购物服务;综合市场;果品市场|购物服务;便民商店/便利店;便民商店/便利店,060704|060200,B0FFI0S108,购物服务,综合市场,果品市场|购物服务,便民商店/便利店
116.26789983214366,40.059862307559904,逸心苑多肉大棚,土井东路图景周末开心菜园102号大棚,北京市,北京市,西北旺,购物服务;综合市场;综合市场,060700,B0FFL9ODMQ,购物服务,综合市场,综合市场,
116.27334321579053,40.10843354243042,金陵网苑菜市场,回龙观定福黄庄村,北京市,北京市,,购物服务;综合市场;综合市场,060700,B0FFIDSLPS,购物服务,综合市场,综合市场,
116.24472407814478,40.06433223669836,永丰鲜花,永旺家园二区,北京市,北京市,西北旺,购物服务;综合市场;果品市场,060704,B0HANDMF0N,购物服务,综合市场,果品市场,
116.28457506714723,40.107336638895255,果蔬市场,回龙观镇定福皇庄村世纪华联超市果蔬市场,北京市,北京市,,购物服务;综合市场;综合市场,060700,B0FFMB5XP9,购物服务,综合市场,综合市场,
116.26885061527999,40.03070301993777,兰园果蔬店,兰园小区西门,北京市,北京市,马连洼,购物服务;综合市场;蔬菜市场,060705,B0FFH9BXQD,购物服务,综合市场,蔬菜市场,
116.2709388590278,40.028362121083525,好粮油水果超市(百旺店),圆明园西路18号中发百旺商城1层底商,北京市,北京市,马连洼,购物服务;综合市场;综合市场,060700,B0FFF6XH04,购物服务,综合市场,综合市场,
116.27018114352266,40.04019326771591,来抓人水果超市,新浪总部大厦,北京市,北京市,马连洼,购物服务;综合市场;果品市场,060704,B0FFKSL87E,购物服务,综合市场,果品市场,
116.27246281095424,40.03180738964508,天维天秀新疆优质农产品专卖,马连洼北路146附近,北京市,北京市,马连洼,购物服务;综合市场;农副产品市场,060703,B0FFH13F8D,购物服务,综合市场,农副产品市场,
116.27117046265069,40.02961782684709,蔬心食客便民菜店(第五分店),圆明园西路16-301号附近,北京市,北京市,西北旺,购物服务;综合市场;蔬菜市场,060705,B0FFIUR53D,购物服务,综合市场,蔬菜市场,
116.27405953599074,40.01962126597878,好想你枣(圆明园西路店),圆明园西路19-3号,北京市,北京市,马连洼,购物服务;综合市场;果品市场,060704,B000A9IQQS,购物服务,综合市场,果品市场,
116.26377864407432,40.02370964089619,便民超市,天秀北路羊场1号,北京市,北京市,西北旺,购物服务;综合市场;蔬菜市场|购物服务;超级市场;超市,060705|060400,B0FFGJG6K8,购物服务,综合市场,蔬菜市场|购物服务,超级市场
116.27927033361152,40.03228550610298,果蔬百货店,马连洼北路128号西50米,北京市,北京市,马连洼,购物服务;综合市场;果品市场,060704,B0FFJC846Y,购物服务,综合市场,果品市场,
116.28449877115874,40.03113460635523,便民蔬菜水果超市,马连洼菊园4西北方向90米,北京市,北京市,上地,购物服务;综合市场;蔬菜市场,060705,B0FFH14VRK,购物服务,综合市场,蔬菜市场,
116.26360089563379,40.022688823528576,美又美生鲜超市,天秀路22-5号,北京市,北京市,马连洼,购物服务;综合市场;农副产品市场,060703,B0FFHPQL9T,购物服务,综合市场,农副产品市场,
116.27318119018258,40.02241608700827,农大便民蔬菜水果店,中国农业大学对面圆明园西路3号院,北京市,北京市,马连洼,购物服务;综合市场;蔬菜市场,060705,B0FFFVWL0R,购物服务,综合市场,蔬菜市场,
116.25892413413624,40.02654575521689,便民菜店,黑山扈路34号附近,北京市,北京市,西北旺,购物服务;综合市场;蔬菜市场,060705,B0G351X3IV,购物服务,综合市场,蔬菜市场,
116.28211347168798,40.03864249125233,金地花卉大观园,东北旺路58号,北京市,北京市,西北旺,购物服务;综合市场;综合市场,060700,B0FFH1YHAN,购物服务,综合市场,综合市场,
116.27058423487415,40.028248478941435,乐赏烟酒(中发百旺商城店),圆明园西路18号中发百旺商场1层北门,北京市,北京市,西北旺,购物服务;综合市场;农副产品市场,060703,B000A877Z7,购物服务,综合市场,农副产品市场,
116.2676151633482,40.019292694500486,哞哞小花牛鲜奶屋(天秀店),天秀路安和园22号楼1层9-1号,北京市,北京市,马连洼,购物服务;综合市场;农副产品市场,060703,B0FFFRG157,购物服务,综合市场,农副产品市场,
116.26278983911102,40.019513570234906,老白家牛羊肉(天秀路店),天秀路9-5号,北京市,北京市,马连洼,购物服务;综合市场;农副产品市场,060703,B0FFFWCQLB,购物服务,综合市场,农副产品市场,
116.26536303699879,40.01920761267409,果多美(天秀路店),马连洼街道天秀路,北京市,北京市,马连洼,购物服务;综合市场;果品市场,060704,B0FFKGNKKC,购物服务,综合市场,果品市场,
116.28473527934953,40.04004781733983,鹏旺果蔬生鲜烟酒超市,东北旺路与东北旺中路交叉路口西南侧(东馨园东侧),北京市,北京市,上地,购物服务;综合市场;果品市场,060704,B0G0L7HOW8,购物服务,综合市场,果品市场,
116.25915841095139,40.0474355404528,鲜多多(北京景和园店),后长村路景和园10号楼1层10-5号,北京市,北京市,西北旺,购物服务;综合市场;农副产品市场,060703,B0GRHKNNTZ,购物服务,综合市场,农副产品市场,
116.26955936744606,40.01930890285216,新发地菜篮子直营店(天秀店),天秀路临乙16号,北京市,北京市,马连洼,购物服务;综合市场;蔬菜市场,060705,B0FFH4RUYB,购物服务,综合市场,蔬菜市场,
116.27454097069513,40.01962973273272,阳澄湖大闸蟹(农大店),天秀花园荷塘月舍1号楼底商,北京市,北京市,马连洼,购物服务;综合市场;水产海鲜市场,060706,B0G3UX4HUS,购物服务,综合市场,水产海鲜市场,
116.28620608406938,40.02280958182087,金秋干果,上地街道农大南路33号万树园小区南门西100米,北京市,北京市,马连洼,购物服务;综合市场;果品市场,060704,B0FFG4UVPS,购物服务,综合市场,果品市场,
116.26954937684633,40.01931091228384,志广果蔬,天秀路16-2附近,北京市,北京市,马连洼,购物服务;综合市场;果品市场,060704,B0G0F1C68P,购物服务,综合市场,果品市场,
116.28655650480768,40.022857071261825,五常大米,农大南路镶黄旗万树园35号,北京市,北京市,马连洼,购物服务;综合市场;农副产品市场,060703,B0FFF56B9B,购物服务,综合市场,农副产品市场,
116.25970085800785,40.04971308886129,壹栗香糖炒栗子,西北旺夏霖园南门首城生活超市档口,北京市,北京市,西北旺,购物服务;综合市场;果品市场,060704,B0HA3K239E,购物服务,综合市场,果品市场,
116.25918311251748,40.01773002229109,红星二锅头生鲜超市,黑山扈路红山口甲3号院北区底商,北京市,北京市,,购物服务;综合市场;农副产品市场,060703,B0FFKTCOAG,购物服务,综合市场,农副产品市场,
116.28682190912491,40.02412062358289,老马牛羊肉,农大南路45附近,北京市,北京市,上地,购物服务;综合市场;农副产品市场,060703,B0FFL5XD33,购物服务,综合市场,农副产品市场,
116.25642514678016,40.05060584467979,朝阳果蔬,西北旺镇德政路秋露园4号楼4号,北京市,北京市,西北旺,购物服务;综合市场;果品市场,060704,B0HB9RFFZS,购物服务,综合市场,果品市场,
116.27275153771868,40.01547986947183,中央党校社区市场,天秀南二路与正黄旗西路交叉路口东南侧(大有北里),北京市,北京市,马连洼,购物服务;综合市场;综合市场,060700,B0FFGOF6S3,购物服务,综合市场,综合市场,
116.27148941548872,40.019344999126545,车客家园数字化菜市场(马连洼店),天秀路10号农大创业园2号楼,北京市,北京市,马连洼,购物服务;综合市场;综合市场,060700,B0G2CR9RC8,购物服务,综合市场,综合市场,
116.26471908809103,40.014716336106545,金玉甘栗(安河桥北华联店),龙背村99号北京华联购物中心(龙背村路)B1,北京市,北京市,马连洼,购物服务;综合市场;果品市场,060704,B0G14NBQV0,购物服务,综合市场,果品市场,
116.28076526350513,40.0161133740047,肖家河粮油市场,圆明园西路肖家河东村33号粮油店,北京市,北京市,马连洼,购物服务;综合市场;综合市场,060700,B0FFIG0MOS,购物服务,综合市场,综合市场,
116.25614023084431,40.05070897738558,川鼎汇火锅烧烤食材超市(秋露园店),西北旺德政路秋露园底商4号楼4号,北京市,北京市,西北旺,购物服务;综合市场;农副产品市场,060703,B0G25CTXBD,购物服务,综合市场,农副产品市场,
116.28991273621544,40.023413023404544,我从新疆来博雅西园社区便民店,农大南路与厢黄旗东路交叉路口往西北约100米,北京市,北京市,马连洼,购物服务;综合市场;农副产品市场,060703,B0FFL6OH1R,购物服务,综合市场,农副产品市场,
116.27639272706075,40.00352534594962,大有庄社区果蔬超市,大有庄裤子胡同11号,北京市,北京市,,购物服务;综合市场;果品市场,060704,B0FFHLT0VJ,购物服务,综合市场,果品市场,
116.28954092135959,39.995258860010836,西苑便民菜站,颐和园路108号,北京市,北京市,西苑,购物服务;综合市场;蔬菜市场,060705,B0FFFWWWBI,购物服务,综合市场,蔬菜市场,
116.27642045797107,39.96542388679796,鲜果蔬超市,蓝靛厂路1楼17号,北京市,北京市,世纪城,购物服务;综合市场;农副产品市场|购物服务;超级市场;超市,060703|060400,B000AA1MW7,购物服务,综合市场,农副产品市场|购物服务,超级市场
116.27703626233448,40.00070070879434,里滋烟酒水果,颐和园路大有庄100号旁,北京市,北京市,,购物服务;综合市场;果品市场|购物服务;便民商店/便利店;便民商店/便利店,060704|060200,B0FFFNZCET,购物服务,综合市场,果品市场|购物服务,便民商店/便利店
116.27564086908826,40.001868290255345,大有庄社区便民菜店,大有庄大街,北京市,北京市,,购物服务;综合市场;蔬菜市场,060705,B0FFJL6CDS,购物服务,综合市场,蔬菜市场,
116.27790044648067,40.00621542724372,蔬菜粮油,骚子营大街12号附近,北京市,北京市,,购物服务;综合市场;果品市场,060704,B0FFIUQLBP,购物服务,综合市场,果品市场,
116.2677708770126,39.964453879188014,生鲜超市,四季青镇昆明湖南路9号院,北京市,北京市,,购物服务;综合市场;农副产品市场,060703,B0FFKFV9Q1,购物服务,综合市场,农副产品市场,
116.27921700839137,39.96359856448366,好就来清真商店,宽街40号,北京市,北京市,世纪城,购物服务;综合市场;农副产品市场,060703,B0FFG4JS6X,购物服务,综合市场,农副产品市场,
116.28196189246859,39.96526194528714,天天鲜果,火器营路1号院1号楼1层火器营地铁出口A口,北京市,北京市,世纪城,购物服务;综合市场;果品市场,060704,B0FFL4XTS4,购物服务,综合市场,果品市场,
116.24495196631347,39.96949373622229,颐香鲜果蔬,闵庄路38号院附近,北京市,北京市,,购物服务;综合市场;蔬菜市场,060705,B0FFHGKXXH,购物服务,综合市场,蔬菜市场,
116.28085951302182,39.96513040318826,草原兴发肉品超市,火器营路口晴雪园1号楼底商,北京市,北京市,世纪城,购物服务;综合市场;农副产品市场,060703,B0G2M10541,购物服务,综合市场,农副产品市场,
116.28827473418349,39.9662629603757,绿源生鲜超市,碧水云天11号楼B1绿源生鲜超市,北京市,北京市,万柳,购物服务;综合市场;农副产品市场,060703,B0FFL2SD27,购物服务,综合市场,农副产品市场,
116.29122007479906,39.962428600836375,百果园(蜂鸟家园店),万柳蜂鸟家园4号楼23室,北京市,北京市,万柳,购物服务;综合市场;果品市场,060704,B0FFHDMBDB,购物服务,综合市场,果品市场,
116.27320896468079,39.9599917065234,曙光市场,金夕园甲1号3段,北京市,北京市,世纪城,购物服务;综合市场;综合市场,060700,B0HAJS6XEJ,购物服务,综合市场,综合市场,
116.2470943405878,40.00959484603762,新峰杂粮调料店,厢红旗路030大院门口,北京市,北京市,,购物服务;综合市场;农副产品市场,060703,B0G2RPHE6X,购物服务,综合市场,农副产品市场,
116.24645534458575,40.00886696131361,新发地菜篮子社区(便利店),青龙桥董四墓23号,北京市,北京市,,购物服务;综合市场;蔬菜市场,060705,B0FFL54PN0,购物服务,综合市场,蔬菜市场,
116.29230009350351,39.96266088768398,牛街亿源,万柳新纪元家园1号楼1层5门101-6,北京市,北京市,万柳,购物服务;综合市场;农副产品市场,060703,B0G27PCCGS,购物服务,综合市场,农副产品市场,
116.29059919916801,39.962283574361685,蜂鸟超市,万柳中路33号蜂鸟家园商业4号楼33号,北京市,北京市,万柳,购物服务;综合市场;果品市场|购物服务;便民商店/便利店;便民商店/便利店,060704|060200,B000A7OY61,购物服务,综合市场,果品市场|购物服务,便民商店/便利店
116.25831111911708,39.91659569119795,果多美(永定路店),金沟路15号院11幢1层,北京市,北京市,,购物服务;综合市场;果品市场,060704,B0FFGM58Y1,购物服务,综合市场,果品市场,
116.26622256438199,39.92134994424162,嘉源五孔桥市场,西四环中路11号,北京市,北京市,,购物服务;综合市场;蔬菜市场,060705,B000A0A6D6,购物服务,综合市场,蔬菜市场,
116.27170726514542,39.93065044674902,鲜果女王水果店(五路居店),西四环北路160号玲珑天地A座101室,北京市,北京市,四季青,购物服务;综合市场;果品市场,060704,B0FFGYVQ6Z,购物服务,综合市场,果品市场,
116.27056147449042,39.93045260634932,阳澄湖大闸蟹(玲珑路店),西四环北路160号1层1区105,北京市,北京市,四季青,购物服务;综合市场;水产海鲜市场,060706,B0G2T96LJO,购物服务,综合市场,水产海鲜市场,
116.26543950434002,39.942887721416355,居易室美花卉市场,西四环北路117号金四季购物中心3层,北京市,北京市,四季青,购物服务;家居建材市场;家具建材综合市场,060601,B000A9P0K9,购物服务,家居建材市场,家具建材综合市场,
116.27221458113443,39.931782877438586,西瓜专卖,地铁五路居,北京市,北京市,,购物服务;综合市场;果品市场,060704,B0FFKOAI2D,购物服务,综合市场,果品市场,
116.26501371352839,39.92777667111352,蔬菜水果超市(田村路),田村路五孔桥33号,北京市,北京市,,购物服务;综合市场;蔬菜市场,060705,B0FFFOHB62,购物服务,综合市场,蔬菜市场,
116.26963903376623,39.94130206704216,喜英果蔬便民店,云会里金雅园六号楼底商,北京市,北京市,四季青,购物服务;综合市场;果品市场|购物服务;综合市场;蔬菜市场,060704|060705,B0FFI09AMO,购物服务,综合市场,果品市场|购物服务,综合市场
116.2707179660801,39.94128001730895,水果超市(金雅园社区卫生服务站东),四季青桥南金雅园小区北侧路南,北京市,北京市,四季青,购物服务;综合市场;综合市场,060700,B0FFFLIJ1V,购物服务,综合市场,综合市场,
116.26559726480214,39.927767199554644,鲜果果水果超市(五孔桥店),田村路8号,北京市,北京市,,购物服务;综合市场;果品市场,060704,B0FFG8LG5Q,购物服务,综合市场,果品市场,
116.27340236940465,39.93897733058309,北大荒绿色食品(美丽园中路),彰化村路138号院a座(西荣阁酒店旁边),北京市,北京市,四季青,购物服务;综合市场;农副产品市场,060703,B0FFFLJG8P,购物服务,综合市场,农副产品市场,
116.27259671208365,39.92739465575947,百果园(定慧寺店),八里庄路62号院2号楼1层108商铺,北京市,北京市,,购物服务;综合市场;果品市场,060704,B0FFHD1LPI,购物服务,综合市场,果品市场,
116.2699157647849,39.94129680145042,喜英水果店,四季青金雅园小区6号楼底商,北京市,北京市,,购物服务;综合市场;果品市场,060704,B0FFMEVPTD,购物服务,综合市场,果品市场,
116.27807085252269,39.93719303049226,红喜果蔬超市,五路居路与五路居南街交叉路口西南侧(美丽经典园),北京市,北京市,四季青,购物服务;综合市场;果品市场,060704,B0FFMC1BCO,购物服务,综合市场,果品市场,
116.26640063296058,39.92766053493645,便民水果蔬菜超市,田村路3号西北60米,北京市,北京市,,购物服务;综合市场;果品市场,060704,B0FFKDYTTY,购物服务,综合市场,果品市场,
116.27254173767795,39.927672702225784,亮甲店菜市场(西八里庄路),八里庄街道常旺村1号1幢,北京市,北京市,,购物服务;综合市场;蔬菜市场,060705,B0FFFZS70Q,购物服务,综合市场,蔬菜市场,
116.26486580909553,39.927904783638,栗栗香,田村路7号附近,北京市,北京市,,购物服务;综合市场;果品市场,060704,B0FFF588V7,购物服务,综合市场,果品市场,
116.27202534878202,39.92726025727906,鲜果女王水果店(定慧福里店),八里庄路62号院2号楼1层103-1,北京市,北京市,,购物服务;综合市场;果品市场,060704,B0FFJ0OC2Y,购物服务,综合市场,果品市场,
116.26495282521672,39.94330509664954,百安居(北京金四季店),西四环北路117号金四季购物中心F1层,北京市,北京市,四季青,购物服务;家居建材市场;家具建材综合市场,060601,B0FFF343OD,购物服务,家居建材市场,家具建材综合市场,
116.28196659695537,39.919568770858895,华宴市场(定慧东里店),定慧东里18号楼B1层,北京市,北京市,五棵松,购物服务;综合市场;综合市场,060700,B0FFFUG21P,购物服务,综合市场,综合市场,
116.2798922153925,39.93045802848377,华宴生鲜市场(玲珑路店),恩济里8号楼(近玲珑路),北京市,北京市,,购物服务;综合市场;蔬菜市场,060705,B000A83Y75,购物服务,综合市场,蔬菜市场,
116.25957483555347,39.930190395316515,刘进生蔬菜水果店,田村路(田村路23号院北侧约50米),北京市,北京市,,购物服务;综合市场;果品市场,060704,B0FFM7F5QG,购物服务,综合市场,果品市场,
116.27983428757734,39.930527099468186,华宴生鲜超市老年餐桌,玲珑路恩济里小区八号楼,北京市,北京市,,购物服务;综合市场;农副产品市场|购物服务;超级市场;超市,060703|060400,B0FFJEVYZF,购物服务,综合市场,农副产品市场|购物服务,超级市场
116.25326961526517,39.92534668287154,垦荒人(阜石路店),阜石路甲19号,北京市,北京市,,购物服务;综合市场;农副产品市场|购物服务;便民商店/便利店;便民商店/便利店,060703|060200,B0FFH98E5U,购物服务,综合市场,农副产品市场|购物服务,便民商店/便利店
116.25784679188283,39.92885844153768,天下城菜市场,半壁店77号,北京市,北京市,,购物服务;综合市场;蔬菜市场,060705,B000A9R47Y,购物服务,综合市场,蔬菜市场,
116.26500179306021,39.94326605914919,古玩市场,西四环北路117号金四季购物中心,北京市,北京市,四季青,购物服务;综合市场;综合市场,060700,B0FFM22L7L,购物服务,综合市场,综合市场,
116.25760098917938,39.928081605386424,果蔬美生鲜超市,彰化路超市发对面,北京市,北京市,,购物服务;综合市场;农副产品市场,060703,B0GK3RUDTP,购物服务,综合市场,农副产品市场,
116.27974541141839,39.930526212521094,美好八里庄(社区便民菜站5号店),西八里庄路114号北60米,北京市,北京市,,购物服务;综合市场;蔬菜市场,060705,B0FFHJC1VQ,购物服务,综合市场,蔬菜市场,
116.27908193008966,39.92568224642388,一手店(恩济庄店),八里庄恩济西街96号院,北京市,北京市,,购物服务;综合市场;综合市场|餐饮服务;餐饮相关场所;餐饮相关,060700|050000,B0FFF75A3U,购物服务,综合市场,综合市场|餐饮服务,餐饮相关场所
116.25532275851366,39.928262718627856,栗满香,田村路39号-南平房附近,北京市,北京市,,购物服务;综合市场;果品市场,060704,B0FFM3X7S8,购物服务,综合市场,果品市场,
116.28670853539515,39.940840282705636,果果时代(曙光花园店),彰化路曙光花园望塔园7号楼一层(果果时代生鲜超市旁),北京市,北京市,四季青,购物服务;综合市场;果品市场,060704,B0FFI91FTY,购物服务,综合市场,果品市场,
116.27964015868342,39.92571154230141,京果水果超市(恩济庄店),恩济庄96号院3号,北京市,北京市,,购物服务;综合市场;果品市场,060704,B0FFL5JWSE,购物服务,综合市场,果品市场,
116.25484771489727,39.929681870601655,半壁店批发粮油(非餐),半壁店二街甲59号,北京市,北京市,,购物服务;综合市场;农副产品市场,060703,B0FFKPGD5A,购物服务,综合市场,农副产品市场,
116.25692030902214,39.92762697868364,优加首农商业连锁(西四环田村店),永定路乙1号院2号楼首层,北京市,北京市,,购物服务;综合市场;果品市场,060704,B0FFJ66MAA,购物服务,综合市场,果品市场,
116.26622755633814,39.92138193872136,正宗牛街鲜牛羊肉,西四环中路11号北京嘉源五孔桥菜市场肉厅51号,北京市,北京市,,购物服务;综合市场;农副产品市场,060703,B0FFM904YV,购物服务,综合市场,农副产品市场,
116.25369842144724,39.92621448381111,阜四社区蔬菜水果便民店,阜石路甲19号院,北京市,北京市,,购物服务;综合市场;果品市场|购物服务;综合市场;蔬菜市场,060704|060705,B0FFH139Z1,购物服务,综合市场,果品市场|购物服务,综合市场
116.27981209615977,39.94031373450376,鲜果女王水果店(五福玲珑店),彰化路14号,北京市,北京市,四季青,购物服务;综合市场;果品市场,060704,B0HGVSOYEO,购物服务,综合市场,果品市场,
116.28418851724761,39.94126485984388,粒上皇(曙光花园店),彰化路曙光花园,北京市,北京市,四季青,购物服务;综合市场;果品市场,060704,B0FFKOPNHT,购物服务,综合市场,果品市场,
116.26622556182002,39.92135094168121,蔬果生鲜(西四环中路店),西四环中路11号嘉源五孔桥农副产品市场89号,北京市,北京市,,购物服务;综合市场;果品市场,060704,B0GK3RTJKR,购物服务,综合市场,果品市场,
116.2842374406761,39.94126779152585,迁西板栗水果店,彰化路7号楼1层,北京市,北京市,四季青,购物服务;综合市场;果品市场,060704,B0FFK9E6GH,购物服务,综合市场,果品市场,
116.25126608071857,39.94797245083742,怀栗香干果连锁店,杏石口路西冉村市场,北京市,北京市,,购物服务;综合市场;果品市场,060704,B0FFGLJWK9,购物服务,综合市场,果品市场,
116.26661318797291,39.9217935949959,五孔桥宠物店,永定路街道嘉源五孔桥市场北门G8,北京市,北京市,,购物服务;综合市场;蔬菜市场,060705,B0FFHLJZ03,购物服务,综合市场,蔬菜市场,
116.26613461293329,39.92153301044192,有厨生鲜(五孔桥农副市场店),西四环中路11号嘉源五孔桥农副产品市场A36号,北京市,北京市,,购物服务;综合市场;农副产品市场,060703,B0G2M90NNL,购物服务,综合市场,农副产品市场,
116.26627851545398,39.92137689605243,极生鲜(五孔桥市场店),西四环中路11号嘉源五孔桥农副产品市场C7号,北京市,北京市,,购物服务;综合市场;果品市场,060704,B0HA3K0SVD,购物服务,综合市场,果品市场,
116.26623255202536,39.92138393443924,24生鲜(五孔桥店),西四环中路11号嘉源五孔桥农副产品市场,北京市,北京市,,购物服务;综合市场;果品市场,060704,B0HB3G7KHQ,购物服务,综合市场,果品市场,
116.26622855515221,39.921384937757644,菜小姑(五孔桥市场店),西四环中路11号嘉源五孔桥农副产品市场067-068,北京市,北京市,,购物服务;综合市场;果品市场,060704,B0HAFPTUAT,购物服务,综合市场,果品市场,
116.26622555759016,39.92138494027705,A+生鲜(五孔桥店),西四环中路11号嘉源五孔桥农副产品市场130号,北京市,北京市,,购物服务;综合市场;农副产品市场,060703,B0G231DAD0,购物服务,综合市场,农副产品市场,
116.26622855515221,39.921384937757644,暴隆鲜生(五孔桥店),西四环中路11号嘉源五孔桥农副产品市场F4号,北京市,北京市,,购物服务;综合市场;农副产品市场,060703,B0G3MU0PF8,购物服务,综合市场,农副产品市场,
116.26622555759016,39.92138494027705,跑男送菜(定慧桥店),西四环中路11号北京嘉源五孔桥农副产品市场012号,北京市,北京市,,购物服务;综合市场;农副产品市场,060703,B0G2AK1HIM,购物服务,综合市场,农副产品市场,
116.28496230672975,39.94122677527629,鲜享生鲜超市(彰化路店),彰化路42号附近,北京市,北京市,四季青,购物服务;综合市场;农副产品市场,060703,B0FFKTRL5S,购物服务,综合市场,农副产品市场,
116.27689327048897,39.92208106224518,定慧西里小区菜站,定慧西里小区5号楼附近休闲广场,北京市,北京市,五棵松,购物服务;综合市场;果品市场,060704,B0H6ZURFIM,购物服务,综合市场,果品市场,
116.25136426517216,39.94641748269903,蔬菜水果店(佟家坟店),杏石口路北100米,北京市,北京市,,购物服务;综合市场;农副产品市场|购物服务;综合市场;蔬菜市场,060703|060705,B0FFIB2W2C,购物服务,综合市场,农副产品市场|购物服务,综合市场
116.26641146860696,39.920878804402115,永定河菜市场,西四环嘉园五孔桥市场,北京市,北京市,,购物服务;综合市场;综合市场,060700,B0FFKQ7TEH,购物服务,综合市场,综合市场,
116.26622555759016,39.92138494027705,菜邻居(嘉源五孔桥市场店),西四环中路11号嘉源五孔桥农副产品市场88号,北京市,北京市,,购物服务;综合市场;果品市场,060704,B0G0VBHWTP,购物服务,综合市场,果品市场,
116.26624753970218,39.92138492179421,时鲜蔬果(嘉源五孔桥市场店),西四环中路11号嘉源五孔桥农副产品市场E37-38号,北京市,北京市,,购物服务;综合市场;果品市场,060704,B0G3AP9Q32,购物服务,综合市场,果品市场,
116.2789172829853,39.92465049436301,一手店生鲜超市(恩济庄店),[],北京市,北京市,,购物服务;综合市场;综合市场,060700,B0G3HXUNZ5,购物服务,综合市场,综合市场,
116.28341859887263,39.92611353587608,硒谷科技北京运营中心,八里庄北里46号楼102,北京市,北京市,,购物服务;综合市场;农副产品市场,060703,B0FFI6K1OE,购物服务,综合市场,农副产品市场,
116.25568764987369,39.92825455234523,麦果果(田村店),田村路与双槐树路交叉口东行100米,北京市,北京市,,购物服务;综合市场;蔬菜市场,060705,B000A8VRUH,购物服务,综合市场,蔬菜市场,
116.29205153166248,39.93883922701753,千喜鹤冷鲜肉,车道沟南里商业楼B座16号佳牧超市,北京市,北京市,,购物服务;综合市场;农副产品市场,060703,B0FFGY7RJU,购物服务,综合市场,农副产品市场,
116.29139510121189,39.93577138507115,满吉庄生鲜超市,北洼西里48号宝莲体育馆公园院内,北京市,北京市,,购物服务;综合市场;农副产品市场,060703,B0FFJIUMPX,购物服务,综合市场,农副产品市场,
116.28253310112318,39.94881183020543,洛川苹果,板井路60号西门,北京市,北京市,世纪城,购物服务;综合市场;果品市场,060704,B0FFLFTEBT,购物服务,综合市场,果品市场,
116.28487145050998,39.94122690361037,北京悦明亮果唯伊水果超市,[],北京市,北京市,,购物服务;综合市场;果品市场,060704,B0G3DP0461,购物服务,综合市场,果品市场,
116.28558688649107,39.92862339443387,硒谷功能农产品(北京八里庄店),八里庄街道西八里庄路八里庄北里46号楼底商,北京市,北京市,,购物服务;综合市场;农副产品市场,060703,B0G3FULHGD,购物服务,综合市场,农副产品市场,
116.24773033995827,39.9298369938594,壹号土猪,田村路京粮广场,北京市,北京市,,购物服务;综合市场;农副产品市场,060703,B0HGSO4HH0,购物服务,综合市场,农副产品市场,
116.27189081598081,39.91664283545047,便民菜站鲜果岛,金沟河东路9号院8,北京市,北京市,五棵松,购物服务;综合市场;农副产品市场,060703,B000AA0M0I,购物服务,综合市场,农副产品市场,
116.29209744589967,39.93885815350713,鲜果派(沟南里店),车道沟南路车道沟南里商业B楼一层105号,北京市,北京市,,购物服务;综合市场;果品市场,060704,B0GRDOLJSG,购物服务,综合市场,果品市场,
116.25115421762965,39.94695052433296,胡记炒货,西冉中街,北京市,北京市,,购物服务;综合市场;果品市场,060704,B0GRJRNJ5C,购物服务,综合市场,果品市场,
116.24803642635298,39.92933996161612,京粮精品粮油(京粮广场店),田村路43号京粮广场1层105,北京市,北京市,,购物服务;综合市场;农副产品市场,060703,B0FFF5TGPJ,购物服务,综合市场,农副产品市场,
116.29171756723856,39.935398892766244,果君淑菜(北洼西里店),北洼西里48号北京福特宝足球发展公司,北京市,北京市,,购物服务;综合市场;农副产品市场,060703,B0G3AOJ5FZ,购物服务,综合市场,农副产品市场,
116.26462512115405,39.95894073830942,金桥果业直营店,常青路,北京市,北京市,,购物服务;综合市场;农副产品市场,060703,B0FFM53SB3,购物服务,综合市场,农副产品市场,
116.29219537789062,39.94596071529149,丰西华盛农场便民超市(紫竹院店),紫竹院路81号院3号楼一层107室,北京市,北京市,,购物服务;综合市场;农副产品市场,060703,B0G3F5K7VB,购物服务,综合市场,农副产品市场,
116.28133753550267,39.95943500310933,四季鲜果蔬,蓝靛厂东路2号院2号楼3单元9-c西南60米,北京市,北京市,世纪城,购物服务;综合市场;果品市场,060704,B0G0P9HTCM,购物服务,综合市场,果品市场,
116.29121745690004,39.91150566664228,幸福万寿路果蔬生鲜便民菜站,玉渊潭南路翠微南里临街35号(翠微小学西校区对面),北京市,北京市,公主坟,购物服务;综合市场;果品市场,060704,B0FFFAK81B,购物服务,综合市场,果品市场,
116.2776353878545,39.913454535291706,驻北京市老干部服务管理局中部副食品供应站(万寿路分站),万寿路4号院,北京市,北京市,五棵松,购物服务;综合市场;农副产品市场,060703,B0G2AOC4IA,购物服务,综合市场,农副产品市场,
116.28244202313473,39.95851956914848,居然之家天猫智慧家居馆,西顶路与蓝靛厂东路交叉路口往东北约50米,北京市,北京市,世纪城,购物服务;家居建材市场;家具建材综合市场,060601,B0G30BGJ4Q,购物服务,家居建材市场,家具建材综合市场,
116.27763275930502,39.91050366451415,幸福万寿路便民菜站(003号),万寿路西街甲11号院万寿园小区西门,北京市,北京市,五棵松,购物服务;综合市场;蔬菜市场,060705,B000AA1BHW,购物服务,综合市场,蔬菜市场,
116.25922235199897,39.8872124718507,盒马鲜生(大成路店),大成路8号翠微百货B1层,北京市,北京市,青塔,购物服务;超级市场;超市|购物服务;综合市场;综合市场,060400|060700,B0FFI5D2KT,购物服务,超级市场,超市|购物服务,综合市场
116.27639708464967,39.89652875132806,西郊伟伟市场,莲花池西路与西翠路交叉口西北150米,北京市,北京市,,购物服务;综合市场;综合市场,060700,B000A7QRNU,购物服务,综合市场,综合市场,
116.26006647868384,39.898877420884,阳澄湖大闸蟹,太平路44号,北京市,北京市,,购物服务;综合市场;水产海鲜市场,060706,B0FFL4QZ55,购物服务,综合市场,水产海鲜市场,
116.27600857933612,39.89645020753007,鲜肉海鲜调料粮油豆制品鲜蛋,莲花池西路与西翠路交叉口北150米,北京市,北京市,,购物服务;综合市场;农副产品市场,060703,B0FFH14ANJ,购物服务,综合市场,农副产品市场,
116.26395283281435,39.89287700216321,万家宜果蔬超市,青塔东里小区七号院8号楼底商,北京市,北京市,青塔,购物服务;综合市场;果品市场,060704,B0FFKYFQ0I,购物服务,综合市场,果品市场,
116.25933185293736,39.898850870126196,干果张(永定路店),太平路44号院北门底商,北京市,北京市,,购物服务;综合市场;农副产品市场,060703,B0FFJCOVL3,购物服务,综合市场,农副产品市场,
116.27641007294385,39.896491737798414,鸡蛋批发,西翠路西郊伟伟市场北排12号,北京市,北京市,,购物服务;综合市场;农副产品市场,060703,B0FFHGJROV,购物服务,综合市场,农副产品市场,
116.2600964629925,39.89887740218323,新增金光商店,太平路44号大门东侧,北京市,北京市,,购物服务;综合市场;果品市场,060704,B000A9KA4B,购物服务,综合市场,果品市场,
116.25879003247717,39.89947316016057,居兰斋牛街清真肉铺,五棵松太平路27号院(近永定路),北京市,北京市,,购物服务;综合市场;农副产品市场,060703,B0FFH9VKW0,购物服务,综合市场,农副产品市场,
116.27795582288134,39.906592441779416,好想你枣(复兴路店),复兴路丙65号1号楼左起(西翠路与复兴路交叉口东北角),北京市,北京市,五棵松,购物服务;综合市场;果品市场,060704,B000A8U9WE,购物服务,综合市场,果品市场,
116.26739155841956,39.90547761290275,阳澄湖大闸蟹专卖店,[],北京市,北京市,,购物服务;综合市场;水产海鲜市场,060706,B0FFIDMREK,购物服务,综合市场,水产海鲜市场,
116.2587900657653,39.89920517214623,果多美(永太店),太平路27号院临3号,北京市,北京市,,购物服务;综合市场;果品市场,060704,B0FFKE0XES,购物服务,综合市场,果品市场,
116.27644402303696,39.89654969537896,伟伟市场4号厅,[],北京市,北京市,,购物服务;综合市场;综合市场,060700,B0FFHDWR7J,购物服务,综合市场,综合市场,
116.27676359331612,39.89675530982445,西郊伟市场5号厅,莲花池西路与西翠路交叉口西北150米,北京市,北京市,,购物服务;综合市场;综合市场,060700,B0FFHOLDO7,购物服务,综合市场,综合市场,
116.27678461157743,39.89639430137284,西郊伟伟市场二号厅,沙窝村西郊苗圃东院,北京市,北京市,,购物服务;综合市场;综合市场,060700,B0FFIMX5IT,购物服务,综合市场,综合市场,
116.27625622402655,39.89682690243307,点点点点土蔬菜,西郊伟伟市场一厅二排789号,北京市,北京市,,购物服务;综合市场;果品市场,060704,B0FFKT8QGK,购物服务,综合市场,果品市场,
116.26157837521494,39.89291070912782,橙香果蔬超市,青塔西里五号院1号楼底商,北京市,北京市,青塔,购物服务;综合市场;果品市场,060704,B0G3X6BQX2,购物服务,综合市场,果品市场,
116.26299004875231,39.904485196996276,每日生鲜,复兴路34号院2号楼附近,北京市,北京市,,购物服务;综合市场;农副产品市场,060703,B0FFKDYFMO,购物服务,综合市场,农副产品市场,
116.26655022518636,39.90584732526981,水果商店,复兴路28号康馨大厦一层,北京市,北京市,,购物服务;综合市场;果品市场,060704,B0FFF58FYH,购物服务,综合市场,果品市场,
116.27674563183632,39.89662933677182,张氏粮油,万寿路街道西翠路82,北京市,北京市,,购物服务;综合市场;农副产品市场,060703,B0GKSNF676,购物服务,综合市场,农副产品市场,
116.27758524392247,39.899093222794455,阳澄湖大闸蟹(太平路店),太平路24-1号附近,北京市,北京市,,购物服务;综合市场;水产海鲜市场,060706,B0G30PHVXI,购物服务,综合市场,水产海鲜市场,
116.2583598339571,39.89458262631332,菜大全(大成双盈店),青塔小区大成里甲一号,北京市,北京市,青塔,购物服务;综合市场;果品市场,060704,B0G0V1OGPA,购物服务,综合市场,果品市场,
116.27224493376454,39.88855271497859,叮咚买菜,岳各庄东路26号院14号,北京市,北京市,郑常庄村,购物服务;综合市场;蔬菜市场,060705,B0G2R5JDJK,购物服务,综合市场,蔬菜市场,
116.25810131984572,39.89157390881119,牛街清真肉铺(青塔店),青塔西路七号秀园派出所东行100米,北京市,北京市,青塔,购物服务;综合市场;农副产品市场,060703,B0FFGT3CZB,购物服务,综合市场,农副产品市场,
116.25830498460532,39.893563703772266,金泰宏昌优品生鲜,[],北京市,北京市,青塔,购物服务;综合市场;农副产品市场,060703,B0G3YHUB4J,购物服务,综合市场,农副产品市场,
116.26418397316225,39.90650621488435,阳澄湖大闸蟹(复兴路店),复兴路79号-8,北京市,北京市,,购物服务;综合市场;水产海鲜市场,060706,B0GK0RB7ZG,购物服务,综合市场,水产海鲜市场,
116.25399007042341,39.90439128927649,玉泉东商品交易市场(装修中),复兴路38号(永定路口西南),北京市,北京市,,购物服务;综合市场;综合市场,060700,B000A65CBF,购物服务,综合市场,综合市场,
116.25912535383333,39.90366777850985,烟酒水果蔬菜调料,永定路88-12号,北京市,北京市,,购物服务;综合市场;农副产品市场,060703,B0HGRKMY6Z,购物服务,综合市场,农副产品市场,
116.28170156434899,39.89891401579988,烟酒茶水果鲜花超市,太平路23号福瑞鲜饺子馆旁,北京市,北京市,,购物服务;综合市场;果品市场|购物服务;超级市场;超市,060704|060400,B0FFFOA802,购物服务,综合市场,果品市场|购物服务,超级市场
116.25896793574869,39.89153741860493,青塔北里双盈市场,卢沟桥街道青塔小区青塔北里双盈市场,北京市,北京市,青塔,购物服务;综合市场;综合市场,060700,B0H6RXC0AM,购物服务,综合市场,综合市场,
116.25834120773804,39.907734051890166,小叶栗子(暂停营业),永定路85号附近,北京市,北京市,,购物服务;综合市场;果品市场,060704,B0FFFGQP9F,购物服务,综合市场,果品市场,
116.27571898868283,39.88800493336364,百果园(靛厂路店),,北京市,北京市,郑常庄村,购物服务;综合市场;果品市场,060704,B0FFIK8P84,购物服务,综合市场,果品市场,
116.25386929739453,39.902780408192704,北京玉泉东海海鲜商行,五厅48号49号,北京市,北京市,,购物服务;综合市场;水产海鲜市场,060706,B0HGAZ0BEN,购物服务,综合市场,水产海鲜市场,
116.2724361847671,39.908962596148385,举个栗子(五棵松华熙店),复兴路69号五棵松华熙LIVE-调调街1层,北京市,北京市,五棵松,购物服务;综合市场;农副产品市场,060703,B0GR91RVQ4,购物服务,综合市场,农副产品市场,
116.25414023605988,39.90278129955756,鸡蛋批发零售,万寿路街道玉泉东市场五厅29至30号鸡蛋批发,北京市,北京市,,购物服务;综合市场;农副产品市场,060703,B0FFIDHUKI,购物服务,综合市场,农副产品市场,
116.25697315461133,39.88848465246847,百果园(大成路店),大成路青塔小区大成里秀园5号西南侧1层105,北京市,北京市,青塔,购物服务;综合市场;果品市场,060704,B0FFHHYR03,购物服务,综合市场,果品市场,
116.25399224957121,39.90294535197475,玉泉东菜市场,北太平路与采石南路交叉口北50米,北京市,北京市,,购物服务;综合市场;蔬菜市场,060705,B0FFKPZGNP,购物服务,综合市场,蔬菜市场,
116.26163295614339,39.88797390251295,田园生鲜超市,大成南里3区2号楼1层106室,北京市,北京市,青塔,购物服务;综合市场;果品市场|购物服务;综合市场;农副产品市场,060704|060703,B0FFG72NFS,购物服务,综合市场,果品市场|购物服务,综合市场
116.28244623099944,39.90879058559493,幸福四季便民服务站,万寿路西街61号院,北京市,北京市,五棵松,购物服务;综合市场;蔬菜市场|生活服务;生活服务场所;生活服务场所,060705|070000,B0FFFX9WVU,购物服务,综合市场,蔬菜市场|生活服务,生活服务场所
116.25475179905891,39.88897667241063,便民生鲜,芳秀路与大成路交叉路口往北约50米(芳园),北京市,北京市,青塔,购物服务;综合市场;农副产品市场,060703,B0H6FA30MK,购物服务,综合市场,农副产品市场,
116.25401323166483,39.90305133889394,京西菜市(玉泉东路店),北太平路玉泉路东市场5厅51号,北京市,北京市,,购物服务;综合市场;蔬菜市场,060705,B0FFL502HU,购物服务,综合市场,蔬菜市场,
116.2549092237967,39.909369689515394,首菜生鲜超市,永定路街道航天部二街坊57号院220号楼北侧,北京市,北京市,,购物服务;综合市场;农副产品市场,060703,B0FFKV46SB,购物服务,综合市场,农副产品市场,
116.24651511431625,39.898294503984665,阳澄湖大闸蟹(玉泉路店),"玉泉路甲65-11,一层7号",北京市,北京市,石景山,购物服务;综合市场;水产海鲜市场,060706,B0FFH0NH7O,购物服务,综合市场,水产海鲜市场,
116.25035890147957,39.893586980781215,源珑黑牛,青塔小区西侧路,北京市,北京市,青塔,购物服务;综合市场;农副产品市场,060703,B0FFMHDHBZ,购物服务,综合市场,农副产品市场,
116.24817804497313,39.89223952949133,旺果园生鲜超市,小瓦窑东里南路家家福超市旁,北京市,北京市,青塔,购物服务;综合市场;农副产品市场|购物服务;专卖店;专营店,060703|061200,B0FFJ8IYMC,购物服务,综合市场,农副产品市场|购物服务,专卖店
116.25227036104219,39.88847264479761,牛街清真肉铺(大成路店),大成路19号,北京市,北京市,青塔,购物服务;综合市场;农副产品市场,060703,B0FFH98EZ1,购物服务,综合市场,农副产品市场,
116.25026307067962,39.89225606723935,水果超市,小屯路甲2号院汇锦苑12号楼12-2,北京市,北京市,青塔,购物服务;综合市场;果品市场,060704,B0FFJLRHY7,购物服务,综合市场,果品市场,
116.2857283679977,39.9069451024021,水果店(万寿路),复兴路61号东14楼1层,北京市,北京市,五棵松,购物服务;综合市场;果品市场,060704,B0FFHZTGRD,购物服务,综合市场,果品市场,
116.25114231242087,39.889875934148755,水果蔬菜,青塔五街,北京市,北京市,青塔,购物服务;综合市场;果品市场|购物服务;综合市场;蔬菜市场,060704|060705,B0FFIA3IV9,购物服务,综合市场,果品市场|购物服务,综合市场
116.24732986493562,39.89309463081481,百菜宴(超市发小屯店),小屯路2号5号楼1层2-11号,北京市,北京市,青塔,购物服务;综合市场;蔬菜市场,060705,B0G304HTCQ,购物服务,综合市场,蔬菜市场,
116.28616843929919,39.90868039379966,老张水果店(万寿路店),复兴路61号院东10楼东侧第三间平房(槐荫酒家隔壁小区),北京市,北京市,五棵松,购物服务;综合市场;果品市场,060704,B0FFHWBVUU,购物服务,综合市场,果品市场,
116.2536068776418,39.906608343169744,玉泉东菜市场库房(非餐)(装修中),采石路5号,北京市,北京市,,购物服务;综合市场;农副产品市场,060703,B0FFLIA3ZH,购物服务,综合市场,农副产品市场,
116.24637179293003,39.89265077749747,蛮大生鲜超市,小屯路与小瓦窑东里南路交叉口西北100米,北京市,北京市,石景山,购物服务;综合市场;农副产品市场,060703,B0FFLG2B3X,购物服务,综合市场,农副产品市场,
116.29108463020268,39.888023929470926,佰佳菜篮子(莲宝路),莲宝路10院,北京市,北京市,,购物服务;综合市场;蔬菜市场,060705,B0FFG46E9B,购物服务,综合市场,蔬菜市场,
116.24340483509938,39.90288448693136,圆圆水果店,鲁谷路9号院,北京市,北京市,石景山,购物服务;综合市场;果品市场,060704,B0FFLGE1I6,购物服务,综合市场,果品市场,
116.29045354137219,39.88969683212363,阳澄湖大闸蟹(莲花店),莲花池西路16号金鑫大厦1层,北京市,北京市,,购物服务;综合市场;水产海鲜市场,060706,B0HB4C95OF,购物服务,综合市场,水产海鲜市场,
116.24281562173013,39.903077472582154,图图水果店,鲁谷路与石槽中街交叉路口北侧(花鸟鱼虫市场),北京市,北京市,石景山,购物服务;综合市场;果品市场,060704,B0FFJJWUFC,购物服务,综合市场,果品市场,
116.29125341466221,39.88733469812331,果蔬家园(第6档口百佳美食城店),莲宝路10号院商用楼半地下一层(米奇特蛋糕附近),北京市,北京市,,购物服务;综合市场;果品市场,060704,B0HAC5W1EP,购物服务,综合市场,果品市场,
116.31613729280676,40.14323322847793,世兴生鲜超市,沙河理想家园,北京市,北京市,,购物服务;综合市场;农副产品市场,060703,B0GKA6WYET,购物服务,综合市场,农副产品市场,
116.31585690605668,40.14344074282824,皖江水产,百善镇上东廓村,北京市,北京市,,购物服务;综合市场;水产海鲜市场,060706,B0FFMHFJIX,购物服务,综合市场,水产海鲜市场,
116.31613136333749,40.14278528564215,天添鲜鸡肉,[],北京市,北京市,,购物服务;综合市场;农副产品市场,060703,B0HGR5MU12,购物服务,综合市场,农副产品市场,
116.31611438668394,40.14290630571312,售新旧家具,河堤路(百善镇中心幼儿园上东廓分园西侧约150米),北京市,北京市,,购物服务;综合市场;旧货市场,060702,B0FFICM104,购物服务,综合市场,旧货市场,
116.3161392370949,40.14363618342016,生鲜肉店,沙河理想家园,北京市,北京市,,购物服务;综合市场;农副产品市场,060703,B0G09HQ5WA,购物服务,综合市场,农副产品市场,
116.31607110043942,40.14593207602709,果栗香炒货店,[],北京市,北京市,,购物服务;综合市场;果品市场,060704,B0HGR5NON5,购物服务,综合市场,果品市场,
116.3156591432024,40.145119947178344,鑫盛蔬菜店,[],北京市,北京市,,购物服务;综合市场;果品市场,060704,B0FFFRZ6CD,购物服务,综合市场,果品市场,
116.31602224067242,40.14570619290628,宇航开心粮油,尚上路五金建材电线电缆旁,北京市,北京市,,购物服务;综合市场;农副产品市场,060703,B0FFFRKRPN,购物服务,综合市场,农副产品市场,
116.30768743061624,40.149373492644976,绿城阳光生鲜超市,百善镇上东廓村绿城阳光绿城阳光生鲜超市,北京市,北京市,百善,购物服务;综合市场;农副产品市场,060703,B0G297Q0PQ,购物服务,综合市场,农副产品市场,
116.29411096226565,40.14349882969632,干果零食超市,[],北京市,北京市,沙河,购物服务;综合市场;果品市场,060704,B0HGRDNGBS,购物服务,综合市场,果品市场,
116.29300863594666,40.14653129821088,精品蔬菜超市,沙河于新庄线于辛庄村委会北50米,北京市,北京市,沙河,购物服务;综合市场;蔬菜市场,060705,B0FFHLFZAY,购物服务,综合市场,蔬菜市场,
116.29414592992185,40.15113896978439,小高旧货(松兰堡社区卫生服务站东南),百沙路松兰堡村,北京市,北京市,沙河,购物服务;综合市场;旧货市场,060702,B0FFG4UXQX,购物服务,综合市场,旧货市场,
116.29310948726685,40.14623016764206,活鱼鲜肉,于辛庄南街25号附近,北京市,北京市,沙河,购物服务;综合市场;农副产品市场,060703,B0FFIU3JWD,购物服务,综合市场,农副产品市场,
116.29278504927422,40.14652865692308,鲜果园,[],北京市,北京市,沙河,购物服务;综合市场;果品市场,060704,B0G0C5WM9E,购物服务,综合市场,果品市场,
116.29346769387823,40.147239484746656,诚信菜店,[],北京市,北京市,沙河,购物服务;综合市场;农副产品市场,060703,B0FFKEC6BK,购物服务,综合市场,农副产品市场,
116.29748029990013,40.1527132566778,百菜宴(西新街店),沙河镇松兰堡村西新街13号,北京市,北京市,,购物服务;综合市场;蔬菜市场,060705,B0G30SHS8F,购物服务,综合市场,蔬菜市场,
116.30205427033023,40.11132328050032,百果园,豆各庄新村,北京市,北京市,,购物服务;综合市场;果品市场,060704,B0FFLAKUJU,购物服务,综合市场,果品市场,
116.337128269848,40.112324193023944,金盈二手厨具设备回收销售,沙河镇白各庄村顺玮阁小区,北京市,北京市,,购物服务;综合市场;旧货市场,060702,B0GKLHJQ4P,购物服务,综合市场,旧货市场,
116.3267939962177,40.07853416976687,果多美(回龙观店),回龙观西大街35号院4号楼101,北京市,北京市,回龙观,购物服务;综合市场;果品市场,060704,B000AA1NQ5,购物服务,综合市场,果品市场,
116.32512603995772,40.076957473802224,港龙商业中心,回龙观西大街18号,北京市,北京市,回龙观,购物服务;综合市场;综合市场,060700,B000A7P07W,购物服务,综合市场,综合市场,
116.33145804235531,40.08068214812999,文华市场,回龙观西大街9号院文化市场,北京市,北京市,回龙观,购物服务;综合市场;蔬菜市场,060705,B0FFGY0L4X,购物服务,综合市场,蔬菜市场,
116.31378636021593,40.08240385055208,兴隆超市(庄盛奥特莱斯店),回龙观镇三合庄园9号楼北侧1号一层11号,北京市,北京市,回龙观,购物服务;综合市场;果品市场|购物服务;超级市场;屈臣氏|购物服务;便民商店/便利店;便民商店/便利店,060704|060411|060200,B0FFGMC4SG,购物服务,综合市场,果品市场|购物服务,超级市场
116.31597644153969,40.06622373497546,华联超市,新龙城一期,北京市,北京市,回龙观,购物服务;综合市场;农副产品市场|购物服务;专卖店;烟酒专卖店,060703|061210,B000A882LM,购物服务,综合市场,农副产品市场|购物服务,专卖店
116.30887464802795,40.0798222554767,志广果蔬,回龙观镇回南路10号院9号楼1层104,北京市,北京市,回龙观,购物服务;综合市场;果品市场,060704,B0FFLOYQBK,购物服务,综合市场,果品市场,
116.31607210259664,40.07506198978533,雪琴酸奶店,西大街101号西北50米,北京市,北京市,回龙观,购物服务;综合市场;农副产品市场|餐饮服务;冷饮店;冷饮店,060703|050700,B0FFG6T1RK,购物服务,综合市场,农副产品市场|餐饮服务,冷饮店
116.32437380384968,40.076730934012915,A+生鲜(西大街店),回龙观镇西大街35号院1号楼3层355室,北京市,北京市,回龙观,购物服务;综合市场;农副产品市场,060703,B0FFMGTOEX,购物服务,综合市场,农副产品市场,
116.31095779880533,40.08169523873623,锅圈食汇火锅烧烤食材超市(昌平回龙观龙禧二街店),天露园二区北门184-1号,北京市,北京市,回龙观,购物服务;综合市场;农副产品市场,060703,B0G2YLT1J4,购物服务,综合市场,农副产品市场,
116.317701281174,40.075837820670145,大山栗子(琥珀天地店),回龙观西大街85号琥珀天地,北京市,北京市,回龙观,购物服务;综合市场;果品市场,060704,B0FFJ0GA0L,购物服务,综合市场,果品市场,
116.32694217368186,40.08231762935712,黑龙江好粮油,育知东路与龙禧三街交叉路口往北约150米,北京市,北京市,回龙观,购物服务;综合市场;农副产品市场,060703,B0HACYUMC9,购物服务,综合市场,农副产品市场,
116.30920368900827,40.081674518018474,买鲜菜鲜超市(龙禧二街店),龙禧二街185-1号至185-11号1层185-1,北京市,北京市,回龙观,购物服务;综合市场;果品市场,060704,B0G064ND5C,购物服务,综合市场,果品市场,
116.30921818762526,40.07748477358077,良心厚稻,龙禧三街与行知路交叉路口往西北约100米,北京市,北京市,回龙观,购物服务;综合市场;农副产品市场,060703,B0G3ZMP01N,购物服务,综合市场,农副产品市场,
116.31480359353053,40.09393409355731,老张水产配送,七小路北农市场2号厅9号,北京市,北京市,回龙观,购物服务;综合市场;水产海鲜市场,060706,B0FFG9679S,购物服务,综合市场,水产海鲜市场,
116.32939445593041,40.08300590098416,阳澄湖大闸蟹(龙禧店),龙禧苑三区北店嘉园19号底商,北京市,北京市,回龙观,购物服务;综合市场;水产海鲜市场,060706,B0FFKT1ZGE,购物服务,综合市场,水产海鲜市场,
116.3153015285201,40.09341218342986,鑫晟果苑,北农市场水果区一厅A09,北京市,北京市,回龙观,购物服务;综合市场;农副产品市场,060703,B0FFLF2TL8,购物服务,综合市场,农副产品市场,
116.3155140622192,40.093276788068096,阿炳干果,回龙观北农市场一号厅南门E30号,北京市,北京市,回龙观,购物服务;综合市场;农副产品市场,060703,B0FFHE2G9X,购物服务,综合市场,农副产品市场,
116.3150480154552,40.09411561453456,北农淡水鱼,七小路与华北电力大学南街交叉路口往西北约200米,北京市,北京市,回龙观,购物服务;综合市场;水产海鲜市场,060706,B0FFLKM8S9,购物服务,综合市场,水产海鲜市场,
116.31462211311667,40.09308450183544,北农粮油,七小路附近一厅34号,北京市,北京市,回龙观,购物服务;综合市场;农副产品市场,060703,B0H6RL8AWC,购物服务,综合市场,农副产品市场,
116.32855063739585,40.0810616415834,淘菜园(白各庄店),回龙观北店嘉园南区2号楼2号底智农生鲜超市,北京市,北京市,回龙观,购物服务;综合市场;农副产品市场,060703,B0G25PS4LS,购物服务,综合市场,农副产品市场,
116.32869729835586,40.08108236053385,果惠园,回龙观街道龙禧苑五区北店嘉园1号北店嘉园南区2号楼底商,北京市,北京市,回龙观,购物服务;综合市场;果品市场,060704,B0FFJOYCPQ,购物服务,综合市场,果品市场,
116.30616560804448,40.07935327810745,永好果蔬超市,龙禧二街,北京市,北京市,回龙观,购物服务;综合市场;果品市场,060704,B0G2AN3Y3L,购物服务,综合市场,果品市场,
116.31480564230813,40.09351312083195,小曹精品水果,北农市场一厅水果A21-23,北京市,北京市,回龙观,购物服务;综合市场;果品市场,060704,B0FFH14DKD,购物服务,综合市场,果品市场,
116.3152765333125,40.09382220074427,北农水果崔祯佳裕,基杨路北农二厅F18号,北京市,北京市,回龙观,购物服务;综合市场;果品市场,060704,B0G29HOC6A,购物服务,综合市场,果品市场,
116.31437558462939,40.09377291991824,北农香蕉,七小路与华北电力大学南街交叉路口往西约150米,北京市,北京市,回龙观,购物服务;综合市场;果品市场,060704,B0G2910VOH,购物服务,综合市场,果品市场,
116.31459518281602,40.09301655809066,北农市场一厅,七小路附近一厅34号粮油,北京市,北京市,回龙观,购物服务;综合市场;综合市场,060700,B0FFI9A676,购物服务,综合市场,综合市场,
116.32927596535349,40.08113625466603,有厨生鲜(北店嘉园店),龙禧三街北店嘉园-南区,北京市,北京市,回龙观,购物服务;综合市场;果品市场,060704,B0HAUUSYS4,购物服务,综合市场,果品市场,
116.31426694326058,40.092886191964354,小林调料批发配送,北农一厅调料区D45-47-49,北京市,北京市,回龙观,购物服务;综合市场;农副产品市场,060703,B0FFI9DTTT,购物服务,综合市场,农副产品市场,
116.30566822170603,40.082960939403456,百嘉晟鑫糕点原料,回南北路回龙观百嘉城32号楼103号底商,北京市,北京市,回龙观,购物服务;综合市场;农副产品市场,060703,B0FFH13HLY,购物服务,综合市场,农副产品市场,
116.30744380335008,40.08753136775477,传奇水果超市(华北电力大学店),回龙观街道华北电力大学北农路2号,北京市,北京市,回龙观,购物服务;综合市场;果品市场,060704,B0FFI903XB,购物服务,综合市场,果品市场,
116.31468687663273,40.09379032640767,北农米面,小路北农市场二厅F35号,北京市,北京市,回龙观,购物服务;综合市场;农副产品市场,060703,B0G291311Y,购物服务,综合市场,农副产品市场,
116.31505709572494,40.09332065610281,北京鑫航永发商贸有限公司,回龙观镇北农市场三厅B排4号5号,北京市,北京市,回龙观,购物服务;综合市场;蔬菜市场,060705,B0GK3YQXFM,购物服务,综合市场,蔬菜市场,
116.31505709572494,40.09332065610281,北京鲍海东辉商贸有限公司,北农市场三厅,北京市,北京市,回龙观,购物服务;综合市场;蔬菜市场,060705,B0G19YABXT,购物服务,综合市场,蔬菜市场,
116.3152525937036,40.093775249865004,北京嘉缘干果商贸中心,北农市场2号厅FL一F4,北京市,北京市,回龙观,购物服务;综合市场;果品市场,060704,B0FFGII881,购物服务,综合市场,果品市场,
116.33163758779608,40.08104578443866,义乌小商品(文华西路店),文华西路37号附近,北京市,北京市,回龙观,购物服务;综合市场;小商品市场|购物服务;便民商店/便利店;便民商店/便利店,060701|060200,B0FFFAFA4V,购物服务,综合市场,小商品市场|购物服务,便民商店/便利店
116.31479961031167,40.09387310566334,大红门五肉联批发零售,回龙观北农市场二号厅E33号,北京市,北京市,回龙观,购物服务;综合市场;农副产品市场,060703,B0FFLMPJTH,购物服务,综合市场,农副产品市场,
116.31486647301725,40.09375898680014,城北马大兴粮油批发,回龙观北农市场二号厅南侧门面房F19-20号,北京市,北京市,回龙观,购物服务;综合市场;农副产品市场,060703,B0FFIAT1I2,购物服务,综合市场,农副产品市场,
116.31422589055707,40.09403418512985,北农中西餐调味品,北农市场一厅C排32号,北京市,北京市,回龙观,购物服务;综合市场;农副产品市场,060703,B0FFLL5S2V,购物服务,综合市场,农副产品市场,
116.31481547835543,40.09462901927342,小菜娃,北农农产品市场3号厅B排1号-3号,北京市,北京市,回龙观,购物服务;综合市场;农副产品市场,060703,B0GRDYDA8D,购物服务,综合市场,农副产品市场,
116.31474376267641,40.093671226943925,鲜果家生鲜连锁超市(农大店),回龙观镇京昌公路朱辛庄村东南大盛魁北农农产品市场一厅E16、18,北京市,北京市,回龙观,购物服务;综合市场;果品市场,060704,B0G1ZA523I,购物服务,综合市场,果品市场,
116.33377084249128,40.08824127548313,绿源生鲜超市,回龙观镇龙禧一街流星花园三区南门,北京市,北京市,回龙观,购物服务;综合市场;农副产品市场|购物服务;超级市场;超市,060703|060400,B0FFKS7NH8,购物服务,综合市场,农副产品市场|购物服务,超级市场
116.31493029980855,40.093981848717775,帅福盛昌商贸有限公司,北农市场2号厅B35-37号,北京市,北京市,回龙观,购物服务;综合市场;农副产品市场,060703,B0FFGZTJT3,购物服务,综合市场,农副产品市场,
116.31400434437487,40.09440957816776,北农调味品,七小路(中国绿色食品有机食品北京展销中心),北京市,北京市,回龙观,购物服务;综合市场;农副产品市场,060703,B0FFLKJ93F,购物服务,综合市场,农副产品市场,
116.33134429090333,40.0807623575457,文华早市,回龙观文华西路,北京市,北京市,回龙观,购物服务;综合市场;农副产品市场,060703,B0FFHSLPXO,购物服务,综合市场,农副产品市场,
116.29938751180644,40.089337647754995,老纪水果超市,回龙观街道华北电力大学北农路5号,北京市,北京市,回龙观,购物服务;综合市场;果品市场|餐饮服务;餐饮相关场所;餐饮相关,060704|050000,B0FFKT6V1U,购物服务,综合市场,果品市场|餐饮服务,餐饮相关场所
116.32883487852983,40.07404756675223,志广果蔬(龙腾苑店),龙腾街龙腾苑五区北门外公交站,北京市,北京市,回龙观,购物服务;综合市场;果品市场|购物服务;专卖店;专营店,060704|061200,B0FFMHIPUU,购物服务,综合市场,果品市场|购物服务,专卖店
116.30329092062391,40.09365946622947,学生之家精品水果店,回龙观北农路七号北京农学院七号宿舍楼门口,北京市,北京市,回龙观,购物服务;综合市场;果品市场,060704,B0FFLKH5F3,购物服务,综合市场,果品市场,
116.31967337724151,40.07092935246026,丽先缘水果店,育知西路龙泽苑东区1号楼底商,北京市,北京市,回龙观,购物服务;综合市场;果品市场,060704,B0GDLUHBGQ,购物服务,综合市场,果品市场,
116.31547792105258,40.095036726303505,北京鲁泰天然农产品商贸有限公司,市史各庄街道园北街中国绿色食品有机食品北京展销中心,北京市,北京市,回龙观,购物服务;综合市场;果品市场,060704,B0HGFY3ETJ,购物服务,综合市场,果品市场,
116.3152326788286,40.09346131106444,中国绿色食品有机食品北京展销中心北农一厅,回龙观北农市场,北京市,北京市,回龙观,购物服务;综合市场;农副产品市场,060703,B0FFLKQ9XT,购物服务,综合市场,农副产品市场,
116.31486444044695,40.09405196894757,中国绿色食品有机食品北京展销中心,回龙观镇北农路7号(北京农学院东门外),北京市,北京市,回龙观,购物服务;综合市场;农副产品市场,060703,B0FFFCQM8R,购物服务,综合市场,农副产品市场,
116.33160669165521,40.080781860711014,吴记大厂清真牛羊肉文华早市店,文华市场里大厂清真牛羊肉,北京市,北京市,回龙观,购物服务;综合市场;农副产品市场,060703,B0G33YTIJO,购物服务,综合市场,农副产品市场,
116.32812285232808,40.071374097347864,久和一鲜果蔬,龙泽园街道回龙观镇龙腾苑6区30号楼一楼底商,北京市,北京市,回龙观,购物服务;综合市场;果品市场,060704,B0FFLHT792,购物服务,综合市场,果品市场,
116.3286244808007,40.07310602887356,哞哞小花牛鲜奶屋(回龙观店),我爱我家旁边,北京市,北京市,回龙观,购物服务;综合市场;农副产品市场,060703,B0G2DUMGXF,购物服务,综合市场,农副产品市场,
116.33277009144595,40.08048069080221,北大杨哥农场食材(昌平回龙店),回龙观西大街9号院文华市场,北京市,北京市,回龙观,购物服务;综合市场;果品市场,060704,B0G064N7B1,购物服务,综合市场,果品市场,
116.29864104894017,40.08903595420547,蔬菜水果店,回龙观镇朱辛庄北农路5号,北京市,北京市,回龙观,购物服务;综合市场;农副产品市场,060703,B0FFHN0WEW,购物服务,综合市场,农副产品市场,
116.33599028711293,40.06145490694035,三旗百汇购物中心四号厅,西三旗三旗百汇商品城,北京市,北京市,西三旗,购物服务;综合市场;综合市场,060700,B0FFG83095,购物服务,综合市场,综合市场,
116.2992527920187,40.08926888528192,果多多鲜果店,史各庄街道北农路7号北农饭店西南方向小吃街第四,北京市,北京市,回龙观,购物服务;综合市场;果品市场|购物服务;专卖店;专营店,060704|061200,B0FFLJYPJR,购物服务,综合市场,果品市场|购物服务,专卖店
116.33573518527132,40.09023148023324,流星花园三区早市菜市场,流星花园3区23号楼,北京市,北京市,回龙观,购物服务;综合市场;综合市场,060700,B0FFM3DWZB,购物服务,综合市场,综合市场,
116.29394862318489,40.0773356030102,二拨子农贸市场麻辣烫,二拨子路农贸市场重庆小吃旁,北京市,北京市,回龙观,购物服务;综合市场;综合市场,060700,B0G2B9C0RK,购物服务,综合市场,综合市场,
116.31997995526686,40.06869790431905,果味甜甜水果店,昌平路380号,北京市,北京市,回龙观,购物服务;综合市场;果品市场,060704,B0G12NJSEZ,购物服务,综合市场,果品市场,
116.29525112163574,40.08554190938962,马哈马哈牛羊肉,回龙观龙城丽宫酒店附近,北京市,北京市,回龙观,购物服务;综合市场;农副产品市场,060703,B0FFIXMZG5,购物服务,综合市场,农副产品市场,
116.31968436606195,40.07081833841251,志广果蔬菜篮子直营店(龙泽苑店),育知西路,北京市,北京市,回龙观,购物服务;综合市场;果品市场,060704,B0G3CO7SKY,购物服务,综合市场,果品市场,
116.33611398351066,40.061677665283945,思玲干果,三旗百汇商品城四号厅5-15号,北京市,北京市,回龙观,购物服务;综合市场;农副产品市场,060703,B0G2S9L7L5,购物服务,综合市场,农副产品市场,
116.33615313377881,40.05981570429664,四川调料,建材城西路三旗百汇调料2厅1-02-2-0102,北京市,北京市,西三旗,购物服务;综合市场;农副产品市场,060703,B0FFIG0J6L,购物服务,综合市场,农副产品市场,
116.33527590971217,40.06122424242912,彦岩阁,三旗百汇三号厅,北京市,北京市,回龙观,购物服务;综合市场;农副产品市场,060703,B0G2AK3QAH,购物服务,综合市场,农副产品市场,
116.33636537821191,40.06204317987903,果之味超市,三旗百汇北门果知味水果超市,北京市,北京市,西三旗,购物服务;综合市场;果品市场,060704,B0FFHUAHM1,购物服务,综合市场,果品市场,
116.33612996161783,40.061570642237854,京昌森源,三旗百汇商品城四号厅,北京市,北京市,西三旗,购物服务;综合市场;农副产品市场,060703,B0G04N666O,购物服务,综合市场,农副产品市场,
116.3361140024599,40.06152867419764,恰恰食品代理,三旗百汇四号厅茶城干果区,北京市,北京市,西三旗,购物服务;综合市场;农副产品市场,060703,B0G0A6P5LT,购物服务,综合市场,农副产品市场,
116.33618395488682,40.060681595893826,北京常绿常青花木,三旗百汇商品城三厅1-34、36,北京市,北京市,西三旗,购物服务;综合市场;综合市场,060700,B0G297Q8O7,购物服务,综合市场,综合市场,
116.33526395515634,40.06107727339462,琪缘阁,三旗百汇商品城三号厅,北京市,北京市,回龙观,购物服务;综合市场;农副产品市场,060703,B0G2AK3525,购物服务,综合市场,农副产品市场,
116.33524799439083,40.061049304662106,松月堂,三旗百汇商品城三厅,北京市,北京市,西三旗,购物服务;综合市场;农副产品市场,060703,B0G2MKU1W4,购物服务,综合市场,农副产品市场,
116.33599827316456,40.06142489399779,批发双汇火腿肠,三旗百汇四号厅茶城干果区,北京市,北京市,回龙观,购物服务;综合市场;农副产品市场,060703,B0G0PBAFRZ,购物服务,综合市场,农副产品市场,
116.33510930876507,40.061015563935456,瑞瑛轩,三旗百汇商品城三厅,北京市,北京市,回龙观,购物服务;综合市场;农副产品市场,060703,B0GRHKOHGV,购物服务,综合市场,农副产品市场,
116.33615292369062,40.0614676060698,金玉轩,三旗百汇四厅,北京市,北京市,回龙观,购物服务;综合市场;农副产品市场,060703,B0G0PRFQVI,购物服务,综合市场,农副产品市场,
116.33550944163926,40.06080483486534,鑫旺五常稻花香米,[],北京市,北京市,西三旗,购物服务;综合市场;农副产品市场,060703,B0FFFVQZGZ,购物服务,综合市场,农副产品市场,
116.33599230289214,40.06129591275456,紫砂壶茶叶店,西三旗太平庄北街百汇商品城四号厅1一06,北京市,北京市,西三旗,购物服务;综合市场;农副产品市场,060703,B0FFIZCQZ0,购物服务,综合市场,农副产品市场,
116.33649730297402,40.06033603924552,常来福调料大全,回龙观镇三旗百汇商品城2厅3通道07-09号,北京市,北京市,西三旗,购物服务;综合市场;农副产品市场,060703,B0GRC5DO6Q,购物服务,综合市场,农副产品市场,
116.33594741439822,40.06120500108502,龙翔鸿顺调料,太平庄北街三旗百汇调料厅A-22,北京市,北京市,西三旗,购物服务;综合市场;农副产品市场,060703,B0G0PB9UQU,购物服务,综合市场,农副产品市场,
116.33631869627838,40.06036136663419,多向国副食,三旗百汇商品城2厅A-14号,北京市,北京市,西三旗,购物服务;综合市场;农副产品市场,060703,B0G2MKVRFG,购物服务,综合市场,农副产品市场,
116.33641148603401,40.06039419376318,生香如意商贸,三旗百汇商品城调料厅,北京市,北京市,西三旗,购物服务;综合市场;农副产品市场,060703,B0G2AK39UP,购物服务,综合市场,农副产品市场,
116.33645937070185,40.06046510137298,北京秦豫鑫钰,三旗百汇二厅,北京市,北京市,西三旗,购物服务;综合市场;农副产品市场,060703,B0GRD9L1TF,购物服务,综合市场,农副产品市场,
116.33721665361946,40.0607806918216,北京继红商贸,三旗百汇商品城一层东南角E-B-13,北京市,北京市,西三旗,购物服务;综合市场;农副产品市场,060703,B0G0PLFCSQ,购物服务,综合市场,农副产品市场,
116.33527708929539,40.05979432553316,荣华斋,三旗百汇商品城一号厅,北京市,北京市,回龙观,购物服务;综合市场;农副产品市场,060703,B0G2UL4DZW,购物服务,综合市场,农副产品市场,
116.33528806134046,40.05982130359057,鸿福志远,三旗百汇一厅,北京市,北京市,西三旗,购物服务;综合市场;农副产品市场,060703,B0GRPOMRZ8,购物服务,综合市场,农副产品市场,
116.3375988116998,40.06077099319452,赛兄纳弟,三旗百汇商品城负一层,北京市,北京市,回龙观,购物服务;综合市场;农副产品市场,060703,B0G0PBB3SJ,购物服务,综合市场,农副产品市场,
116.3364953241896,40.060204050748204,王晓峰一次性餐盒,三旗百汇二厅,北京市,北京市,西三旗,购物服务;综合市场;农副产品市场,060703,B0GRL7NI8R,购物服务,综合市场,农副产品市场,
116.33764073464357,40.06065092377131,御陶轩,百汇商城负一楼,北京市,北京市,西三旗,购物服务;综合市场;农副产品市场,060703,B0G0ACWLED,购物服务,综合市场,农副产品市场,
116.33762976301917,40.060617945783186,陆老师密胺,百汇商城负一楼,北京市,北京市,西三旗,购物服务;综合市场;农副产品市场,060703,B0G04O995A,购物服务,综合市场,农副产品市场,
116.33519807893916,40.061261384527484,北京弓人驿站,三旗百汇三号厅,北京市,北京市,西三旗,购物服务;综合市场;综合市场,060700,B0G0PBBA6X,购物服务,综合市场,综合市场,
116.33526692837881,40.06123525842016,三渡水景,三旗百汇三号厅,北京市,北京市,西三旗,购物服务;综合市场;综合市场,060700,B0G0C4S46M,购物服务,综合市场,综合市场,
116.33526094226477,40.06123126975771,德君堂,三旗百汇三号厅,北京市,北京市,西三旗,购物服务;综合市场;综合市场,060700,B0GRGKOCKC,购物服务,综合市场,综合市场,
116.33596235158082,40.061436959595525,勇川达旺商贸中心,三旗百汇商品城四厅,北京市,北京市,西三旗,购物服务;综合市场;综合市场,060700,B0G2MKTXBL,购物服务,综合市场,综合市场,
116.33691830596969,40.06083823547584,翔海鲜鲜达,建材城西路22号(百汇商城),北京市,北京市,西三旗,购物服务;综合市场;水产海鲜市场,060706,B0FFH1ZZMX,购物服务,综合市场,水产海鲜市场,
116.33508735646066,40.06102660401356,水祥和水族,三旗百汇商品城三号厅,北京市,北京市,西三旗,购物服务;综合市场;综合市场,060700,B0G254RPEQ,购物服务,综合市场,综合市场,
116.33615290919245,40.06158159925333,京祥想胜乐贸易,三旗百汇四厅4-27、29,北京市,北京市,回龙观,购物服务;综合市场;综合市场,060700,B0G0ZXYP86,购物服务,综合市场,综合市场,
116.33491675045636,40.06093092651578,宝木堂,三旗百汇商品城三厅,北京市,北京市,西三旗,购物服务;综合市场;综合市场,060700,B0G2KOX352,购物服务,综合市场,综合市场,
116.33519411367064,40.061058404039265,宝阁风,三旗百汇商品城三号厅,北京市,北京市,西三旗,购物服务;综合市场;综合市场,060700,B0G3A49VH0,购物服务,综合市场,综合市场,
116.3351581975328,40.061030472334366,彬子鸣虫,三旗百汇商品城三号厅,北京市,北京市,西三旗,购物服务;综合市场;综合市场,060700,B0G29CQSVQ,购物服务,综合市场,综合市场,
116.33600029237756,40.061238901421994,北京明月平利调料,三旗百汇调料厅,北京市,北京市,西三旗,购物服务;综合市场;农副产品市场,060703,B0GKYBELMD,购物服务,综合市场,农副产品市场,
116.33595339407796,40.061259986748034,百味汇坊,三旗百汇调料厅,北京市,北京市,西三旗,购物服务;综合市场;综合市场,060700,B0GKYBF8R3,购物服务,综合市场,综合市场,
116.3352310434869,40.06096134135752,沁碧轩,三旗百汇三号厅,北京市,北京市,西三旗,购物服务;综合市场;综合市场,060700,B0G2U9409T,购物服务,综合市场,综合市场,
116.33569594500136,40.061437451874056,恒丰粮油,三旗百汇商品城,北京市,北京市,回龙观,购物服务;综合市场;农副产品市场,060703,B0GR6X2810,购物服务,综合市场,农副产品市场,
116.33523404239138,40.060917338428204,金英鱼饵料,三旗百汇商品城三号厅2-46号,北京市,北京市,西三旗,购物服务;综合市场;综合市场,060700,B0G2M6U1SF,购物服务,综合市场,综合市场,
116.33522406151256,40.06094235544074,庆明堂,三旗百汇三号厅,北京市,北京市,西三旗,购物服务;综合市场;综合市场,060700,B0G0A6QLGF,购物服务,综合市场,综合市场,
116.33511830864357,40.06085855662548,礼信宏顺,三旗百汇三号厅,北京市,北京市,西三旗,购物服务;综合市场;综合市场,060700,B0G3ZYOWFF,购物服务,综合市场,综合市场,
116.33600827359776,40.06124688621,王家渡,三旗百汇调料厅,北京市,北京市,回龙观,购物服务;综合市场;综合市场,060700,B0G064LRJQ,购物服务,综合市场,综合市场,
116.33621091001325,40.060563553238346,草原牧场牛肉干,回龙观街道三旗百汇商场底商一号厅,北京市,北京市,西三旗,购物服务;综合市场;农副产品市场,060703,B0FFIIS2UH,购物服务,综合市场,农副产品市场,
116.33537974136526,40.060725079851835,瑞香花卉,三旗百汇三号厅,北京市,北京市,西三旗,购物服务;综合市场;综合市场,060700,B0GRNLC1FO,购物服务,综合市场,综合市场,
116.33621289591287,40.06063954504162,田园农贸特色农产品,三旗百汇四厅东二排八号,北京市,北京市,西三旗,购物服务;综合市场;农副产品市场,060703,B0GK0UBSK6,购物服务,综合市场,农副产品市场,
116.33579974782884,40.06116927603463,京运干果行(批发零售各种干果),太平庄北街三旗百汇四号厅四通道16号,北京市,北京市,西三旗,购物服务;综合市场;农副产品市场,060703,B0FFIG08R9,购物服务,综合市场,农副产品市场,
116.33541474832136,40.060057054812795,生鲜综合超市办公室,建材城西路清韵茶业对面,北京市,北京市,回龙观,购物服务;综合市场;农副产品市场,060703,B0GKVA29P8,购物服务,综合市场,农副产品市场,
116.33621091001325,40.060563553238346,春江绿茵商贸中心,三旗百汇商品城四厅4-10,北京市,北京市,回龙观,购物服务;综合市场;综合市场,060700,B0GRKX6D67,购物服务,综合市场,综合市场,
116.33621390285181,40.06056754748215,清真缘鑫商贸中心,三旗百汇商品城,北京市,北京市,西三旗,购物服务;综合市场;农副产品市场,060703,B0G27UFOH3,购物服务,综合市场,农副产品市场,
116.33533480845868,40.06098614750912,三旗百汇胖子渔具钓具观赏鱼水泵,三旗百汇3号厅2通道27号,北京市,北京市,西三旗,购物服务;综合市场;果品市场,060704,B0FFI9G9OR,购物服务,综合市场,果品市场,
116.33645836134265,40.06055609780337,湘金宏远,三旗百汇二厅调料厅,北京市,北京市,回龙观,购物服务;综合市场;综合市场,060700,B0GRAC6FNU,购物服务,综合市场,综合市场,
116.33627478121264,40.060460441652104,北斗八星商贸,三旗百汇词料厅,北京市,北京市,回龙观,购物服务;综合市场;综合市场,060700,B0GRNLDC6X,购物服务,综合市场,综合市场,
116.33549956257268,40.06002889941169,廖振发冻货行,三旗百汇一号厅,北京市,北京市,回龙观,购物服务;综合市场;综合市场,060700,B0GKYBE6R7,购物服务,综合市场,综合市场,
116.3374720700307,40.0609362150098,盛芳密胺,百汇商城负一楼,北京市,北京市,西三旗,购物服务;综合市场;综合市场,060700,B0G2Z7IS3U,购物服务,综合市场,综合市场,
116.3376267159254,40.06103992612922,蒙古王,三旗百汇商品城,北京市,北京市,西三旗,购物服务;综合市场;综合市场,060700,B0GRPOOH60,购物服务,综合市场,综合市场,
116.33632767035601,40.0604083473,北京胡平商贸,三旗百汇调料厅,北京市,北京市,回龙观,购物服务;综合市场;综合市场,060700,B0G3ZNMY99,购物服务,综合市场,综合市场,
116.33629874632746,40.06031640607281,兰氏竹签专批,三旗百汇商品城调料厅,北京市,北京市,回龙观,购物服务;综合市场;综合市场,060700,B0G2MKTU4N,购物服务,综合市场,综合市场,
116.33758383500967,40.06084701601939,其兴永宏,三旗百汇商城负一楼,北京市,北京市,回龙观,购物服务;综合市场;综合市场,060700,B0G0AKOEFO,购物服务,综合市场,综合市场,
116.33724860332707,40.060621642795695,吉顺宝昌,百汇商城负一层,北京市,北京市,西三旗,购物服务;综合市场;综合市场,060700,B0G0AUV8NK,购物服务,综合市场,综合市场,
116.33747209242097,40.06076022548861,银海恒昌,百汇商城负一楼,北京市,北京市,西三旗,购物服务;综合市场;农副产品市场,060703,B0G276CGZ9,购物服务,综合市场,农副产品市场,
116.3375748776981,40.06066704314072,广辉融泰,三旗百汇商品城负一层,北京市,北京市,西三旗,购物服务;综合市场;综合市场,060700,B0GKYBGATQ,购物服务,综合市场,综合市场,
116.33765669057414,40.060720890447264,鲲鹏美厨房设备,百汇商城负一楼,北京市,北京市,西三旗,购物服务;综合市场;综合市场,060700,B0G0C4R1PG,购物服务,综合市场,综合市场,
116.33773750854284,40.06075274096626,世纪华厨,百汇商城负一层,北京市,北京市,西三旗,购物服务;综合市场;综合市场,060700,B0G2Z7H64P,购物服务,综合市场,综合市场,
116.33729450719771,40.06058056118426,凤婧杰,百汇商城负一楼,北京市,北京市,西三旗,购物服务;综合市场;综合市场,060700,B0G0ACVGOC,购物服务,综合市场,综合市场,
116.33754594579516,40.06063309804768,胜琳轩,百汇商城负一楼,北京市,北京市,西三旗,购物服务;综合市场;综合市场,060700,B0G2AODCYR,购物服务,综合市场,综合市场,
116.33753895559249,40.06067710819812,凯鑫盛世,三旗百汇商品城负一层,北京市,北京市,西三旗,购物服务;综合市场;综合市场,060700,B0G064KSE7,购物服务,综合市场,综合市场,
116.33747810008299,40.06059622429437,金朗丽家,百汇商城地下一层,北京市,北京市,西三旗,购物服务;综合市场;综合市场,060700,B0G29UNS5Y,购物服务,综合市场,综合市场,
116.33825818624506,40.06214870838717,北京小菜园蔬菜批发配送中心,太平庄北街旺发蔬菜配送综合超市B-25号,北京市,北京市,西三旗,购物服务;综合市场;农副产品市场,060703,B0FFI9HS3W,购物服务,综合市场,农副产品市场,
116.33716774356562,40.06092277294388,北京京徽鸿丰商贸中心,西三旗百汇商城2号楼1层,北京市,北京市,西三旗,购物服务;综合市场;农副产品市场,060703,B0FFGFZ881,购物服务,综合市场,农副产品市场,
116.33589356995913,40.06092511728621,茶城,太平庄北街与文博路交叉路口往南约100米,北京市,北京市,回龙观,购物服务;综合市场;农副产品市场,060703,B0FFM68LFM,购物服务,综合市场,农副产品市场,
116.3361252109028,40.0596977628023,北京四季康冷冻食品有限公司,西三旗太平庄北街与文博路交汇处南三旗百汇商品城2号厅A31,北京市,北京市,西三旗,购物服务;综合市场;农副产品市场,060703,B0FFGK1AIM,购物服务,综合市场,农副产品市场,
116.33590742122603,40.06185003622409,百汇Beautiful化妆品,回龙观街道三旗百汇商品城4层4C38,北京市,北京市,西三旗,购物服务;综合市场;果品市场|购物服务;专卖店;专营店,060704|061200,B000A9IQYH,购物服务,综合市场,果品市场|购物服务,专卖店
116.3316954889686,40.08078869268343,百老泉纯梁酒坊,文华市场内,北京市,北京市,回龙观,购物服务;综合市场;农副产品市场,060703,B0FFIVE7EM,购物服务,综合市场,农副产品市场,
116.33166854102723,40.08086073862768,韩帝园绿色食品专营店,回龙观镇龙禧文华路农副产品交易市场内A-112,北京市,北京市,回龙观,购物服务;综合市场;农副产品市场,060703,B0FFKTD3KN,购物服务,综合市场,农副产品市场,
116.33166855984281,40.08071274865649,寨里黑纯正霍寿山黑猪肉,回龙观小区文华西路文华市场展销厅内,北京市,北京市,回龙观,购物服务;综合市场;农副产品市场,060703,B0FFGYZHVE,购物服务,综合市场,农副产品市场,
116.32962905445959,40.0347853182169,毛纺城市场,小营西路16号,北京市,北京市,清河,购物服务;服装鞋帽皮具店;服装鞋帽皮具店|购物服务;综合市场;综合市场,061100|060700,B000A7PYPB,购物服务,服装鞋帽皮具店,服装鞋帽皮具店|购物服务,综合市场
116.31688560846382,40.032757865750376,穆兰亭生鲜超市,安宁庄西路美和园西区6号楼1层104,北京市,北京市,清河,购物服务;综合市场;农副产品市场,060703,B0FFIINIBB,购物服务,综合市场,农副产品市场,
116.33709097014155,40.03693324747323,通厦小营建材城,京藏高速辅路与小营东路交叉口东100米,北京市,北京市,永泰,购物服务;家居建材市场;家具建材综合市场,060601,B000A96HCR,购物服务,家居建材市场,家具建材综合市场,
116.31668430609297,40.03877394182544,鲜果庄园(安宁庄西路店),安宁庄西路15号5号楼1层1门101,北京市,北京市,清河,购物服务;综合市场;果品市场,060704,B0FFK95ZCH,购物服务,综合市场,果品市场,
116.32737558938955,40.031882763032584,百果园(橡树湾店),学府树中街1-19号,北京市,北京市,清河,购物服务;综合市场;果品市场,060704,B0FFI2P87F,购物服务,综合市场,果品市场,
116.31269063673375,40.02865005500121,果中鲜(北体北门店),上地南路6号院,北京市,北京市,上地,购物服务;综合市场;果品市场,060704,B0FFFACV8Z,购物服务,综合市场,果品市场,
116.30852047468369,40.031998698207325,鲜果庄园(上地东里店),上地东里社区服务中心内,北京市,北京市,上地,购物服务;综合市场;农副产品市场,060703,B0FFK6AHQ0,购物服务,综合市场,农副产品市场,
116.30592047356282,40.02920561862587,阳澄湖大闸蟹(信息路店),信息路19号商服大厦1层(近超市发、北京华联),北京市,北京市,上地,购物服务;综合市场;水产海鲜市场,060706,B0FFH3MDRN,购物服务,综合市场,水产海鲜市场,
116.31398506768467,40.04170593356166,双汇冷鲜肉(安宁庄西二条),当代城市家园9号院5号楼4门,北京市,北京市,清河,购物服务;综合市场;农副产品市场,060703,B0FFH16KGH,购物服务,综合市场,农副产品市场,
116.33010273820648,40.028758721412665,7FRESH(清河万象汇店),清河中街68号清河万象汇B1层,北京市,北京市,清河,购物服务;综合市场;综合市场|购物服务;超级市场;超市,060700|060400,B0FFIII2Z2,购物服务,综合市场,综合市场|购物服务,超级市场
116.32629994830951,40.04066237009369,二东栗子(安宁庄店),小营桥西安宁庄东路18号(近幸福超市),北京市,北京市,清河,购物服务;综合市场;果品市场,060704,B0FFFPA9F1,购物服务,综合市场,果品市场,
116.31560923182005,40.0429117771531,快乐菜菜店,安宁庄西路9号院2号楼1层01-8号,北京市,北京市,清河,购物服务;综合市场;果品市场,060704,B0G2M6UOIM,购物服务,综合市场,果品市场,
116.32890238216628,40.03742356529337,果多美(安宁庄东路店),安宁庄东路30号,北京市,北京市,清河,购物服务;综合市场;果品市场,060704,B0GKJMWQO6,购物服务,综合市场,果品市场,
116.32621011407375,40.04098552520737,小姚栗子(安宁庄店),清河安宁庄东路18号23号楼西半部一层南132号,北京市,北京市,清河,购物服务;综合市场;果品市场,060704,B0FFKU6N78,购物服务,综合市场,果品市场,
116.32573713777857,40.041501404963725,大厂牛羊肉(清河商业城店),安宁庄东路18号清河商业城1层底商,北京市,北京市,清河,购物服务;综合市场;农副产品市场|餐饮服务;餐饮相关场所;餐饮相关,060703|050000,B0FFIQF80H,购物服务,综合市场,农副产品市场|餐饮服务,餐饮相关场所
116.32049486532905,40.044307334631455,志广果蔬安宁华庭店,安宁华庭一区G-02,北京市,北京市,清河,购物服务;综合市场;果品市场,060704,B0FFLP5YL1,购物服务,综合市场,果品市场,
116.32635892446378,40.03978130350081,切果NOW(第3档口+万豪美食城店),安宁庄东路万豪美食城,北京市,北京市,清河,购物服务;综合市场;果品市场,060704,B0GRAC60YG,购物服务,综合市场,果品市场,
116.3271952087487,40.030270188849265,哞哞小花牛鲜奶屋(五彩城店),学府树家园二区7-1号至7-20号1楼7-6室,北京市,北京市,清河,购物服务;综合市场;农副产品市场,060703,B000AA1W8O,购物服务,综合市场,农副产品市场,
116.33114680186627,40.04100211711624,每日优鲜(清河星店),四拨子车站路西平房1-39号,北京市,北京市,清河,购物服务;综合市场;蔬菜市场,060705,B0FFKSAM71,购物服务,综合市场,蔬菜市场,
116.33295115512485,40.029641300734895,果唯伊(清河中街店),清河中路69号附近,北京市,北京市,清河,购物服务;综合市场;果品市场,060704,B0FFH9BAZF,购物服务,综合市场,果品市场,
116.30780291814406,40.025076367019224,干果张(上地店),信息路38号,北京市,北京市,上地,购物服务;综合市场;果品市场,060704,B0GK5B7SXW,购物服务,综合市场,果品市场,
116.3329612915754,40.028388343758586,小胡干鲜果品超市,清河中街16号院附近,北京市,北京市,清河,购物服务;综合市场;果品市场,060704,B0FFFZCDOQ,购物服务,综合市场,果品市场,
116.33635953605517,40.029504968110324,粒上皇(清河店),清河毛纺厂路2号清河中街香满楼旁,北京市,北京市,清河,购物服务;综合市场;果品市场|餐饮服务;餐饮相关场所;餐饮相关,060704|050000,B0FFJ8Y45X,购物服务,综合市场,果品市场|餐饮服务,餐饮相关场所
116.33345517212749,40.02842741626791,哞哞小花牛鲜奶屋,清河毛纺南小区哞哞小花牛鲜奶屋,北京市,北京市,清河,购物服务;综合市场;农副产品市场,060703,B0FFKI5MI4,购物服务,综合市场,农副产品市场,
116.33483613199967,40.03579546928197,北京清河镇农副产品交易市场中心,小营西路7号,北京市,北京市,清河,购物服务;综合市场;农副产品市场,060703,B0FFG4J98Y,购物服务,综合市场,农副产品市场,
116.31920001966556,40.05079946642862,80后小站(昌平路店),昌平镇宁馨苑1号楼6层2单元261,北京市,北京市,西三旗,购物服务;综合市场;蔬菜市场,060705,B0FFG4GQ0S,购物服务,综合市场,蔬菜市场,
116.33109590065244,40.04113620626529,美团买菜(青尚办公区店),四拨子车站路1-39-109号,北京市,北京市,清河,购物服务;综合市场;蔬菜市场,060705,B0FFM663IK,购物服务,综合市场,蔬菜市场,
116.33527693063976,40.02963196250832,菜老包(清河市场店),清河毛纺路7幢1至3层一层103(清河供应站),北京市,北京市,清河,购物服务;综合市场;农副产品市场,060703,B0G295NK4S,购物服务,综合市场,农副产品市场,
116.33676955543974,40.03792078615956,通厦小营茶城,清河小营东路通厦小营建材城北门,北京市,北京市,永泰,购物服务;综合市场;农副产品市场,060703,B000A9R37L,购物服务,综合市场,农副产品市场,
116.31649396983963,40.0211661828257,北体水果店,上地路,北京市,北京市,上地,购物服务;综合市场;果品市场,060704,B0FFLO9E15,购物服务,综合市场,果品市场,
116.33563313664642,40.02962530313947,清河惠民生活超市,清河中街(清河毛纺路16号院东北侧),北京市,北京市,清河,购物服务;综合市场;蔬菜市场,060705,B0G3AZBQMW,购物服务,综合市场,蔬菜市场,
116.33909649072905,40.02968596296493,果唯伊,清河二街72号,北京市,北京市,清河,购物服务;综合市场;果品市场,060704,B0FFL69OG6,购物服务,综合市场,果品市场,
116.30731668574104,40.05112590474575,老邱水果超市,西二旗大街西二旗益民市场F19号,北京市,北京市,西二旗,购物服务;综合市场;果品市场,060704,B0FFFSYK9G,购物服务,综合市场,果品市场,
116.33680852341044,40.02964113546276,大众水果店(清河中街店),清河三街103号附近,北京市,北京市,清河,购物服务;综合市场;果品市场,060704,B0FFG8VQ0L,购物服务,综合市场,果品市场,
116.30515335025623,40.02736110475734,LIFESTYLE MARKET(华联上地购物中心店),农大南路1号院1号楼BHG Mall北京华联上地购物中心B1层,北京市,北京市,上地,购物服务;综合市场;综合市场,060700,B0FFHKX3XM,购物服务,综合市场,综合市场,
116.33450727164826,40.03263124222642,胖妈生鲜超市(燕语清园店),清河小营燕语清园西门,北京市,北京市,清河,购物服务;综合市场;农副产品市场,060703,B0G2LUL3KE,购物服务,综合市场,农副产品市场,
116.30067435021766,40.04615111749982,百果园(贝壳店),创业路2号1幢2层218室,北京市,北京市,上地,购物服务;综合市场;果品市场,060704,B0G1BP7SEL,购物服务,综合市场,果品市场,
116.34033295213749,40.02855679411144,缤果精品超市,清河嘉园东区甲1号,北京市,北京市,清河,购物服务;综合市场;果品市场|购物服务;超级市场;超市,060704|060400,B0FFGHD9O5,购物服务,综合市场,果品市场|购物服务,超级市场
116.33909749427372,40.0296409633866,干果张,清河二街72号西北60米,北京市,北京市,清河,购物服务;综合市场;果品市场|购物服务;专卖店;专营店,060704|061200,B0GUXXC2B5,购物服务,综合市场,果品市场|购物服务,专卖店
116.33677958784716,40.02963818876367,糖炒栗子水果店,永泰庄北路40号附近,北京市,北京市,清河,购物服务;综合市场;果品市场,060704,B0G221WURW,购物服务,综合市场,果品市场,
116.34196915512025,40.03081877193209,品乐果·水果&超市,清河一街60号1层106房间,北京市,北京市,永泰,购物服务;综合市场;果品市场,060704,B0FFHTX24L,购物服务,综合市场,果品市场,
116.3347336485823,40.04139636725231,金乡道黑土猪销售公司,营福路9号院9-13号楼1层,北京市,北京市,清河,购物服务;综合市场;农副产品市场,060703,B0GDTU0NC6,购物服务,综合市场,农副产品市场,
116.3365615828789,40.04132398971582,阿强水果店,小营东路君安家园西区三号楼阿强水果店,北京市,北京市,清河,购物服务;综合市场;果品市场,060704,B0HA6P5BC2,购物服务,综合市场,果品市场,
116.33291041642404,40.028310443068,大厂清真牛羊肉(清河毛纺路16号院西南),毛纺路16号院-15号楼附近,北京市,北京市,清河,购物服务;综合市场;农副产品市场,060703,B0FFH95W9D,购物服务,综合市场,农副产品市场,
116.33761376782253,40.02946466901176,水果店,清河中街与清河二街交叉路口往西南约50米,北京市,北京市,清河,购物服务;综合市场;果品市场,060704,B0G39OVJAT,购物服务,综合市场,果品市场,
116.29932358637078,40.034298089114664,百佳利社区便民蔬菜水果超市,马连洼北路东居兴业写字楼,北京市,北京市,上地,购物服务;综合市场;蔬菜市场,060705,B0FFLLAETG,购物服务,综合市场,蔬菜市场,
116.33835908725791,40.04550247783357,惠民鲜生生活超市,育新花园西路莱圳家园18号楼底商,北京市,北京市,西三旗,购物服务;综合市场;农副产品市场,060703,B0GUYX3MRQ,购物服务,综合市场,农副产品市场,
116.33442689595952,40.03700016855434,北京清河镇农副产品交易市场中心,小营西路与G6辅路交汇处,北京市,北京市,清河,购物服务;综合市场;农副产品市场,060703,B0G3RAC0BO,购物服务,综合市场,农副产品市场,
116.33674069092766,40.03735886838387,美心木门,小营东路清河小营建材城综合一区9号,北京市,北京市,永泰,购物服务;家居建材市场;家具建材综合市场,060601,B0HG7PJQXT,购物服务,家居建材市场,家具建材综合市场,
116.31485317211538,40.017446489295324,体大蔬菜便民市场,滨河路与箭亭桥交叉口东南50米,北京市,北京市,,购物服务;综合市场;蔬菜市场,060705,B000A9R18M,购物服务,综合市场,蔬菜市场,
116.30164839165833,40.04580142562327,阳澄湖大闸蟹(上地七街店),上地七街1号,北京市,北京市,上地,购物服务;综合市场;水产海鲜市场,060706,B0GKYBE6KO,购物服务,综合市场,水产海鲜市场,
116.30836845024244,40.01899461179652,阿澄湖大闸蟹,信息路58号附近,北京市,北京市,上地,购物服务;综合市场;水产海鲜市场|购物服务;专卖店;专营店,060706|061200,B0GUJBMWYL,购物服务,综合市场,水产海鲜市场|购物服务,专卖店
116.29772688865035,40.04129945966555,许氏粮油(康得大厦店),上地六街17号,北京市,北京市,上地,购物服务;综合市场;农副产品市场,060703,B0GKSBES5T,购物服务,综合市场,农副产品市场,
116.31469553522051,40.01740079152198,蔡记水果店,北京体育大学家属区北门体大蔬菜便民市场内蔡记水果店,北京市,北京市,,购物服务;综合市场;果品市场,060704,B0GKBBD6UL,购物服务,综合市场,果品市场,
116.34065465173795,40.02547037004615,佰客吉生鲜超市,清河三街2号正东方向30米,北京市,北京市,清河,购物服务;综合市场;农副产品市场,060703,B0FFHNDN9M,购物服务,综合市场,农副产品市场,
116.31091630241231,40.01521503793982,果宝宝(中关村北大街店),中关村北大街17号北京至尚招待所,北京市,北京市,,购物服务;综合市场;农副产品市场,060703,B0G064MIZO,购物服务,综合市场,农副产品市场,
116.33837603800612,40.045597441859,好适口刺果果店,[],北京市,北京市,清河,购物服务;综合市场;果品市场|购物服务;专卖店;专营店,060704|061200,B0G3YLW0FD,购物服务,综合市场,果品市场|购物服务,专卖店
116.34047057442797,40.02919051647288,冰河谷黑猪,清河强佑清河新城A座,北京市,北京市,清河,购物服务;综合市场;农副产品市场,060703,B0HGU4DEMW,购物服务,综合市场,农副产品市场,
116.32505598410923,40.055067961962166,大江栗子,清河街道西三旗桥,北京市,北京市,西三旗,购物服务;综合市场;果品市场,060704,B0GK4AMTS2,购物服务,综合市场,果品市场,
116.33777543604174,40.0449765694468,双汇冷鲜肉,西小口路88-17号附近,北京市,北京市,西三旗,购物服务;综合市场;农副产品市场,060703,B0GU39KPJ2,购物服务,综合市场,农副产品市场,
116.34147716149033,40.0311606254915,便民蔬菜水果,西小口路莱圳家园北区17号楼快时生活超市,北京市,北京市,永泰,购物服务;综合市场;果品市场,060704,B0FFMGUEW2,购物服务,综合市场,果品市场,
116.33804147833813,40.04790192435535,杜家香油专卖店,东海升商务楼,北京市,北京市,清河,购物服务;综合市场;农副产品市场,060703,B0GRGKM14Z,购物服务,综合市场,农副产品市场,
116.33054217910929,40.05672438859538,汉食生鲜(沁春汇店),建材城西路62号沁春汇1层底商,北京市,北京市,西三旗,购物服务;综合市场;农副产品市场,060703,B0FFK5N60E,购物服务,综合市场,农副产品市场,
116.34209372217622,40.02428987288396,四季便民生鲜蔬菜水果超市,清河南大街与滨河路交叉路口东侧(四街社区),北京市,北京市,,购物服务;综合市场;农副产品市场,060703,B0FFI9B527,购物服务,综合市场,农副产品市场,
116.32423180071721,40.05572850739972,水果批发零售,[],北京市,北京市,西三旗,购物服务;综合市场;果品市场,060704,B0FFM0OEMV,购物服务,综合市场,果品市场,
116.342085739154,40.0242898869648,便民菜店,清河四街东后街81号,北京市,北京市,,购物服务;综合市场;蔬菜市场,060705,B0FFKPPARQ,购物服务,综合市场,蔬菜市场,
116.29600491460181,40.05191077608356,田归农水果(上地店),上地十街1号院6号楼B05(猫婆小面内),北京市,北京市,上地,购物服务;综合市场;果品市场,060704,B0HGO6TAMJ,购物服务,综合市场,果品市场,
116.3175947258358,39.97949789235171,海中市场,中关村南路新科祥园8号楼,北京市,北京市,,购物服务;综合市场;蔬菜市场,060705,B000AAF45U,购物服务,综合市场,蔬菜市场,
116.31389762203194,39.98351578336841,保家肉水果店,中关村南一街5号,北京市,北京市,中关村,购物服务;综合市场;农副产品市场,060703,B0FFFVLPQC,购物服务,综合市场,农副产品市场,
116.32059551205965,39.98210902250217,天使之橙,科学院南路2号院,北京市,北京市,,购物服务;综合市场;农副产品市场,060703,B0FFK6IXNT,购物服务,综合市场,农副产品市场,
116.33893053447245,39.9614232194583,北京四道口水产批发市场,四道口路1号(近文林大厦),北京市,北京市,大钟寺村,购物服务;综合市场;水产海鲜市场,060706,B000A85RF8,购物服务,综合市场,水产海鲜市场,
116.31271513896606,39.98466697613977,南门水果,中关村路27号,北京市,北京市,,购物服务;综合市场;果品市场,060704,B0FFKD3H3J,购物服务,综合市场,果品市场,
116.31045712815747,39.98506920796466,苏蟹阁(中关村店),中关村北大街178-5号,北京市,北京市,中关村,购物服务;综合市场;水产海鲜市场,060706,B0FFJK2UGW,购物服务,综合市场,水产海鲜市场,
116.31377936683988,39.97973016269444,果香四溢生鲜超市,中关村南路25号附近,北京市,北京市,中关村,购物服务;综合市场;果品市场,060704,B0G3JLAXM8,购物服务,综合市场,果品市场,
116.3132375915756,39.979699191072946,粒上皇(中关村店),中关村南路5号中关村医院斜对面,北京市,北京市,中关村,购物服务;综合市场;果品市场,060704,B0FFHCPNCU,购物服务,综合市场,果品市场,
116.3140357642608,39.97991866826006,83楼市场,中关村83楼1层,北京市,北京市,中关村,购物服务;综合市场;蔬菜市场,060705,B0FFI17KP0,购物服务,综合市场,蔬菜市场,
116.31768352469854,39.97948272276911,海中商场,中关村街道三环到四环之间中关村南路甲2号海中市场,北京市,北京市,,购物服务;综合市场;综合市场,060700,B0HGNHLL1I,购物服务,综合市场,综合市场,
116.31328645169677,39.97993608887157,八三楼便民点,中关村南路5号,北京市,北京市,中关村,购物服务;综合市场;蔬菜市场,060705,B0FFF6ZVTD,购物服务,综合市场,蔬菜市场,
116.3177194583216,39.979357658979254,花市集,中关村南路,北京市,北京市,,购物服务;综合市场;综合市场,060700,B0GR06UBAK,购物服务,综合市场,综合市场,
116.31288437354885,39.97979685566135,露阳便民市场,中关村南二街7号,北京市,北京市,中关村,购物服务;综合市场;综合市场,060700,B0FFKSFAWX,购物服务,综合市场,综合市场,
116.32766031726679,39.98158147474107,果多美(保福寺店),中关村东路332号保福寺桥南公交站,北京市,北京市,五道口,购物服务;综合市场;果品市场|购物服务;专卖店;专营店,060704|061200,B0FFJ9QTQQ,购物服务,综合市场,果品市场|购物服务,专卖店
116.32759665029269,39.980106656686466,社区果蔬便民店,中关村南四街怡升园小区底商109号,北京市,北京市,,购物服务;综合市场;果品市场,060704,B0FFIAMGEU,购物服务,综合市场,果品市场,
116.32520483990518,39.990448812678444,闻氏详合综合食品店,三才堂粮店平房2号,北京市,北京市,五道口,购物服务;综合市场;蔬菜市场|购物服务;便民商店/便利店;便民商店/便利店,060705|060200,B0FFHEQIU6,购物服务,综合市场,蔬菜市场|购物服务,便民商店/便利店
116.30309574487038,39.987368599906716,山合谷(北京大学店),颐和园路5号北京大学校内29号楼B1层13号,北京市,北京市,,购物服务;综合市场;果品市场|购物服务;超级市场;超市,060704|060400,B0FFHDX5NI,购物服务,综合市场,果品市场|购物服务,超级市场
116.30563287947976,39.98330219293493,阳澄湖大闸蟹,海淀北一街辉煌时代一楼,北京市,北京市,中关村,购物服务;综合市场;水产海鲜市场,060706,B0G1ZM47UD,购物服务,综合市场,水产海鲜市场,
116.2995301563716,39.9788022211023,果多美干果水果超市(苏州街店),苏州街18号(蜀味浓餐厅旁),北京市,北京市,万泉河,购物服务;综合市场;果品市场|购物服务;专卖店;专营店,060704|061200,B000AA1H6Y,购物服务,综合市场,果品市场|购物服务,专卖店
116.30571371011767,39.98327104706997,中丹二手办公家具,北四环西路56号,北京市,北京市,中关村,购物服务;综合市场;旧货市场,060702,B0HAJU7DVR,购物服务,综合市场,旧货市场,
116.32444849642422,39.991125237200144,便民蔬菜水果,五道口成府路华清嘉园9号楼,北京市,北京市,五道口,购物服务;综合市场;蔬菜市场,060705,B0FFKV0XN0,购物服务,综合市场,蔬菜市场,
116.3341692482224,39.98371107862653,菜篮子智慧社区,五道口购物广场,北京市,北京市,五道口,购物服务;综合市场;综合市场,060700,B0G3AYCWJH,购物服务,综合市场,综合市场,
116.32825804959104,39.98076636641023,首鲜一号生鲜超市中关村精品旗舰店,中关村南四街东小区323号楼,北京市,北京市,,购物服务;综合市场;农副产品市场,060703,B0FFL6FOOD,购物服务,综合市场,农副产品市场,
116.31931970275576,39.972148878965456,金玉甘栗(知春路店),科学院南路13号,北京市,北京市,双榆树,购物服务;综合市场;果品市场,060704,B0FFGG6SIN,购物服务,综合市场,果品市场,
116.30861653332404,39.974391072559925,果多多,海淀南路4号楼,北京市,北京市,,购物服务;综合市场;果品市场|购物服务;专卖店;儿童用品店,060704|061207,B0FFFF4CXQ,购物服务,综合市场,果品市场|购物服务,专卖店
116.30843948391535,39.97786026042682,梅槑果(欧美汇购物中心店),中关村丹棱街甲1号欧美汇购物中心地下一层,北京市,北京市,中关村,购物服务;综合市场;果品市场,060704,B0FFKPHALV,购物服务,综合市场,果品市场,
116.32795233481814,39.97615613745965,阳澄湖大闸蟹海淀区专卖店,中关村东路100号,北京市,北京市,,购物服务;综合市场;水产海鲜市场,060706,B0FFH05TVL,购物服务,综合市场,水产海鲜市场,
116.31932566934745,39.97230486123589,知春东里蔬果超市,海淀区知春东里13号楼,北京市,北京市,双榆树,购物服务;综合市场;蔬菜市场|购物服务;超级市场;超市,060705|060400,B0FFI1701O,购物服务,综合市场,蔬菜市场|购物服务,超级市场
116.31881866570912,39.997348799823726,清华社区菜市场,清华南路清华大学一区65号,北京市,北京市,,购物服务;综合市场;蔬菜市场,060705,B0FFG01FLM,购物服务,综合市场,蔬菜市场,
116.33406843370074,39.98403325345131,仁德旺综合批发零售市场,五道口新村路5号,北京市,北京市,五道口,购物服务;综合市场;综合市场,060700,B0FFGHDRRP,购物服务,综合市场,综合市场,
116.32510637073574,39.97225574667925,果栗香,双榆树北里榆苑公寓一层,北京市,北京市,双榆树,购物服务;综合市场;果品市场,060704,B0FFGILACE,购物服务,综合市场,果品市场,
116.33361944480296,39.984021092769595,李靖飞牛羊肉专卖,北航西门五道口购物广场C区51号,北京市,北京市,五道口,购物服务;综合市场;农副产品市场,060703,B0FFMCHTKH,购物服务,综合市场,农副产品市场,
116.32948309188795,39.98986365650489,车客家园华清嘉园社区服务店,成府路35号华清嘉园15号楼,北京市,北京市,五道口,购物服务;综合市场;果品市场,060704,B0FFGYXEOM,购物服务,综合市场,果品市场,
116.33326745413494,39.99019349545061,新西兰麦卢卡蜂蜜(五道口购物中心),成府路28号优盛大厦五道口华联超市B1层收银台对面,北京市,北京市,五道口,购物服务;综合市场;农副产品市场,060703,B0FFH14QY2,购物服务,综合市场,农副产品市场,
116.32364175634359,39.97215956528833,果蔬便利店,北青云路82号,北京市,北京市,双榆树,购物服务;综合市场;果品市场,060704,B0FFIU143G,购物服务,综合市场,果品市场,
116.3193336554444,39.97226984729826,切果匠(中关村店),知春东里13号楼,北京市,北京市,双榆树,购物服务;综合市场;果品市场,060704,B0HGSR4UJ5,购物服务,综合市场,果品市场,
116.29962910935792,39.97758809912092,清真耀峰成快餐(苏州街店),苏州街19号海淀伊协旁,北京市,北京市,万泉河,购物服务;综合市场;农副产品市场,060703,B0FFHKRS4J,购物服务,综合市场,农副产品市场,
116.32488588103884,39.972235170971516,兄弟水果超市(北青云路),中关村东路青云北路青云小区往西100米,北京市,北京市,双榆树,购物服务;综合市场;果品市场,060704,B0FFGB7OZY,购物服务,综合市场,果品市场,
116.31916699247634,39.97262915305298,科尔沁牛肉家佳康猪肉专柜,科学院南路知春东里超市-科尔沁福成家佳康湘村黑猪专柜,北京市,北京市,双榆树,购物服务;综合市场;农副产品市场,060703,B0FFKVQOS5,购物服务,综合市场,农副产品市场,
116.33358949925702,39.984123144580614,比邻鲜(五道口市场店),大运村路五道口购物广场,北京市,北京市,五道口,购物服务;综合市场;果品市场,060704,B0GK0G9GHS,购物服务,综合市场,果品市场,
116.33358950242342,39.984098145603994,果君淑菜(五道口店),大运村路五道口购物广场,北京市,北京市,五道口,购物服务;综合市场;果品市场,060704,B0GK0CAYRA,购物服务,综合市场,果品市场,
116.3193336554444,39.97226984729826,汇百佳生鲜(中关村店),北青云路知春东里13号,北京市,北京市,双榆树,购物服务;综合市场;果品市场,060704,B0HGODW7ID,购物服务,综合市场,果品市场,
116.31571000840407,39.97169681266246,知春里蔬菜水果店(社区便民菜店),中关村街道双榆树北路知春里小区13号楼西侧底商,北京市,北京市,双榆树,购物服务;综合市场;蔬菜市场,060705,B0FFGWH1QT,购物服务,综合市场,蔬菜市场,
116.33689977609903,39.994623568769676,语言大学社区便民菜店,语言大学家属院18号楼南侧,北京市,北京市,五道口,购物服务;综合市场;蔬菜市场,060705,B000A85EJ1,购物服务,综合市场,蔬菜市场,
116.3333442808327,39.99019435150311,汪氏蜂蜜(BHG华联百货店),成府路28号BHG华联百货B1层,北京市,北京市,五道口,购物服务;综合市场;农副产品市场,060703,B0FFJB4G5B,购物服务,综合市场,农副产品市场,
116.30704186676866,39.9751739472952,粒上皇,中关村南路三号粒上皇,北京市,北京市,,购物服务;综合市场;果品市场,060704,B0HBLM96CS,购物服务,综合市场,果品市场,
116.33342989571923,39.98383145526042,耿铭阳粮油,大运村路五道口购物广场背后,北京市,北京市,五道口,购物服务;综合市场;农副产品市场,060703,B0GKSNCUAD,购物服务,综合市场,农副产品市场,
116.33436775067214,39.98412169168608,菜大全(五道口店),五道口新村四号7栋北京仁德旺服装市场C区19号,北京市,北京市,五道口,购物服务;综合市场;农副产品市场,060703,B0G064MXXT,购物服务,综合市场,农副产品市场,
116.31564214620708,39.971826936950265,豪文宏社区便民蔬菜水果店,双榆树北路53号,北京市,北京市,双榆树,购物服务;综合市场;果品市场,060704,B0G064MJI1,购物服务,综合市场,果品市场,
116.31475149785845,39.96920473951853,edible,中关村大街与双榆树二街交叉口东北100米,北京市,北京市,双榆树,购物服务;综合市场;果品市场,060704,B0FFHS2WTX,购物服务,综合市场,果品市场,
116.33401189524683,39.98927414169813,阳澄湖大闸蟹(五道口店),五道口购物中心一层,北京市,北京市,五道口,购物服务;综合市场;水产海鲜市场,060706,B0HA6Z82NJ,购物服务,综合市场,水产海鲜市场,
116.33210605615096,39.97461431652735,鹏程冷鲜肉,中关村街道知春路甲48号盈都大厦沃尔玛,北京市,北京市,,购物服务;综合市场;农副产品市场,060703,B0G064MCXL,购物服务,综合市场,农副产品市场,
116.33329838453439,39.99019243754976,大汉酵素(五道口购物中心店),成府路28号五道口购物中心B1层,北京市,北京市,五道口,购物服务;综合市场;农副产品市场,060703,B0FFHHOF92,购物服务,综合市场,农副产品市场,
116.30218730159592,39.974160755261366,果鲜佳园(海淀店),海淀南路28号北京海淀区聚贤贵都宾馆果鲜佳园,北京市,北京市,,购物服务;综合市场;果品市场,060704,B0FFJ25J0F,购物服务,综合市场,果品市场,
116.33310960605706,39.9839240515197,鲜菜到家(五道口购物广场店),五道口新村四号7栋,北京市,北京市,五道口,购物服务;综合市场;果品市场,060704,B0GKA6VFNA,购物服务,综合市场,果品市场,
116.32404585360439,39.97193679723935,蔬菜粮油店(非餐),双榆树榆苑公寓5号楼南平房8-9号北青云路沿街平房主食厨房和洗衣店中间,北京市,北京市,双榆树,购物服务;综合市场;农副产品市场,060703,B0FFKQWSKU,购物服务,综合市场,农副产品市场,
116.31564911559906,39.97194391895468,清真白记牛羊肉铺,北京市海淀区中关村街道双榆树北里53号有家生鲜超市内,北京市,北京市,双榆树,购物服务;综合市场;农副产品市场,060703,B0G27ACEE9,购物服务,综合市场,农副产品市场,
116.30152657522652,39.97490189300216,百果园(苏州街地铁店),海淀南路11号楼首层10号,北京市,北京市,,购物服务;综合市场;果品市场,060704,B0FFH6T10F,购物服务,综合市场,果品市场,
116.33305294229801,39.990159898960016,那拉丝醇骆驼奶专卖店,五道口购物中心地B1层华联超市收银台对面,北京市,北京市,五道口,购物服务;综合市场;农副产品市场,060703,B0G115ET40,购物服务,综合市场,农副产品市场,
116.31913974822605,39.96714342501417,武圣金栗圣,中关村街道双榆树西里11号,北京市,北京市,双榆树,购物服务;综合市场;果品市场,060704,B0FFHEURYI,购物服务,综合市场,果品市场,
116.31902522755851,39.99706641522897,北京华澜园集贸市场中心,双清路30号清华大学,北京市,北京市,,购物服务;综合市场;农副产品市场,060703,B000A7PDM1,购物服务,综合市场,农副产品市场,
116.33739917937469,39.99064382143201,超市发(地质菜店),学院路29号中国地质大学,北京市,北京市,五道口,购物服务;综合市场;蔬菜市场,060705,B000A7VBYF,购物服务,综合市场,蔬菜市场,
116.3053261539738,39.97045327092885,静园水果超市,中国人民大学校内静园17-16楼中间平房西侧,北京市,北京市,,购物服务;综合市场;果品市场,060704,B0FFIJLQAN,购物服务,综合市场,果品市场,
116.32640138549127,39.972298260520326,新发地白塔庵店菜篮子服务店,双榆树北路与白塔庵路交叉路口往西南约50米,北京市,北京市,双榆树,购物服务;综合市场;蔬菜市场,060705,B0FFMDXL3V,购物服务,综合市场,蔬菜市场,
116.31439567534025,39.966255534185514,齐峰果业(人民大学店),北三环西路47号院乙1号一层30号,北京市,北京市,双榆树,购物服务;综合市场;果品市场,060704,B0FFHXVTRX,购物服务,综合市场,果品市场,
116.31522339729253,39.96944883087502,FRUITS水果,中关村大街40号t11超市,北京市,北京市,双榆树,购物服务;综合市场;果品市场,060704,B0HA3N1VB9,购物服务,综合市场,果品市场,
116.33237354674671,39.973855843589845,菜老包(古里铺店),知春路48号1层5号,北京市,北京市,,购物服务;综合市场;农副产品市场,060703,B0G064MCP6,购物服务,综合市场,农副产品市场,
116.29862091401057,39.98728243877512,东乐鲜果,颐和园路8号,北京市,北京市,万泉河,购物服务;综合市场;农副产品市场,060703,B0G27GD0CP,购物服务,综合市场,农副产品市场,
116.31891242762991,39.997530611971335,中国农发食品有限公司清华澜院展示展销厅,[],北京市,北京市,,购物服务;综合市场;农副产品市场,060703,B0FFGIIH70,购物服务,综合市场,农副产品市场,
116.34050058511771,39.9735939083935,五道口蔬菜店,北太平庄街道知春路22号,北京市,北京市,,购物服务;综合市场;农副产品市场,060703,B0GKUUHCAC,购物服务,综合市场,农副产品市场,
116.31752246628882,40.006582883530264,水果冷饮平价超市,清华大学二十号楼附近,北京市,北京市,,购物服务;综合市场;果品市场,060704,B0FFLM1CIV,购物服务,综合市场,果品市场,
116.33590946909801,40.00645187895067,林北蔬菜便利店,双清路18-7附近,北京市,北京市,,购物服务;综合市场;蔬菜市场,060705,B0FFH0U03F,购物服务,综合市场,蔬菜市场,
116.30902021840825,39.9619228213431,北京理工大学奶站,中关村南大街5号北京理工大学中关村校区国防科技楼5号楼2楼,北京市,北京市,,购物服务;综合市场;农副产品市场,060703,B0FFFE02DI,购物服务,综合市场,农副产品市场,
116.34148538809461,40.005693807668045,哞哞小花牛鲜奶屋(林大北路店),林业大学北路18-15号,北京市,北京市,,购物服务;综合市场;农副产品市场|餐饮服务;冷饮店;冷饮店,060703|050700,B0FFFLJCIW,购物服务,综合市场,农副产品市场|餐饮服务,冷饮店
116.29728405660126,39.96740852003937,丽美佳果蔬超市(万泉庄店),万泉庄11号楼1层11-1,北京市,北京市,万泉河,购物服务;综合市场;果品市场,060704,B0FFFAI4I9,购物服务,综合市场,果品市场,
116.3356867704673,39.96074318432039,益食鑫隆水果蔬菜店,皂君庙东里42号楼一层东半部,北京市,北京市,大钟寺村,购物服务;综合市场;蔬菜市场,060705,B0FFHEVDFX,购物服务,综合市场,蔬菜市场,
116.29573267691568,40.002358672706805,轩轩水果超市(福缘门店),市青龙桥街道福缘门社区50号,北京市,北京市,,购物服务;综合市场;果品市场,060704,B0FFJRWM4Y,购物服务,综合市场,果品市场,
116.34121995317896,40.00571727788455,水果蔬菜,林业大学北路9号院,北京市,北京市,,购物服务;综合市场;农副产品市场,060703,B0FFHF5DSW,购物服务,综合市场,农副产品市场,
116.294922454877,40.00053209101381,未来水果店,颐和园路东口福缘门社区达园宾馆,北京市,北京市,,购物服务;综合市场;果品市场,060704,B0FFJRVZ3N,购物服务,综合市场,果品市场,
116.34251914521447,39.96673560434961,鲜又多水果(蓟门桥店),北三环西路11首都体育学院(南门)附近,北京市,北京市,北下关,购物服务;综合市场;果品市场,060704,B0FFFAIKK6,购物服务,综合市场,果品市场,
116.30124970136137,39.962525874806225,大闸蟹超市(海淀店),[],北京市,北京市,万泉河,购物服务;综合市场;水产海鲜市场,060706,B0G0ULOAIZ,购物服务,综合市场,水产海鲜市场,
116.30125271151648,39.962395874675174,良仁正品阳澄湖大闸蟹(北京海淀店),海淀街道万泉河路111号11栋底商,北京市,北京市,万泉河,购物服务;综合市场;水产海鲜市场,060706,B0FFIGZHTV,购物服务,综合市场,水产海鲜市场,
116.33767320621502,39.9620664802402,西冷市场,北下关街道甲1号,北京市,北京市,大钟寺村,购物服务;综合市场;综合市场,060700,B0FFHGZ0Z0,购物服务,综合市场,综合市场,
116.29305869355575,39.962724673117144,泉盛果蔬,万柳新纪元家园1号楼1门101号,北京市,北京市,万柳,购物服务;综合市场;果品市场|购物服务;超级市场;超市,060704|060400,B0FFHU1IUH,购物服务,综合市场,果品市场|购物服务,超级市场
116.33814220704812,39.96182463463475,北京清源瑞碧兴食品有限公司,西郊食品冷冻厂131020-21号,北京市,北京市,大钟寺村,购物服务;综合市场;水产海鲜市场,060706,B0FFGKC55S,购物服务,综合市场,水产海鲜市场,
116.33843754403324,39.961952092473275,晓合兴旺水产经营部,四道口市场冷冻大厅73号,北京市,北京市,北下关,购物服务;综合市场;农副产品市场,060703,B0FFMHS0RM,购物服务,综合市场,农副产品市场,
116.30135949057474,39.962406686465854,阳澄湖大闸蟹(人民大学店),苏州桥小南庄11号楼底商（良仁正品阳澄湖大闸蟹）,北京市,北京市,万泉河,购物服务;综合市场;水产海鲜市场,060706,B0G06ZQ5Q6,购物服务,综合市场,水产海鲜市场,
116.3364186939283,40.00365106352372,大红门肉类专卖店第五肉联(第十六分店),清华东路35号北京林业大学北1门附近,北京市,北京市,,购物服务;综合市场;农副产品市场,060703,B0FFF9RCIO,购物服务,综合市场,农副产品市场,
116.29700147215928,39.96054126967636,金森果蔬美(万柳店),万柳东路新起点嘉园8号楼,北京市,北京市,万泉河,购物服务;综合市场;果品市场,060704,B0FFLCZFTU,购物服务,综合市场,果品市场,
116.34177377155474,40.005700296609575,古董生鲜,林大北路文成杰座底商18-13号,北京市,北京市,,购物服务;综合市场;农副产品市场,060703,B0FFLP6NMF,购物服务,综合市场,农副产品市场,
116.3344414217369,39.961773454938566,青塔奶站(皂东分店),皂君庙路乙2号4号院,北京市,北京市,大钟寺村,购物服务;综合市场;农副产品市场,060703,B000A9RI8U,购物服务,综合市场,农副产品市场,
116.33814023105897,39.961669644386156,陈永定冻品行,四道口路与皂君庙东路交叉口东北150米,北京市,北京市,大钟寺村,购物服务;综合市场;农副产品市场,060703,B0FFG6L4RH,购物服务,综合市场,农副产品市场,
116.33786297805192,39.96057819294253,豪梦春景粮油店,四道口路1号,北京市,北京市,大钟寺村,购物服务;综合市场;农副产品市场,060703,B0GKSBDHW0,购物服务,综合市场,农副产品市场,
116.33892957085882,39.96115323191954,好食材蔬菜批发零售,四道口路1号四道口水产交易市场,北京市,北京市,大钟寺村,购物服务;综合市场;果品市场,060704,B0GK3XWDS2,购物服务,综合市场,果品市场,
116.29459161916128,39.96440612013394,海淀街道社区便民菜站(新纪元店),万柳东路与小南庄路交叉口西150米,北京市,北京市,万柳,购物服务;综合市场;蔬菜市场,060705,B0FFIGHE9U,购物服务,综合市场,蔬菜市场,
116.3385774983026,39.95990191971215,益食鑫隆水果蔬菜店(皂东店),皂君庙东里42号楼一层东半部,北京市,北京市,大钟寺村,购物服务;综合市场;蔬菜市场,060705,B0FFH08HL0,购物服务,综合市场,蔬菜市场,
116.34096351435805,40.005629738059525,菜老包(便民生鲜超市店),林业大学北路18-17号文成杰座B座(北京市海淀区),北京市,北京市,,购物服务;综合市场;农副产品市场,060703,B0HAUUSBWW,购物服务,综合市场,农副产品市场,
116.34084738132923,39.96145777377548,美心木门(明光家居店),明光西路金五星百货批发城二厅1楼121号,北京市,北京市,北下关,购物服务;家居建材市场;家具建材综合市场,060601,B0G1C7SQF9,购物服务,家居建材市场,家具建材综合市场,
116.33786297805192,39.96057819294253,北京福鑫顺源调料经营部(非餐),四道口路1号海鲜厅二楼,北京市,北京市,北下关,购物服务;综合市场;农副产品市场,060703,B0G3SXX09K,购物服务,综合市场,农副产品市场,
116.3386151562288,39.961947770184686,北京四道口水产市场北京二商西冷禽类交易区,明光西路北京四道口水产市场,北京市,北京市,大钟寺村,购物服务;综合市场;综合市场,060700,B0FFIVNBPT,购物服务,综合市场,综合市场,
116.33422976629349,39.962798808632854,北京市消费扶贫双创中心(海淀第三分中心),皂君庙乙2号,北京市,北京市,北下关,购物服务;综合市场;农副产品市场,060703,B0GRO607FW,购物服务,综合市场,农副产品市场,
116.32533798203688,39.93158392380948,天庭盛果,三里河路7号新疆大厦1层,北京市,北京市,西直门,购物服务;综合市场;果品市场,060704,B0G3AYBVZP,购物服务,综合市场,果品市场,
116.31646090173327,39.92729215211786,增光鸿运市场,增光路35-5号,北京市,北京市,车公庄,购物服务;综合市场;果品市场,060704,B0FFFX1W3R,购物服务,综合市场,果品市场,
116.30853877229563,39.93413582046551,三虎桥奶站,三虎桥南路17号东院2号楼对面,北京市,北京市,车公庄,购物服务;综合市场;农副产品市场,060703,B0FFGYBLYD,购物服务,综合市场,农副产品市场,
116.3183675718735,39.92710450714122,棒棰岛海参,增光路27-7号,北京市,北京市,车公庄,购物服务;综合市场;农副产品市场,060703,B0FFI9QLES,购物服务,综合市场,农副产品市场,
116.32516735195325,39.931763244134075,三海瓜园,三里河路7号新疆大厦,北京市,北京市,车公庄,购物服务;综合市场;农副产品市场,060703,B0FFJ812D1,购物服务,综合市场,农副产品市场,
116.32814137872087,39.93289050260567,福临生鲜便民店,三里河路朝阳庵2号楼底商,北京市,北京市,展览路,购物服务;综合市场;农副产品市场,060703,B0FFIBSFM8,购物服务,综合市场,农副产品市场,
116.3084929105312,39.93383491759044,百果园(花园桥店),三虎桥南路12号院对面,北京市,北京市,车公庄,购物服务;综合市场;果品市场,060704,B0FFF5EC08,购物服务,综合市场,果品市场,
116.30856101179371,39.93184487186763,农夫百果鲜超市,车公庄西路29号,北京市,北京市,车公庄,购物服务;综合市场;果品市场,060704,B0G2JZI336,购物服务,综合市场,果品市场,
116.30981701685472,39.93370046086006,切果匠(花园桥店),三虎桥南路12号院斜对面荟聚一号餐厅,北京市,北京市,车公庄,购物服务;综合市场;果品市场,060704,B0H6V6D70D,购物服务,综合市场,果品市场,
116.31706501190834,39.923428155182386,白堆子社区水果店,甘家口超市发超市,北京市,北京市,,购物服务;综合市场;果品市场,060704,B0FFHHC3GF,购物服务,综合市场,果品市场,
116.34045062421328,39.93476254460959,榆树馆百姓生活服务中心,榆树馆胡同4号,北京市,北京市,展览路,购物服务;综合市场;农副产品市场|生活服务;生活服务场所;生活服务场所,060703|070000,B000A85GMF,购物服务,综合市场,农副产品市场|生活服务,生活服务场所
116.32586852543804,39.92554115240383,栗满秋香,三里河路甘家口大厦南侧向西200米,北京市,北京市,三里河,购物服务;综合市场;果品市场,060704,B0FFH13P6X,购物服务,综合市场,果品市场,
116.3163551690236,39.92708136288885,蔬乡门递(增光鸿运店),增光路35号北京增光鸿运农副产品市场中心西副食区-5号,北京市,北京市,车公庄,购物服务;综合市场;农副产品市场,060703,B0G3ZBN138,购物服务,综合市场,农副产品市场,
116.32377120877389,39.92667113458039,溢乐佳缘果蔬超市,增光路增光路小区11号楼,北京市,北京市,三里河,购物服务;综合市场;果品市场,060704,B0FFF6IOWM,购物服务,综合市场,果品市场,
116.31638611974692,39.92691331060552,鲜多多(北京增光路店),增光路35号北京增光鸿运农副产品市场中心水果区-1号,北京市,北京市,车公庄,购物服务;综合市场;农副产品市场,060703,B0GRPXOHP6,购物服务,综合市场,农副产品市场,
116.32695123062973,39.931925817024386,新疆维吾尔自治区驻京办事处水果销售中心,三里河路7号,北京市,北京市,车公庄,购物服务;综合市场;果品市场,060704,B0FFH12RL4,购物服务,综合市场,果品市场,
116.34116787542665,39.91275417551837,果多美(月坛南街店),月坛南街31号,北京市,北京市,三里河,购物服务;综合市场;果品市场,060704,B0FFGK1K2R,购物服务,综合市场,果品市场,
116.34242356393392,39.93354509357418,三海瓜园,车公庄大街北里1号101室(近五栋大楼),北京市,北京市,车公庄,购物服务;综合市场;果品市场,060704,B000A7Q95T,购物服务,综合市场,果品市场,
116.32182037666838,39.945064146496975,斯美琪水果店,中国气象局社区南区,北京市,北京市,北下关,购物服务;综合市场;果品市场,060704,B0FFILGCDK,购物服务,综合市场,果品市场,
116.33081279925625,39.928776589685185,果蔬珍鲜(百万庄店),百万庄中里51号,北京市,北京市,西直门,购物服务;综合市场;果品市场,060704,B0FFITHP7E,购物服务,综合市场,果品市场,
116.32349296394476,39.92576370690773,乐颐果蔬食品团购超市,甘家口中街,北京市,北京市,三里河,购物服务;综合市场;果品市场,060704,B0G2AA40YC,购物服务,综合市场,果品市场,
116.30557925531637,39.94149996094789,果香四溢(紫竹桥店),紫竹桥广源大厦1楼东北角,北京市,北京市,,购物服务;综合市场;果品市场,060704,B0G2DKNTMC,购物服务,综合市场,果品市场,
116.33918825395449,39.95921184111925,京港水产品商城,四道口路2号京果商厦A座,北京市,北京市,北下关,购物服务;综合市场;水产海鲜市场,060706,B000A85RFC,购物服务,综合市场,水产海鲜市场,
116.32532576951118,39.92557419257666,白堆子市场,甘家口街道13号楼,北京市,北京市,三里河,购物服务;综合市场;综合市场,060700,B0GK3RSX1Y,购物服务,综合市场,综合市场,
116.30340753052435,39.944125775931234,晓芹海参(北京紫竹桥店),西三环北路甲35-2号,北京市,北京市,,购物服务;综合市场;水产海鲜市场,060706,B000A85JSH,购物服务,综合市场,水产海鲜市场,
116.32279869979719,39.92467408722291,便民菜店,[],北京市,北京市,三里河,购物服务;综合市场;蔬菜市场,060705,B0HAZU8SHV,购物服务,综合市场,蔬菜市场,
116.31917340072339,39.94553021818545,便民菜店,中关村南大街38号附近,北京市,北京市,西直门,购物服务;综合市场;蔬菜市场,060705,B0FFLI9EY7,购物服务,综合市场,蔬菜市场,
116.3059203944215,39.92662094039312,吉祥哥汇鑫源水果店,增光路55号院紫玉饭店对面,北京市,北京市,车公庄,购物服务;综合市场;果品市场,060704,B0FFIVN4TE,购物服务,综合市场,果品市场,
116.32589030954358,39.95058110414393,果然美(大慧寺店),大慧寺大慧寺路乙18号大鸭梨烤鸭店旁边,北京市,北京市,西直门,购物服务;综合市场;果品市场,060704,B0FFI1MD8E,购物服务,综合市场,果品市场,
116.31106063860157,39.946585617796444,水果蔬菜干果,民族大学南路与民族大学西路交叉口西南50米,北京市,北京市,万寿寺,购物服务;综合市场;果品市场,060704,B0FFIXF8HG,购物服务,综合市场,果品市场,
116.3052871065551,39.92378320928762,干果小铺,西三环北路100号,北京市,北京市,,购物服务;综合市场;果品市场,060704,B0G0X7077U,购物服务,综合市场,果品市场,
116.30674556092843,39.92707141322539,汇鑫源生鲜超市,增光路53号附近,北京市,北京市,车公庄,购物服务;综合市场;农副产品市场,060703,B0G2JSHW1B,购物服务,综合市场,农副产品市场,
116.30560020393477,39.94155192076407,果香四溢水果超市(紫竹桥店),广源闸5号广源大厦1层东北角,北京市,北京市,,购物服务;综合市场;果品市场,060704,B000A87HSB,购物服务,综合市场,果品市场,
116.32076166476494,39.92246509771956,四季水果(阜成路店),阜成路与首都体育馆南路交叉路口往东约50米,北京市,北京市,三里河,购物服务;综合市场;果品市场,060704,B0FFLG4KTU,购物服务,综合市场,果品市场,
116.32132733196978,39.922720998904424,便民菜店鱼肉档,甘家口阜成路北甲九号便民菜店,北京市,北京市,三里河,购物服务;综合市场;农副产品市场,060703,B0GDUY3MQ4,购物服务,综合市场,农副产品市场,
116.30347053092484,39.943069705170196,小背篓生鲜超市,西三环北路37号,北京市,北京市,,购物服务;综合市场;农副产品市场,060703,B0FFGVYAEI,购物服务,综合市场,农副产品市场,
116.30451439254702,39.94254984888672,阳澄湖大闸蟹(紫竹桥店),西三环北路22-6号,北京市,北京市,,购物服务;综合市场;水产海鲜市场,060706,B0FFJM1VBM,购物服务,综合市场,水产海鲜市场,
116.3328106980339,39.92540896027013,露园百姓生活服务中心,百万庄大街乙24号附近,北京市,北京市,百万庄,购物服务;综合市场;农副产品市场,060703,B0FFHO18K2,购物服务,综合市场,农副产品市场,
116.29862825605173,39.936677453014774,三农果业(北洼路店),北洼西街与北洼路交叉口东北50米北洼路22号院87路公交车站往北30米,北京市,北京市,,购物服务;综合市场;果品市场,060704,B0FFFAHXBU,购物服务,综合市场,果品市场,
116.31103469491539,39.94659666605629,蔬果便利店,民族大学南路7号,北京市,北京市,白石桥,购物服务;综合市场;蔬菜市场,060705,B0G1FSMNB5,购物服务,综合市场,蔬菜市场,
116.3223550049637,39.92242503382626,阜北社区便民菜站,阜北8-40对面,北京市,北京市,三里河,购物服务;综合市场;蔬菜市场,060705,B0FFJ21V9I,购物服务,综合市场,蔬菜市场,
116.31066084598172,39.92021643561159,航天菜站,航天桥东阜成路8号航天大院院内,北京市,北京市,,购物服务;综合市场;蔬菜市场,060705,B0FFGJR992,购物服务,综合市场,蔬菜市场,
116.29867716191401,39.93665037025821,果宝宝(北洼店),北洼路22号,北京市,北京市,,购物服务;综合市场;农副产品市场,060703,B0G064NDZR,购物服务,综合市场,农副产品市场,
116.32615282178969,39.94966463706869,恒运达蔬菜超市,高粱桥斜街13号院附近(生活超市对面),北京市,北京市,西直门,购物服务;综合市场;蔬菜市场,060705,B0FFG12N8U,购物服务,综合市场,蔬菜市场,
116.30358131103091,39.942966510801334,达滋红枣,[],北京市,北京市,,购物服务;综合市场;果品市场|购物服务;专卖店;专营店,060704|061200,B0FFLCD9F8,购物服务,综合市场,果品市场|购物服务,专卖店
116.33679193412888,39.93223328322816,福临生鲜,展览路车公庄中里3号楼,北京市,北京市,展览路,购物服务;综合市场;农副产品市场,060703,B0HB3H9FP2,购物服务,综合市场,农副产品市场,
116.3370743163908,39.93218576686288,福临日日鲜社区便民服务店,车公庄中里3号楼甲3门,北京市,北京市,三里河,购物服务;综合市场;农副产品市场,060703,B0FFHHKNJC,购物服务,综合市场,农副产品市场,
116.29880087617953,39.936959145582236,鸡场直销鲜鸡蛋,北洼路22号,北京市,北京市,,购物服务;综合市场;农副产品市场,060703,B0GK3XX82A,购物服务,综合市场,农副产品市场,
116.30157207657722,39.92240891536101,优质果蔬,阜成路22号北平房104,北京市,北京市,,购物服务;综合市场;农副产品市场,060703,B0G3JY1HT6,购物服务,综合市场,农副产品市场,
116.31117670643891,39.92016447005852,航天海鲜店,玉泉路16号院大门口,北京市,北京市,,购物服务;综合市场;水产海鲜市场,060706,B0FFM5IBJ4,购物服务,综合市场,水产海鲜市场,
116.30577670272542,39.92662020229575,社区菜篮子生活超市健鼎一分公司,增光路82号院5号楼,北京市,北京市,车公庄,购物服务;综合市场;蔬菜市场,060705,B0FFK4JVCJ,购物服务,综合市场,蔬菜市场,
116.32622562557523,39.94989248845692,菜蔬水果铺子,高粱桥斜街13号院7号,北京市,北京市,西直门,购物服务;综合市场;果品市场,060704,B0G064LZ35,购物服务,综合市场,果品市场,
116.3112623972056,39.95287498949221,魏公村奶站,民族大学西路魏公村湖南码头边上,北京市,北京市,,购物服务;综合市场;农副产品市场,060703,B0FFH87Z3Y,购物服务,综合市场,农副产品市场,
116.33272190151247,39.92538512800712,京西菜市(百万庄街店),百万庄大街乙24号,北京市,北京市,展览路,购物服务;综合市场;蔬菜市场,060705,B0FFLA76SN,购物服务,综合市场,蔬菜市场,
116.31116021954786,39.94815336858458,京速生鲜超市,民族大学西路66号院1号楼1层A04,北京市,北京市,白石桥,购物服务;综合市场;农副产品市场,060703,B0GUR9OLVJ,购物服务,综合市场,农副产品市场,
116.33132811127376,39.924959771460856,芳邻家美百姓生活服务中心,百万庄南街10号院4号,北京市,北京市,展览路,购物服务;综合市场;蔬菜市场|生活服务;生活服务场所;生活服务场所,060705|070000,B0FFKCL8NK,购物服务,综合市场,蔬菜市场|生活服务,生活服务场所
116.34031624417946,39.932158890330946,憨果鲜生,车公庄大街9号,北京市,北京市,展览路,购物服务;综合市场;果品市场,060704,B0FFKP8PVH,购物服务,综合市场,果品市场,
116.2954207256363,39.92707024559196,鲜果美(北洼路店),北洼路58号,北京市,北京市,,购物服务;综合市场;果品市场,060704,B0FFG2UY5O,购物服务,综合市场,果品市场,
116.33813946823165,39.9282859791696,二手物品淘宝店,展览路街道展览馆路24号楼底商,北京市,北京市,百万庄,购物服务;综合市场;旧货市场,060702,B0FFFY5J4H,购物服务,综合市场,旧货市场,
116.31044420004523,39.95299551917008,魏公村便民菜店,民族大学西路304号附近,北京市,北京市,,购物服务;综合市场;蔬菜市场,060705,B0FFFAIRX2,购物服务,综合市场,蔬菜市场,
116.30571283807221,39.92663231810737,果果家·鲜果切·水果捞(第二档口健鼎美食城店),西三环北路82号院5号楼底层1幢1层105号,北京市,北京市,车公庄,购物服务;综合市场;农副产品市场,060703,B0G2M1ZJTI,购物服务,综合市场,农副产品市场,
116.32638224014909,39.95009318030668,一家肉店,大慧寺路钢研市场,北京市,北京市,北下关,购物服务;综合市场;综合市场,060700,B0FFIVKLI0,购物服务,综合市场,综合市场,
116.29951103237089,39.9402967882769,秦臻娇羊羊乳专卖店,紫竹院路98号院(北洼路空军特色医学中心北区西门对面),北京市,北京市,,购物服务;综合市场;农副产品市场,060703,B0FFME1PA1,购物服务,综合市场,农副产品市场,
116.32934862765596,39.95650226013834,干果张(皂君庙店),学院南路皂君东里13号楼1号1层,北京市,北京市,北下关,购物服务;综合市场;果品市场,060704,B0FFICHVAO,购物服务,综合市场,果品市场,
116.31070552689916,39.953737000343686,北外水果超市,民族大学西路北京外国语大学小东门,北京市,北京市,,购物服务;综合市场;果品市场,060704,B0FFHHAYGS,购物服务,综合市场,果品市场,
116.29525079546332,39.94505480297169,鑫升源果蔬生鲜便民超市,车道沟10号院东9乙,北京市,北京市,,购物服务;综合市场;综合市场,060700,B0FFG7YQGV,购物服务,综合市场,综合市场,
116.33687874404964,39.9322191243686,天鲜郡果蔬(车公庄大街店),车公庄中里3号楼甲3门,北京市,北京市,展览路,购物服务;综合市场;果品市场,060704,B0H61PN801,购物服务,综合市场,果品市场,
116.29986021089746,39.92528779066197,北京市海淀区马神庙一号菜蔬商店,航天桥增光路马神庙1号院,北京市,北京市,,购物服务;综合市场;蔬菜市场,060705,B0FFF5HMEN,购物服务,综合市场,蔬菜市场,
116.29691682709164,39.94309410362572,果优鲜,紫竹院街道紫竹院路88号紫竹花园B座,北京市,北京市,,购物服务;综合市场;果品市场|购物服务;便民商店/便利店;便民商店/便利店,060704|060200,B0FFHBXIKH,购物服务,综合市场,果品市场|购物服务,便民商店/便利店
116.29659251237003,39.926715308482336,新鲜蔬菜,西三环北路105号西一区44号楼、45号楼一层,北京市,北京市,,购物服务;综合市场;农副产品市场,060703,B0FFILA522,购物服务,综合市场,农副产品市场,
116.33569661741227,39.95389443757116,铁研便民市场,大柳树路2号院南区12号,北京市,北京市,西直门,购物服务;综合市场;农副产品市场,060703,B0FFHM8W5U,购物服务,综合市场,农副产品市场,
116.32634330307748,39.95030324660182,幸福彩虹社区特供店(志慧友水果超市),大慧寺南路,北京市,北京市,北下关,购物服务;综合市场;果品市场,060704,B0FFH9ANCF,购物服务,综合市场,果品市场,
116.33937616690898,39.91726819401313,生鲜大卖场,月坛北街11-7附近,北京市,北京市,展览路,购物服务;综合市场;农副产品市场,060703,B0FFIISJBE,购物服务,综合市场,农副产品市场,
116.33296681101808,39.91383215112587,水果蔬菜日用品店,三里河北街5号,北京市,北京市,月坛,购物服务;综合市场;果品市场,060704,B0FFI5COWW,购物服务,综合市场,果品市场,
116.33897015506535,39.947977680733125,果蔬园(交大店),北下关街道交通大学南门交大嘉园3号楼鲜果园店,北京市,北京市,西直门,购物服务;综合市场;蔬菜市场,060705,B0FFHS6F7I,购物服务,综合市场,蔬菜市场,
116.29522583794787,39.937120160760706,绿梦O生鲜网(北洼社区店),八里庄街道社区北洼西里8号楼对过,北京市,北京市,,购物服务;综合市场;农副产品市场,060703,B0FFM92K74,购物服务,综合市场,农副产品市场,
116.34250447374463,39.94865634742919,文昆顺商贸中心,交大东路52号院7号楼,北京市,北京市,西直门,购物服务;综合市场;果品市场,060704,B0FFHC5L6K,购物服务,综合市场,果品市场,
116.29593095679597,39.925396467673174,陈记切面店,广东大厦对面的生鲜超市,北京市,北京市,,购物服务;综合市场;农副产品市场,060703,B0FFKVQLRT,购物服务,综合市场,农副产品市场,
116.30644935182191,39.95766873188149,学趣轩水果店,中关村南大街理工大学浴室旁学趣轩,北京市,北京市,,购物服务;综合市场;果品市场,060704,B0FFFY5ALX,购物服务,综合市场,果品市场,
116.32856947647724,39.95597776505754,北下关果蔬便民店,学院南路66号楼一层,北京市,北京市,西直门,购物服务;综合市场;果品市场|购物服务;综合市场;蔬菜市场,060704|060705,B0FFKOSEV5,购物服务,综合市场,果品市场|购物服务,综合市场
116.29539652118171,39.94502356343631,顺鑫农业鹏程冷鲜肉,紫竹院街道彭颖百货店,北京市,北京市,,购物服务;综合市场;农副产品市场,060703,B0FFLBT8LO,购物服务,综合市场,农副产品市场,
116.34017266437453,39.9470485514188,邻家水果超市干果,[],北京市,北京市,北下关,购物服务;综合市场;果品市场,060704,B0FFLP6DJ4,购物服务,综合市场,果品市场,
116.29532649441265,39.914387929234664,果香四溢(翠微东里店),翠微路罗道庄翠微东里A1号楼,北京市,北京市,,购物服务;综合市场;果品市场,060704,B0FFILFR9D,购物服务,综合市场,果品市场,
116.33854246247951,39.9529102603654,交大家属区菜市场,交大东路西直门外上园村3号北京交通大学,北京市,北京市,北下关,购物服务;综合市场;蔬菜市场,060705,B0FFFW5NAB,购物服务,综合市场,蔬菜市场,
116.30704626313813,39.95606770091562,每日鲜水果干果超市(理工大学店),中关村南大街5号北京理工大学南门,北京市,北京市,,购物服务;综合市场;果品市场,060704,B0FFHFNP9M,购物服务,综合市场,果品市场,
116.3006776693319,39.95619212865751,生鲜蔬菜(厂洼店),厂洼东二街新京超市内,北京市,北京市,,购物服务;综合市场;农副产品市场,060703,B0FFKGF4PI,购物服务,综合市场,农副产品市场,
116.2929003903947,39.919592658989025,水果商店,蓝靛厂南路附近,北京市,北京市,,购物服务;综合市场;果品市场,060704,B0FFIIJIDJ,购物服务,综合市场,果品市场,
116.33854446001729,39.95289525733363,北下关一刻钟便民服务圈北交养老配送站,北京交通大学家属区院内,北京市,北京市,西直门,购物服务;综合市场;农副产品市场,060703,B0FFFZ0FWJ,购物服务,综合市场,农副产品市场,
116.34045088863752,39.94843199821841,嘉园菜店,交通大学路1号院5号楼1层B-2,北京市,北京市,西直门,购物服务;综合市场;蔬菜市场,060705,B0FFJOAVSA,购物服务,综合市场,蔬菜市场,
116.29674377063566,39.9143285705431,水果蔬菜鲜肉(颐源居店),翠微路4号5号楼西门北侧,北京市,北京市,,购物服务;综合市场;农副产品市场,060703,B0FFHZWE6M,购物服务,综合市场,农副产品市场,
116.33902902846333,39.9479645747357,买鲜菜生活超市(大学路店),交通大学路一号院交大嘉园三号楼底商120-3,北京市,北京市,北下关,购物服务;综合市场;果品市场,060704,B0G064LR3X,购物服务,综合市场,果品市场,
116.32657527158112,39.95424164602016,环球蔬果汇(北京大柳树路店),大柳树路9号3幢平房1号,北京市,北京市,北下关,购物服务;综合市场;果品市场,060704,B0G3MR3GBY,购物服务,综合市场,果品市场,
116.32878306633816,39.955355382536275,便民蔬果(大柳树南村店),大柳树南村36号院平房(北京市海淀区北下关街道大柳树3号院),北京市,北京市,北下关,购物服务;综合市场;果品市场,060704,B0H6POT1G3,购物服务,综合市场,果品市场,
116.30046910968699,39.9560734976811,水果超市,西三环北路11号19号楼1层,北京市,北京市,,购物服务;综合市场;果品市场,060704,B0FFIQ11TY,购物服务,综合市场,果品市场,
116.34076073900619,39.912828897597855,詹氏山核桃(三里河店),月坛南街37-3号(万丰怡和商务会馆对面),北京市,北京市,月坛,购物服务;综合市场;果品市场,060704,B0FFGK1JOA,购物服务,综合市场,果品市场,
116.33921219894,39.959234796951456,京港生鲜,四道口路2号京果商厦一层(近学院南路),北京市,北京市,大钟寺村,购物服务;综合市场;农副产品市场,060703,B0FFIIJHFL,购物服务,综合市场,农副产品市场,
116.2965910615446,39.914375824807145,刘尤水果店,翠微路4号颐源居小区西门北侧门,北京市,北京市,,购物服务;综合市场;果品市场,060704,B0FFHYKZ05,购物服务,综合市场,果品市场,
116.3304058256048,39.95957713023982,田园鲜生,皂君庙斜街15号,北京市,北京市,大钟寺村,购物服务;综合市场;果品市场,060704,B0FFK6LO29,购物服务,综合市场,果品市场,
116.33337146619965,39.95672465345288,快购鲜农生鲜超市会员店,学院南路41附近,北京市,北京市,北下关,购物服务;综合市场;农副产品市场,060703,B0G0XSZGR1,购物服务,综合市场,农副产品市场,
116.3381175315601,39.91238468253527,好想你(月坛店),月坛南街,北京市,北京市,月坛,购物服务;综合市场;果品市场,060704,B0FFL6DVU8,购物服务,综合市场,果品市场,
116.3414084715253,39.95128317891121,小萌果蔬店,交大东路3号附近,北京市,北京市,北下关,购物服务;综合市场;果品市场,060704,B0FFKDRYOK,购物服务,综合市场,果品市场,
116.33596252159715,39.9105307143957,蔬菜店(三里河店),三里河南一巷与三里河南横街交叉口西50米,北京市,北京市,月坛,购物服务;综合市场;农副产品市场,060703,B000A82WAV,购物服务,综合市场,农副产品市场,
116.34156845655588,39.91719227628688,天鲜郡果蔬(月坛店),月坛北街9号楼一层,北京市,北京市,月坛,购物服务;综合市场;果品市场,060704,B0H6SDZM1F,购物服务,综合市场,果品市场,
116.2929669440829,39.91419077961046,翠微嘉园便民超市,翠微嘉园(翠微路南),北京市,北京市,,购物服务;综合市场;果品市场,060704,B0FFGIIFHG,购物服务,综合市场,果品市场,
116.33599345252722,39.910533657158226,易客时光,三里河南一巷二区10排9号,北京市,北京市,月坛,购物服务;综合市场;农副产品市场|购物服务;便民商店/便利店;便民商店/便利店,060703|060200,B0FFH97QUM,购物服务,综合市场,农副产品市场|购物服务,便民商店/便利店
116.30082293960531,39.911843676025796,普惠便民菜蓝子,玉渊潭南路40附近,北京市,北京市,,购物服务;综合市场;农副产品市场,060703,B0FFL5LRC2,购物服务,综合市场,农副产品市场,
116.34056731354647,39.958860376773124,明光市场,学院南路48号金辉国际商务会议大酒店东侧,北京市,北京市,北下关,购物服务;综合市场;综合市场,060700,B0FFH0HZ15,购物服务,综合市场,综合市场,
116.33856860635642,39.959203963530115,京果水果超市,大钟寺四道口路2号京果商厦对面,北京市,北京市,北下关,购物服务;综合市场;果品市场,060704,B000AA1GDJ,购物服务,综合市场,果品市场,
116.33950761010027,39.95881628051889,叮咚买菜(四道口),四道口路2号,北京市,北京市,北下关,购物服务;综合市场;农副产品市场,060703,B0G1GLNYMW,购物服务,综合市场,农副产品市场,
116.34017929120301,39.95775011535649,商洛秦岭生态农特产品馆,明光西路(京果商厦东侧约50米),北京市,北京市,北下关,购物服务;综合市场;农副产品市场,060703,B0FFL2HVWM,购物服务,综合市场,农副产品市场,
116.29575407629325,39.911192357296315,煜晟生鲜超市,翠微路8号附近,北京市,北京市,公主坟,购物服务;综合市场;农副产品市场,060703,B0G057KZ6R,购物服务,综合市场,农副产品市场,
116.30960323539449,39.9595378308785,兴福兴发菜市场(综合服务楼),中关村南大街5号北京理工大学,北京市,北京市,,购物服务;综合市场;蔬菜市场,060705,B000A7Z0DA,购物服务,综合市场,蔬菜市场,
116.31766375236926,39.89876506970982,水果蔬菜园,北蜂窝路102号铁道大厦门口,北京市,北京市,,购物服务;综合市场;果品市场,060704,B0FFKUL45N,购物服务,综合市场,果品市场,
116.31757164373163,39.901298132617185,羊坊店东路农贸市场,羊坊店路18号,北京市,北京市,,购物服务;综合市场;农副产品市场,060703,B000A7XGXA,购物服务,综合市场,农副产品市场,
116.3197621140455,39.89744910097477,蔬菜水果超市,西客站南路,北京市,北京市,,购物服务;综合市场;蔬菜市场,060705,B0FFL6DBSK,购物服务,综合市场,蔬菜市场,
116.31848555211839,39.90131637904384,栗炒煌炒货店,羊坊店东路二段西料厂21号,北京市,北京市,,购物服务;综合市场;果品市场,060704,B0FFHDX2H1,购物服务,综合市场,果品市场,
116.3178420269115,39.90129161462475,好又多水果蔬菜店,羊坊店东路(中国有色工程设计研究总院东区宿舍),北京市,北京市,,购物服务;综合市场;果品市场,060704,B0G2JAH4FB,购物服务,综合市场,果品市场,
116.31846546896104,39.90234137195723,新发地果园,羊坊店东路5号5号平房,北京市,北京市,,购物服务;综合市场;果品市场,060704,B0FFIC6TMX,购物服务,综合市场,果品市场,
116.31994619488356,39.90139156979826,羊坊店站东农贸市场,北蜂窝路20-2号,北京市,北京市,,购物服务;综合市场;农副产品市场,060703,B0G095PJK1,购物服务,综合市场,农副产品市场,
116.31577669990317,39.901551554733544,果蔬生活超市,羊坊店路4-9号附近,北京市,北京市,,购物服务;综合市场;果品市场,060704,B0FFKUC6KT,购物服务,综合市场,果品市场,
116.31534373490214,39.89318776030795,水果店(北京西站),莲花池东路118号北京西站F2层8-N49-N4,北京市,北京市,太平桥,购物服务;综合市场;果品市场,060704,B0FFH918NL,购物服务,综合市场,果品市场,
116.32265596917048,39.90136735809402,光芒甘栗,羊坊店街道北蜂窝路7号,北京市,北京市,,购物服务;综合市场;农副产品市场,060703,B000A7P6AH,购物服务,综合市场,农副产品市场,
116.31532676406442,39.89326178924207,百货水果店(北京西站),莲花池东路118号北京西站F2层T-23,北京市,北京市,太平桥,购物服务;综合市场;果品市场,060704,B0HBBS2K5B,购物服务,综合市场,果品市场,
116.31293324635126,39.90056200386333,便民菜站,皇亭子弯巷,北京市,北京市,,购物服务;综合市场;蔬菜市场,060705,B0FFL56RCS,购物服务,综合市场,蔬菜市场,
116.31846648552991,39.902191376671624,翟记清真牛羊肉,羊坊店东路116号附近,北京市,北京市,,购物服务;综合市场;农副产品市场,060703,B0HB4M7Y8U,购物服务,综合市场,农副产品市场,
116.32160937271702,39.90139937040951,小白蔬菜,羊坊店街道北蜂窝西路11号甲5号院站东农贸市场,北京市,北京市,,购物服务;综合市场;蔬菜市场,060705,B0GKKYWWCT,购物服务,综合市场,蔬菜市场,
116.32345237226949,39.891568272656606,莲花河百姓生活服务中心,莲花河胡同2号院3号楼地下一层,北京市,北京市,广安门,购物服务;综合市场;农副产品市场|购物服务;超级市场;超市,060703|060400,B0FFI93EVR,购物服务,综合市场,农副产品市场|购物服务,超级市场
116.31027665248094,39.89671017588022,暴隆鲜生(什坊院店),羊坊店西路什坊院一号院6号楼一层3号商业,北京市,北京市,公主坟,购物服务;综合市场;农副产品市场,060703,B0G2XRMR7A,购物服务,综合市场,农副产品市场,
116.31919283378257,39.88621871772662,黄山茶城(太平桥东里),马连道路9号京鼎隆茶叶市场,北京市,北京市,太平桥,购物服务;综合市场;农副产品市场,060703,B000A8VX1U,购物服务,综合市场,农副产品市场,
116.32259509787036,39.90145747119006,便民蔬果(北京站东市场店),羊坊店街道北蜂窝路7号北京羊坊店站东农贸市场14号,北京市,北京市,,购物服务;综合市场;农副产品市场,060703,B0G3FCKS45,购物服务,综合市场,农副产品市场,
116.32259509787036,39.90145747119006,时鲜蔬果(北京站东市场店),羊坊店街道北蜂窝路7号北京羊坊店站东农贸市场74号,北京市,北京市,,购物服务;综合市场;农副产品市场,060703,B0G3FCLXJX,购物服务,综合市场,农副产品市场,
116.32320467635111,39.901606291852424,万康互联生态食品之家,北蜂窝路16-1号生态食品之家,北京市,北京市,,购物服务;综合市场;农副产品市场,060703,B0HBB75DSU,购物服务,综合市场,农副产品市场,
116.31454924455169,39.90343281031496,蔬果宴(宝硕生活羊坊路店),羊坊店路3号院5号楼一层,北京市,北京市,,购物服务;综合市场;农副产品市场,060703,B0G2T16M4H,购物服务,综合市场,农副产品市场,
116.32385148440224,39.891326516420584,果蔬先生生活超市,莲花河胡同丽水莲花小区二号院二号楼地商,北京市,北京市,广安门,购物服务;综合市场;果品市场,060704,B0FFIVBMQP,购物服务,综合市场,果品市场,
116.32984036805446,39.89433791665771,小芳水果店,广安门外大街305号荣丰小区,北京市,北京市,广安门,购物服务;综合市场;果品市场,060704,B0FFFSIHLX,购物服务,综合市场,果品市场,
116.32051763398425,39.88749411033379,鲜果佳园水果超市,马连道2号,北京市,北京市,红莲,购物服务;综合市场;果品市场,060704,B0FFHUTQAF,购物服务,综合市场,果品市场,
116.32431349453091,39.90659993947376,美团买菜(木樨地站),复兴门外大街复兴路茂林居9号楼,北京市,北京市,,购物服务;综合市场;蔬菜市场|餐饮服务;餐饮相关场所;餐饮相关,060705|050000,B0FFL6FLOK,购物服务,综合市场,蔬菜市场|餐饮服务,餐饮相关场所
116.32299386201576,39.90398059209904,大红门冷鲜肉,[],北京市,北京市,,购物服务;综合市场;农副产品市场,060703,B0G2JZIWT7,购物服务,综合市场,农副产品市场,
116.32521142955991,39.90659321477657,大闸蟹,木樨地茂林居3号楼1层,北京市,北京市,,购物服务;综合市场;水产海鲜市场,060706,B0FFI7WWTW,购物服务,综合市场,水产海鲜市场,
116.32019362639737,39.88552082764535,9号茶院,马连道路9号,北京市,北京市,广安门,购物服务;综合市场;农副产品市场|餐饮服务;茶艺馆;茶艺馆,060703|050600,B0FFFYTTPR,购物服务,综合市场,农副产品市场|餐饮服务,茶艺馆
116.32505380066719,39.90652552041611,阳澄湖大闸蟹(军博店),复兴路辅路茂林居3号楼1层(木樨地桥西),北京市,北京市,,购物服务;综合市场;水产海鲜市场,060706,B0FFGEY0E4,购物服务,综合市场,水产海鲜市场,
116.32758262376001,39.90152189473658,便民菜站(会城门东路),会城门东路东口,北京市,北京市,,购物服务;综合市场;蔬菜市场,060705,B0FFJ21V9J,购物服务,综合市场,蔬菜市场,
116.32907028103428,39.901026078234594,许鲜水果店(公安大学店),木樨地南里甲28号楼一层超市内,北京市,北京市,,购物服务;综合市场;果品市场,060704,B0FFHG5PIX,购物服务,综合市场,果品市场,
116.32886503539486,39.890849934047,旺源驼奶(西城总经销),广安门外大街305号五区广源东区1号楼,北京市,北京市,广外大街,购物服务;综合市场;农副产品市场|生活服务;洗浴推拿场所;洗浴推拿场所,060703|071400,B0FFG8DNLW,购物服务,综合市场,农副产品市场|生活服务,洗浴推拿场所
116.32706401932337,39.89196832158373,陕果集市,莲花池广安门外大街北瑞璟阁,北京市,北京市,广安门,购物服务;综合市场;果品市场,060704,B0FFKGBREW,购物服务,综合市场,果品市场,
116.31878482463217,39.88577152273049,京鼎隆茶叶市场,广安门外街道马连道9号,北京市,北京市,广安门,购物服务;综合市场;农副产品市场,060703,B000A8VX22,购物服务,综合市场,农副产品市场,
116.32052367125998,39.887088118034136,干果张,马连道路8号,北京市,北京市,红莲,购物服务;综合市场;农副产品市场,060703,B0G1V5AZUL,购物服务,综合市场,农副产品市场,
116.32756366872819,39.90150993150738,羊坊店街道会城门社区便民菜站,会城门东路12号楼,北京市,北京市,,购物服务;综合市场;蔬菜市场,060705,B0FFHW95UM,购物服务,综合市场,蔬菜市场,
116.32943758217529,39.8920007903962,老高豆腐坊,广安门外大街305号荣丰2008小区17号,北京市,北京市,广外大街,购物服务;综合市场;农副产品市场,060703,B0GU4XVA49,购物服务,综合市场,农副产品市场,
116.32946525102541,39.89412263959025,果蔬·果菜生鲜超市,[],北京市,北京市,广安门,购物服务;综合市场;果品市场,060704,B0G2ZOIUNK,购物服务,综合市场,果品市场,
116.3259751677001,39.88683064968068,双记日上副食品商店,广外马连道北街甲2号,北京市,北京市,红莲,购物服务;综合市场;果品市场,060704,B000A9K32R,购物服务,综合市场,果品市场,
116.33121303578497,39.88807760750712,7FRESH(广安门店),广安门外大街178-180号,北京市,北京市,红莲,购物服务;综合市场;农副产品市场|购物服务;超级市场;超市,060703|060400,B0FFJP1RC4,购物服务,综合市场,农副产品市场|购物服务,超级市场
116.33061959456955,39.894328438790154,小芳水果店,广安门外大街305号荣丰2008小区11号楼,北京市,北京市,广安门,购物服务;综合市场;果品市场,060704,B0FFLKJCPA,购物服务,综合市场,果品市场,
116.32985459443094,39.89228898432733,花果山水果店,广安门外街道荣丰2008小区13号楼花果山水果店,北京市,北京市,广外大街,购物服务;综合市场;果品市场,060704,B0HG0R0XPI,购物服务,综合市场,果品市场,
116.33203441655179,39.89407177739654,固城湖螃蟹,广安门外大街305号荣丰2008小区13号楼底商,北京市,北京市,广安门,购物服务;综合市场;水产海鲜市场,060706,B0FFK8GT0N,购物服务,综合市场,水产海鲜市场,
116.30849883553125,39.8865829573499,惠民生鲜,水口子街与太平桥路交叉路口往西约100米,北京市,北京市,太平桥,购物服务;综合市场;农副产品市场,060703,B0G3FUK4UX,购物服务,综合市场,农副产品市场,
116.3340971259918,39.89124404037974,果乐源(荣丰店),广安门外大街305号八区15、16、17号楼一层103室,北京市,北京市,广外大街,购物服务;综合市场;果品市场,060704,B0FFHC94I3,购物服务,综合市场,果品市场,
116.29628694245868,39.8880855087611,广亨商场,六里桥莲香园小区1号楼b区,北京市,北京市,,公司企业;公司;商业贸易|购物服务;综合市场;农副产品市场|购物服务;超级市场;超市,170207|060703|060400,B000A844A6,公司企业,公司,商业贸易|购物服务,综合市场
116.32203125878772,39.88667223748913,广外依莲轩社区便民菜店,马连道北街10号院,北京市,北京市,广外大街,购物服务;综合市场;蔬菜市场,060705,B0FFLCVUPY,购物服务,综合市场,蔬菜市场,
116.30095931048808,39.89070538112892,老农禾绿色食品店,莲花池西里26号院佳弘莲花大厦C座,北京市,北京市,,购物服务;综合市场;农副产品市场|购物服务;专卖店;专营店,060703|061200,B0FFIY0WT9,购物服务,综合市场,农副产品市场|购物服务,专卖店
116.30301639279601,39.888013869182984,果鲜生(六里桥店),莲宝路兴海大厦对面,北京市,北京市,,购物服务;综合市场;果品市场,060704,B0FFITHGAI,购物服务,综合市场,果品市场,
116.33551858742864,39.902009907917325,果之园(白云路店),白云路西里甲12号楼200-3,北京市,北京市,月坛,购物服务;综合市场;果品市场|购物服务;专卖店;专营店,060704|061200,B0FFFDM637,购物服务,综合市场,果品市场|购物服务,专卖店
116.33510680469983,39.899643776973065,美鲜菜场(白云路店),白云路汽南小区南门28号楼下,北京市,北京市,,购物服务;综合市场;农副产品市场,060703,B0G064MJMK,购物服务,综合市场,农副产品市场,
116.30469027826574,39.908644929721504,干果张,西三环中路16-6号,北京市,北京市,公主坟,购物服务;综合市场;果品市场|购物服务;专卖店;专营店,060704|061200,B0G0ULO3FF,购物服务,综合市场,果品市场|购物服务,专卖店
116.32696403058938,39.88577280544026,小樱子(马连道中里店),马连道中里二区3号楼西侧,北京市,北京市,红莲,购物服务;综合市场;果品市场,060704,B0G3A66HIV,购物服务,综合市场,果品市场,
116.30692226710453,39.8865578660399,青稞水果店,二环到三环莲花池南里3号楼青稞水果店,北京市,北京市,太平桥,购物服务;综合市场;果品市场,060704,B0G3MO4PV3,购物服务,综合市场,果品市场,
116.32624168770532,39.8857821887684,大红门肉联厂定点直销,马连道中里二区4号楼浩宏商贸,北京市,北京市,广安门,购物服务;综合市场;农副产品市场,060703,B0H6TY53OH,购物服务,综合市场,农副产品市场,
116.33370204380594,39.90681307643307,北京万发恒顺菜市场,复兴门外大街25号楼旁,北京市,北京市,三里河,购物服务;综合市场;蔬菜市场,060705,B000A7QOBC,购物服务,综合市场,蔬菜市场,
116.31884171980356,39.88556942317619,绿色联盟大宗商品展示交易中心,马连道路9号附近,北京市,北京市,广安门,购物服务;综合市场;农副产品市场,060703,B0FFFQ0AYL,购物服务,综合市场,农副产品市场,
116.30212176555996,39.90786356041552,鲜果乐,复兴路甲23号,北京市,北京市,公主坟,购物服务;综合市场;果品市场,060704,B0GK3RSX25,购物服务,综合市场,果品市场,
116.30699715749122,39.88614074848758,百姓的菜篮子(莲花池店),水口子街与西三环中路交叉路口往东约200米,北京市,北京市,太平桥,购物服务;综合市场;蔬菜市场,060705,B0GU51U6HW,购物服务,综合市场,蔬菜市场,
116.32620962988463,39.88682420041585,大厂回族鲜牛羊肉,广安门外马连道北街甲2号广外医院东侧10米,北京市,北京市,广外大街,购物服务;综合市场;农副产品市场,060703,B000A9DEUA,购物服务,综合市场,农副产品市场,
116.3403005078859,39.90668698547183,果士多(长安店),复兴门外大街13号楼后面水果店(长安商场东侧10米),北京市,北京市,三里河,购物服务;综合市场;果品市场|购物服务;综合市场;蔬菜市场,060704|060705,B0FFFAJ0XZ,购物服务,综合市场,果品市场|购物服务,综合市场
116.29723523300333,39.89499359406731,东耳房水果店,莲花小区二号楼一门东,北京市,北京市,,购物服务;综合市场;果品市场,060704,B0FFJ9PL93,购物服务,综合市场,果品市场,
116.30108002563873,39.906961436276326,净膛鱼(城乡购物中心),复兴路甲23号城乡购物中心B1层,北京市,北京市,公主坟,购物服务;综合市场;农副产品市场,060703,B0FFKB036H,购物服务,综合市场,农副产品市场,
116.29989234881616,39.891761192963145,社区便民菜店(大星发荣怀店),[],北京市,北京市,,购物服务;综合市场;蔬菜市场,060705,B0G0CPRAAE,购物服务,综合市场,蔬菜市场,
116.29617315707623,39.88812669680497,小叶佳栗子(莲宝路店),莲宝路与莲怡园东路交叉口广亨商场旁,北京市,北京市,,购物服务;综合市场;农副产品市场,060703,B0FFIPPMDT,购物服务,综合市场,农副产品市场,
116.34060585794114,39.890841154266774,果农家园生鲜大卖场,天宁寺小区,北京市,北京市,广外大街,购物服务;综合市场;果品市场,060704,B0FFMEJYVZ,购物服务,综合市场,果品市场,
116.29628794003011,39.88808950690501,广亨生鲜,莲宝路莲香园小区1号楼B区,北京市,北京市,,购物服务;综合市场;农副产品市场,060703,B0FFLABYZK,购物服务,综合市场,农副产品市场,
116.33958510412728,39.89840163829916,陕北优质农产品特产店,白云观街5号楼附近,北京市,北京市,复兴门,购物服务;综合市场;农副产品市场,060703,B0GRHYRBUK,购物服务,综合市场,农副产品市场,
116.33915902872042,39.906300056180214,丛林市集,复兴门外大街15号,北京市,北京市,三里河,购物服务;综合市场;综合市场,060700,B0HBO4JD20,购物服务,综合市场,综合市场,
116.34085897888934,39.90138222143782,天鮮郡果蔬(真武庙店),真武庙四条8号,北京市,北京市,复兴门,购物服务;综合市场;农副产品市场,060703,B0FFMGRCP4,购物服务,综合市场,农副产品市场,
116.33370603496331,39.90681206901517,美加优选生鲜副食超市(恒顺市场店),复兴门外大街23号楼后平房北京万发恒顺农贸市场,北京市,北京市,月坛,购物服务;综合市场;农副产品市场,060703,B0G064MZ12,购物服务,综合市场,农副产品市场,
116.33998092331773,39.90885246449565,八百屋果蔬店,二七剧场路十三号院北,北京市,北京市,三里河,购物服务;综合市场;果品市场,060704,B0G0T5F2RU,购物服务,综合市场,果品市场,
116.37944610570526,40.135898365479015,民兴生鲜超市,秦上路,北京市,北京市,,购物服务;综合市场;农副产品市场,060703,B0G0L9I695,购物服务,综合市场,农副产品市场,
116.3818972214764,40.13632471992092,尚信二手空调,尚信村幼儿园往东206米丁字路口南侧院内,北京市,北京市,,购物服务;综合市场;旧货市场,060702,B0HAOAHBEG,购物服务,综合市场,旧货市场,
116.38103438406135,40.147557116479774,出售新旧家具,X003(秦尚路),北京市,北京市,,购物服务;综合市场;旧货市场|购物服务;家居建材市场;家具城,060702|060602,B0FFJO1KBG,购物服务,综合市场,旧货市场|购物服务,家居建材市场
116.35280866449438,40.11460722595232,白各庄茶庄,沙河定泗路白各庄商业中心东侧一层,北京市,北京市,,购物服务;综合市场;农副产品市场,060703,B0FFGEU1IR,购物服务,综合市场,农副产品市场,
116.3546083612724,40.11450048189076,正大食品,龙潭早市市场,北京市,北京市,,购物服务;综合市场;农副产品市场,060703,B0GR06UPQH,购物服务,综合市场,农副产品市场,
116.3525671142685,40.11462859957834,生鲜购物广场,S327(定泗路),北京市,北京市,,购物服务;综合市场;综合市场,060700,B0FFITVI6K,购物服务,综合市场,综合市场,
116.37741050230942,40.15410998765602,官牛坊大集市场,小汤山镇秦上路智汇润池讲礼新村北,北京市,北京市,,购物服务;综合市场;综合市场,060700,B0FFIAPRZL,购物服务,综合市场,综合市场,
116.38465954802169,40.1128243335263,北京振鑫红凤兴蔬菜店,北七家镇西沙各庄55号,北京市,北京市,北七家,购物服务;综合市场;蔬菜市场,060705,B0HB4Z90WP,购物服务,综合市场,蔬菜市场,
116.38651561292978,40.11292947723617,每天鲜果菜超市,[],北京市,北京市,北七家,购物服务;综合市场;果品市场,060704,B0G0H5GDZT,购物服务,综合市场,果品市场,
116.38515632184676,40.112529117603074,羊肉片,白庙路,北京市,北京市,北七家,购物服务;综合市场;农副产品市场,060703,B0FFH130UP,购物服务,综合市场,农副产品市场,
116.38482172792114,40.11074542723256,果鲜缘蔬菜水果干果大卖场,定泗路(海德学园西侧约250米),北京市,北京市,北七家,购物服务;综合市场;农副产品市场|购物服务;综合市场;蔬菜市场,060703|060705,B0FFL4Z4LP,购物服务,综合市场,农副产品市场|购物服务,综合市场
116.36506076191588,40.087015344684396,京海粮油调料,霍营西路与龙锦二街交叉路口往北约50米(龙锦百货),北京市,北京市,北七家,购物服务;综合市场;农副产品市场,060703,B0HBXUR977,购物服务,综合市场,农副产品市场,
116.36147675297441,40.08265119035908,侬馥果园-霍营店,霍营街道上坡佳园7号楼东2门,北京市,北京市,东小口,购物服务;综合市场;果品市场,060704,B0G32AFMII,购物服务,综合市场,果品市场,
116.36702892636967,40.08753298497823,鲜菜来了(龙锦店),东小口镇小辛村村南祥和龙锦农贸市场内B区30号,北京市,北京市,北七家,购物服务;综合市场;农副产品市场,060703,B0FFKSCN2T,购物服务,综合市场,农副产品市场,
116.36169041631129,40.0826459091412,百万果蔬,霍营上坡嘉园7号楼底商,北京市,北京市,东小口,购物服务;综合市场;果品市场,060704,B0GU79LGBJ,购物服务,综合市场,果品市场,
116.36570479603544,40.087347547316234,龙锦市场,东小口镇回龙观龙锦市场西门7475 76号,北京市,北京市,北七家,购物服务;商场;购物中心|购物服务;便民商店/便利店;便民商店/便利店|购物服务;综合市场;综合市场,060101|060200|060700,B000A8X48H,购物服务,商场,购物中心|购物服务,便民商店/便利店
116.36509661973052,40.08771925128739,乐斌调料,霍营西路与龙锦一街交叉路口往东南约100米,北京市,北京市,北七家,购物服务;综合市场;农副产品市场,060703,B0FFMHUULF,购物服务,综合市场,农副产品市场,
116.36396031571846,40.079701202796706,副食蔬菜水果,华龙苑北里北门,北京市,北京市,东小口,购物服务;综合市场;蔬菜市场,060705,B0FFIMT0PD,购物服务,综合市场,蔬菜市场,
116.36297041981287,40.0827322447567,新发地果蔬便民直营店(龙锦东店),龙锦三街,北京市,北京市,东小口,购物服务;综合市场;农副产品市场,060703,B0GUCS5O28,购物服务,综合市场,农副产品市场,
116.3697373096951,40.08026450047472,尚云农场,回龙观东大街天鑫家园6号楼底商6-109号,北京市,北京市,东小口,购物服务;综合市场;农副产品市场,060703,B0FFKU3Z6I,购物服务,综合市场,农副产品市场,
116.36882438843652,40.08091343638572,鲜果绿园生鲜超市(回龙观店),东小口镇回龙观东大街23-1至23-27号1层23-1,北京市,北京市,东小口,购物服务;综合市场;农副产品市场|购物服务;综合市场;果品市场|购物服务;综合市场;水产海鲜市场,060703|060704|060706,B0FFG69VEX,购物服务,综合市场,农副产品市场|购物服务,综合市场
116.36808839198733,40.08838272612891,老马食品体验店(回龙观店),409乡道老马员工公寓旁,北京市,北京市,北七家,购物服务;综合市场;农副产品市场,060703,B0FFIA30PK,购物服务,综合市场,农副产品市场,
116.36005729870716,40.0884016914415,蟹凰宫大闸蟹,回南北路,北京市,北京市,北七家,购物服务;综合市场;水产海鲜市场,060706,B0G257UE0S,购物服务,综合市场,水产海鲜市场,
116.36926348972779,40.09131222941411,小辛庄菜市场,小辛庄村,北京市,北京市,北七家,购物服务;综合市场;蔬菜市场|生活服务;生活服务场所;生活服务场所,060705|070000,B0FFKI7SZ9,购物服务,综合市场,蔬菜市场|生活服务,生活服务场所
116.36031402657203,40.07946396310943,买鲜菜果蔬(昌平店),霍营旺龙花园商业7号1层1-4,北京市,北京市,东小口,购物服务;综合市场;果品市场,060704,B0GKHL35Q5,购物服务,综合市场,果品市场,
116.36035595668777,40.079477905388615,果蔬生鲜超市(回龙观东大街店),霍营旺龙花园商业7号1层1-4,北京市,北京市,东小口,购物服务;综合市场;果品市场|购物服务;综合市场;农副产品市场,060704|060703,B0FFJRBT7X,购物服务,综合市场,果品市场|购物服务,综合市场
116.36146832070047,40.078328494778745,生鲜超市,霍营旺龙花园7号1层1-4,北京市,北京市,东小口,购物服务;综合市场;农副产品市场,060703,B0G0AZSA3S,购物服务,综合市场,农副产品市场,
116.361290688091,40.077660774508175,果满屋(农业部管理干部学院店),回龙观黄平路209号,北京市,北京市,东小口,购物服务;综合市场;果品市场,060704,B0FFGBQN05,购物服务,综合市场,果品市场,
116.3615321953097,40.07851839773274,天天鲜果蔬,黄平路(华龙苑中里),北京市,北京市,东小口,购物服务;综合市场;果品市场,060704,B0G07541AA,购物服务,综合市场,果品市场,
116.35211725754706,40.081101860342635,果飘香,回龙观镇良庄街6号楼1层107-1,北京市,北京市,回龙观,购物服务;综合市场;果品市场,060704,B0FFLGWYWH,购物服务,综合市场,果品市场,
116.36204576279398,40.075598917682406,活鱼店,[],北京市,北京市,东小口,购物服务;综合市场;水产海鲜市场,060706,B0G0AZSHRK,购物服务,综合市场,水产海鲜市场,
116.36225850184746,40.07504967692061,百姓佳水果蔬菜大卖场,黄平路(华龙苑中里),北京市,北京市,东小口,购物服务;综合市场;果品市场,060704,B0FFFXVYVM,购物服务,综合市场,果品市场,
116.36867484212806,40.094463635461544,万客隆果蔬,东小口镇小辛庄清真寺斜对面,北京市,北京市,北七家,购物服务;综合市场;果品市场,060704,B0FFL98JBV,购物服务,综合市场,果品市场,
116.36821637002099,40.09502409871927,安子旧货,小辛庄村与平西府交界处往南30米路西,北京市,北京市,北七家,购物服务;综合市场;旧货市场,060702,B0GDT5YEEJ,购物服务,综合市场,旧货市场,
116.36839422952627,40.09429795605642,便民水果蔬菜超市,998公寓二部北(409乡道),北京市,北京市,北七家,购物服务;综合市场;蔬菜市场,060705,B0FFG2M536,购物服务,综合市场,蔬菜市场,
116.36857491071935,40.094941709317155,水果蔬菜,北清路(北京京西幼儿园北侧约150米),北京市,北京市,北七家,购物服务;综合市场;蔬菜市场,060705,B0HAD6C0ZH,购物服务,综合市场,蔬菜市场,
116.35112372310992,40.08442320044587,千果绿蔬生活超市,回龙观科星西路19号总政小区,北京市,北京市,回龙观,购物服务;综合市场;农副产品市场|购物服务;综合市场;蔬菜市场,060703|060705,B0FFFV3MTE,购物服务,综合市场,农副产品市场|购物服务,综合市场
116.38095753648572,40.08465059977603,果乐果蔬,回南路沙县小吃南50米,北京市,北京市,东小口,购物服务;综合市场;蔬菜市场,060705,B0FFGY3HHM,购物服务,综合市场,蔬菜市场,
116.36202977967768,40.07566193439048,干果,黄平路215附近,北京市,北京市,东小口,购物服务;综合市场;果品市场,060704,B0FFL5NKUK,购物服务,综合市场,果品市场,
116.35207594126346,40.07637124250491,志广果蔬(国风美唐店),回龙观街道国风美唐一期回龙观镇科星西路106号,北京市,北京市,回龙观,购物服务;综合市场;果品市场,060704,B0FFL5Q0BW,购物服务,综合市场,果品市场,
116.35111073367251,40.08453521330196,天鲜郡果蔬(科星西路店),回龙观镇龙锦三街总政机关回龙观小区10号楼,北京市,北京市,回龙观,购物服务;综合市场;果品市场,060704,B0H6S50OCD,购物服务,综合市场,果品市场,
116.38134934941947,40.08390440258043,果蔬生鲜超市,回南路(回南家园-公共汽车站西北侧约50米),北京市,北京市,东小口,购物服务;综合市场;果品市场,060704,B0G0BO3XVC,购物服务,综合市场,果品市场,
116.35475891693659,40.076832088899096,未来优鲜(国风美唐店),科星西路31号,北京市,北京市,回龙观,购物服务;综合市场;农副产品市场,060703,B0G0BS1646,购物服务,综合市场,农副产品市场,
116.38187679827726,40.085322978112984,溢佳果蔬超市,东小口镇魏窑村428站,北京市,北京市,东小口,购物服务;综合市场;蔬菜市场,060705,B0FFH0V899,购物服务,综合市场,蔬菜市场,
116.35226817802176,40.07168724608517,绿果蔬生鲜超市(霍营店),科星西路47号楼1层,北京市,北京市,回龙观,购物服务;综合市场;农副产品市场,060703,B0FFHZPRKA,购物服务,综合市场,农副产品市场,
116.36795825662989,40.09856611848892,信诚生鲜,北清路平西府村北门100米路东,北京市,北京市,北七家,购物服务;综合市场;农副产品市场,060703,B0G064LWOE,购物服务,综合市场,农副产品市场,
116.36775454538667,40.09843235710932,鲜果园,北清路与宏福大道交叉路口往南约150米,北京市,北京市,北七家,购物服务;综合市场;果品市场,060704,B0FFL5WEOK,购物服务,综合市场,果品市场,
116.34695123916323,40.08217817870945,绿之盟妈妈家(苏西妈妈店),回龙观镇天龙苑15号楼1层6号底商,北京市,北京市,回龙观,购物服务;综合市场;农副产品市场|购物服务;专卖店;儿童用品店,060703|061207,B0FFH6L5UF,购物服务,综合市场,农副产品市场|购物服务,专卖店
116.36152652047532,40.09943690287322,叮咚买菜,北七家修正大厦,北京市,北京市,北七家,购物服务;综合市场;农副产品市场,060703,B0GU1OZ2W8,购物服务,综合市场,农副产品市场,
116.36698168163095,40.09772928966947,蔬菜,[],北京市,北京市,北七家,购物服务;综合市场;蔬菜市场,060705,B0FFL7Z5OK,购物服务,综合市场,蔬菜市场,
116.34425460123897,40.07576720291728,叮咚买菜,文华东路18号附近,北京市,北京市,回龙观,购物服务;综合市场;蔬菜市场,060705,B0G27RF3F0,购物服务,综合市场,蔬菜市场,
116.35172021047144,40.071722104472066,粒上皇(北京霍营店),龙跃街47号恒源福商业大厦1层,北京市,北京市,回龙观,购物服务;综合市场;果品市场,060704,B0FFIOTBSN,购物服务,综合市场,果品市场,
116.34310450792177,40.08754339578051,绿惠蔬果店,回龙观回南北路田园风光雅苑,北京市,北京市,回龙观,购物服务;综合市场;蔬菜市场,060705,B0FFILIBCE,购物服务,综合市场,蔬菜市场,
116.35229380273124,40.0742420409669,果蔬鲜美,回龙观科星西路39号,北京市,北京市,回龙观,购物服务;综合市场;果品市场,060704,B0FFFWNYEH,购物服务,综合市场,果品市场,
116.35287708877539,40.07127432437785,鲜果蔬生鲜超市,霍营地铁E口直行30米,北京市,北京市,回龙观,购物服务;综合市场;果品市场,060704,B0GKJH09IX,购物服务,综合市场,果品市场,
116.34309252845591,40.087580414082325,绿特佳蔬果店,回龙观田园风光小区底商,北京市,北京市,回龙观,购物服务;综合市场;农副产品市场,060703,B0FFGZU0T1,购物服务,综合市场,农副产品市场,
116.3880598082531,40.08319214829989,蔬菜水果豆制品,回南路535号附近,北京市,北京市,东小口,购物服务;综合市场;蔬菜市场,060705,B0FFHLNI9O,购物服务,综合市场,蔬菜市场,
116.37229588208778,40.06751373548257,蔬菜水果超市,新都路(雨佳幼儿园第八分园北侧约50米),北京市,北京市,东小口,购物服务;综合市场;蔬菜市场,060705,B0G0GSJBMS,购物服务,综合市场,蔬菜市场,
116.376781922484,40.100967424259984,馨德堂,平西王府古玩城,北京市,北京市,北七家,购物服务;综合市场;农副产品市场,060703,B0G0PB9LH0,购物服务,综合市场,农副产品市场,
116.37676591508318,40.101141423620724,赵记杂货铺,北七家平西王府古玩城,北京市,北京市,北七家,购物服务;综合市场;农副产品市场,060703,B0G0ACVZQT,购物服务,综合市场,农副产品市场,
116.34689840330557,40.073911819574455,棠品生鲜超市,龙跃街龙跃苑三区二号楼底商,北京市,北京市,回龙观,购物服务;综合市场;农副产品市场,060703,B0GU49TOK6,购物服务,综合市场,农副产品市场,
116.37184603703206,40.06254947929641,果蔬汇(富力桃园社区店),建材城富力桃园4号楼1层08号,北京市,北京市,东小口,购物服务;综合市场;果品市场,060704,B0FFI119TF,购物服务,综合市场,果品市场,
116.37672197475759,40.10099747021443,珎王阁,平西王府古玩城,北京市,北京市,北七家,购物服务;综合市场;综合市场,060700,B0G0A6OXS5,购物服务,综合市场,综合市场,
116.37668993924885,40.101507456395524,侯石斋,平西王府古玩城,北京市,北京市,北七家,购物服务;综合市场;综合市场,060700,B0G0PBAOP3,购物服务,综合市场,综合市场,
116.37708458961791,40.10137215105891,慧成斋,平西王府古玩城,北京市,北京市,北七家,购物服务;综合市场;综合市场,060700,B0G0PBA8A4,购物服务,综合市场,综合市场,
116.37705161639637,40.10140017504327,藝蕴堂,北七家平西王府古玩城,北京市,北京市,北七家,购物服务;综合市场;综合市场,060700,B0G0AAT9EX,购物服务,综合市场,综合市场,
116.37460760045673,40.065674705853105,张记炒栗,[],北京市,北京市,东小口,购物服务;综合市场;果品市场,060704,B0HBOAKB0G,购物服务,综合市场,果品市场,
116.35179378335269,40.06615333901953,谷来乐生鲜超市(枫丹丽舍店),回龙观街道枫丹丽舍西路2号地下一层,北京市,北京市,西三旗,购物服务;综合市场;农副产品市场,060703,B0FFJJSNCD,购物服务,综合市场,农副产品市场,
116.36967938576947,40.06465456679361,便民市场,新都路(金隅翡丽爱公馆西侧),北京市,北京市,东小口,购物服务;综合市场;综合市场,060700,B0FFL7LAYB,购物服务,综合市场,综合市场,
116.34809227766063,40.063937456966286,鹏程冷鲜肉,西三旗街道建材城西路9号院右侧,北京市,北京市,西三旗,购物服务;综合市场;农副产品市场,060703,B0FFGY4D0Z,购物服务,综合市场,农副产品市场,
116.36344183333475,40.03490848278726,金运兴诚生鲜,宝盛路宝盛里一楼底商,北京市,北京市,清河,购物服务;综合市场;农副产品市场,060703,B0FFMF37LR,购物服务,综合市场,农副产品市场,
116.36416473024353,40.03508656928343,果蔬美水果店,宝盛路宝盛里底商1号楼,北京市,北京市,清河,购物服务;综合市场;果品市场|购物服务;综合市场;蔬菜市场|餐饮服务;餐饮相关场所;餐饮相关,060704|060705|050000,B0FFHTVZHM,购物服务,综合市场,果品市场|购物服务,综合市场
116.36305942627278,40.03480397302795,杰帅果蔬,宝盛路与黑泉路交叉路口往西南约150米(宝盛里),北京市,北京市,清河,购物服务;综合市场;果品市场,060704,B0FFK5QBZN,购物服务,综合市场,果品市场,
116.36435380134468,40.03235047429579,新发地直供果蔬粮油,清河宝盛里观澳园北门一号楼106楼一层底商,北京市,北京市,清河,购物服务;综合市场;果品市场,060704,B0FFL5VAYM,购物服务,综合市场,果品市场,
116.36110153965524,40.03433354851075,今日鲜生超市,西三旗街道宝盛里3号楼1层,北京市,北京市,永泰,购物服务;综合市场;农副产品市场,060703,B0FFJ5YZZQ,购物服务,综合市场,农副产品市场,
116.35984261574299,40.03402926394915,志广果蔬(宝盛店),宝盛路宝盛里,北京市,北京市,永泰,购物服务;综合市场;农副产品市场,060703,B0FFK6443K,购物服务,综合市场,农副产品市场,
116.35014117707246,40.03314081862062,果叶果综合超市,清河永泰东里52号,北京市,北京市,永泰,购物服务;综合市场;果品市场|购物服务;综合市场;蔬菜市场,060704|060705,B0FFFOO2JF,购物服务,综合市场,果品市场|购物服务,综合市场
116.35081695738776,40.03246076848105,老姚栗子(永泰店),永泰东里51号楼底商YT51-006,北京市,北京市,西三旗,购物服务;综合市场;果品市场,060704,B0G3VBBDXY,购物服务,综合市场,果品市场,
116.34873243842469,40.02923430681297,果实佳,龙岗路51号5号楼1层07号,北京市,北京市,永泰,购物服务;综合市场;果品市场,060704,B0FFG4EJUC,购物服务,综合市场,果品市场,
116.3528155621827,40.02937277585945,清缘生鲜超市,龙岗路35号底商1-102,北京市,北京市,永泰,购物服务;综合市场;农副产品市场,060703,B0FFMAKKSG,购物服务,综合市场,农副产品市场,
116.3678998253002,40.016753052522205,罗纳河谷生鲜超市,林萃路1号院10号楼,北京市,北京市,林萃,购物服务;综合市场;农副产品市场,060703,B0FFGTKELQ,购物服务,综合市场,农副产品市场,
116.3452450619669,40.03257898770335,糖炒栗子(各种炒货),清河永泰园小区4号楼1单元101号,北京市,北京市,永泰,购物服务;综合市场;果品市场,060704,B0FFHFD46D,购物服务,综合市场,果品市场,
116.35156399339463,40.02881476354136,凤鲜郡水果(清河店),清缘里小区w16号楼底商东数一间,北京市,北京市,永泰,购物服务;综合市场;果品市场,060704,B0HGN9OGHD,购物服务,综合市场,果品市场,
116.3505265458952,40.03223724457361,百姓大菜地果果生活超市,永泰东里51号楼底商1层023-029号,北京市,北京市,永泰,购物服务;综合市场;蔬菜市场,060705,B0HBNAWQBZ,购物服务,综合市场,蔬菜市场,
116.35174973706526,40.02805750773089,便民综合菜站,永泰中路与龙岗路交叉路口往南约100米,北京市,北京市,永泰,购物服务;综合市场;蔬菜市场,060705,B0HGR5NOPG,购物服务,综合市场,蔬菜市场,
116.34825838884566,40.029161091255965,京西菜市(龙岗路店),龙岗路53号,北京市,北京市,永泰,购物服务;综合市场;蔬菜市场,060705,B0FFMFD2IK,购物服务,综合市场,蔬菜市场,
116.35176671149475,40.02800548353942,民特优便民综合市场(清河店),永泰中路12号,北京市,北京市,永泰,购物服务;综合市场;农副产品市场,060703,B0G29RQACC,购物服务,综合市场,农副产品市场,
116.34640374358317,40.03214004066391,鲁品鲜果蔬,永泰庄路,北京市,北京市,永泰,购物服务;综合市场;果品市场,060704,B0FFM10DCR,购物服务,综合市场,果品市场,
116.34638676666296,40.03223006479962,大千彩果蔬生鲜连锁店(永泰店),永泰西里30号楼1层3号,北京市,北京市,永泰,购物服务;综合市场;果品市场,060704,B0FFM110AK,购物服务,综合市场,果品市场,
116.34813041945353,40.046581396174304,町春蔬菜大棚,西小口路10号,北京市,北京市,西三旗,购物服务;综合市场;农副产品市场,060703,B0FFKT671M,购物服务,综合市场,农副产品市场,
116.34724145649324,40.028925793299436,北大杨哥农场食材(海淀清河店),清河龙岗路51号院,北京市,北京市,永泰,购物服务;综合市场;果品市场,060704,B0HBKMP73U,购物服务,综合市场,果品市场,
116.36600304374572,40.011894459186635,林萃生鲜超市,林萃西里26号,北京市,北京市,林萃,购物服务;综合市场;农副产品市场,060703,B0FFIC0UMQ,购物服务,综合市场,农副产品市场,
116.36478525701125,40.01603973202943,每日优鲜·生鲜超市,[],北京市,北京市,林萃,购物服务;综合市场;农副产品市场,060703,B0G3VSDTTX,购物服务,综合市场,农副产品市场,
116.36673549388674,40.0160344122534,众合永盛生鲜超市,奥运村街道朝阳区林萃路9号院3-10底商,北京市,北京市,林萃,购物服务;综合市场;农副产品市场,060703,B0G2J7I5OV,购物服务,综合市场,农副产品市场,
116.34522787829779,40.01077105784636,城华园果蔬便民店,学清路城华园1号楼0110室,北京市,北京市,,购物服务;综合市场;果品市场,060704,B0FFGOMJ6G,购物服务,综合市场,果品市场,
116.34515707151199,40.018245834917415,垦荒人(学清路店),学清路9号汇智大厦A座,北京市,北京市,,购物服务;综合市场;农副产品市场,060703,B0FFFALV6S,购物服务,综合市场,农副产品市场,
116.35076545619609,40.01366575356651,好乐家生鲜超市(双泉堡店),双泉堡125号院一号楼底商,北京市,北京市,,购物服务;综合市场;农副产品市场|购物服务;超级市场;超市,060703|060400,B0FFL4DHVD,购物服务,综合市场,农副产品市场|购物服务,超级市场
116.34545150444949,40.010090706518525,三元食品,学清路甲8号F1层,北京市,北京市,,购物服务;综合市场;农副产品市场,060703,B0FFG4FZXF,购物服务,综合市场,农副产品市场,
116.3454605149765,40.009862701424055,水果蔬菜店,市市西北旺镇永丰屯都市丽人旁边,北京市,北京市,,购物服务;综合市场;蔬菜市场,060705,B0HA1YEGMY,购物服务,综合市场,蔬菜市场,
116.35926138830902,39.980713462314625,果多美(花园路店),花园北路37-4号(近北医三院),北京市,北京市,牡丹园,购物服务;综合市场;果品市场,060704,B0FFF343X6,购物服务,综合市场,果品市场,
116.3662658577394,39.97918054698921,世纪华联生鲜超市(牡丹园店),小关西后街花园北路乙28号院北门斜对面,北京市,北京市,牡丹园,购物服务;综合市场;农副产品市场|购物服务;便民商店/便利店;便民商店/便利店|购物服务;超级市场;超市,060703|060200|060400,B000A8W633,购物服务,综合市场,农副产品市场|购物服务,便民商店/便利店
116.36624288981841,39.9791805739515,北小关菜店,小关(小关粮店)1-5间,北京市,北京市,牡丹园,购物服务;综合市场;蔬菜市场|购物服务;便民商店/便利店;便民商店/便利店,060705|060200,B0FFGSVO5E,购物服务,综合市场,蔬菜市场|购物服务,便民商店/便利店
116.36885637452494,39.97920661560332,缘地源干果店,龙翔路3号楼附近,北京市,北京市,牡丹园,购物服务;综合市场;农副产品市场,060703,B0FFHLU7HH,购物服务,综合市场,农副产品市场,
116.3685647480957,39.97923993300957,阳光水果超市(小关西后街),龙翔路物美超市院里,北京市,北京市,牡丹园,购物服务;综合市场;果品市场,060704,B0FFG73A48,购物服务,综合市场,果品市场,
116.36961723173904,39.980567742103055,便民果蔬市场,[],北京市,北京市,牡丹园,购物服务;综合市场;果品市场,060704,B0HGRHMDZI,购物服务,综合市场,果品市场,
116.3667542402075,39.97871399663549,果然蔬超市,小关西后街花园北路乙28号院2号楼,北京市,北京市,牡丹园,购物服务;综合市场;农副产品市场,060703,B0FFFAIHSG,购物服务,综合市场,农副产品市场,
116.3664685676195,39.97924230724505,水果干果糖炒栗子,小关西后街19号,北京市,北京市,牡丹园,购物服务;综合市场;果品市场,060704,B0H6GX4S9Z,购物服务,综合市场,果品市场,
116.37443270393662,39.98042903743573,薯香栗园,华严北里甲1号武圣羊汤旁,北京市,北京市,祁家豁子,购物服务;综合市场;果品市场|餐饮服务;餐饮相关场所;餐饮相关,060704|050000,B0FFJCRGVI,购物服务,综合市场,果品市场|餐饮服务,餐饮相关场所
116.36602434149985,39.97804287754369,天冷生鲜,花园路街道牡丹园西里一号楼,北京市,北京市,牡丹园,购物服务;综合市场;农副产品市场,060703,B0FFL9KGLR,购物服务,综合市场,农副产品市场,
116.36007159215343,39.99216987516087,牛街清真肉铺(志新店),志新路16号38幢一层北侧16-7,北京市,北京市,,购物服务;综合市场;农副产品市场,060703,B0FFHVEUV8,购物服务,综合市场,农副产品市场,
116.35927376862551,39.977572572863785,哞哞小花牛鲜奶屋,花园路3号13号平房,北京市,北京市,牡丹园,购物服务;综合市场;农副产品市场|餐饮服务;冷饮店;冷饮店,060703|050700,B0FFGCXZ25,购物服务,综合市场,农副产品市场|餐饮服务,冷饮店
116.35988589648726,39.992164128800425,京农良品生鲜超市,志新路16-10号,北京市,北京市,,购物服务;综合市场;农副产品市场|购物服务;超级市场;超市,060703|060400,B0FFK8H07V,购物服务,综合市场,农副产品市场|购物服务,超级市场
116.37129242632024,39.97869008712631,鲜美多,小关街市政投资商务楼,北京市,北京市,牡丹园,购物服务;综合市场;农副产品市场,060703,B0FFJC0L3E,购物服务,综合市场,农副产品市场,
116.36420921052343,39.976074153867856,果香四溢(牡丹园店),花园东路2-1号楼(仰源大厦一层交通银行隔壁),北京市,北京市,牡丹园,购物服务;综合市场;果品市场|餐饮服务;冷饮店;冷饮店,060704|050700,B0FFHM084F,购物服务,综合市场,果品市场|餐饮服务,冷饮店
116.37096480725259,39.978764415058606,小关社区蔬菜便民站,牡丹园北路甲2号附近,北京市,北京市,牡丹园,购物服务;综合市场;蔬菜市场,060705,B0FFJ4QJGZ,购物服务,综合市场,蔬菜市场,
116.35772802988585,39.980274636216016,阳澄湖大闸蟹(花园北路店),花园北路甲40号1层107铺,北京市,北京市,牡丹园,购物服务;综合市场;水产海鲜市场,060706,B0G0797RWF,购物服务,综合市场,水产海鲜市场,
116.35517510121736,39.99130090955295,北科大社区便民菜店,学院路30号北京科技大学,北京市,北京市,,购物服务;综合市场;蔬菜市场,060705,B000A8VOXU,购物服务,综合市场,蔬菜市场,
116.35926974977112,39.97777257032272,牛街牛羊肉,北土城西路花园路3号院沿街底商,北京市,北京市,牡丹园,购物服务;综合市场;农副产品市场,060703,B0HBRC7JE2,购物服务,综合市场,农副产品市场,
116.35498932366842,39.98433747695018,馋猫鲜果切,跃进厅下沉广场B130,北京市,北京市,,购物服务;综合市场;果品市场,060704,B0HASU71XI,购物服务,综合市场,果品市场,
116.36476917296808,39.96210302345563,好想你枣(新街口店中店),新街口外大街6号-8(北京师范大学东门),北京市,北京市,德胜门,购物服务;综合市场;果品市场,060704,B000A8VP10,购物服务,综合市场,果品市场,
116.3598617754383,39.977756756151976,净天绿有机生活馆(牡丹园店),花园路2号,北京市,北京市,牡丹园,购物服务;综合市场;蔬菜市场,060705,B0FFL7ME93,购物服务,综合市场,蔬菜市场,
116.35361807024664,39.99023131043919,林业水果店,学院路30号北京科技大学,北京市,北京市,,购物服务;综合市场;果品市场,060704,B0FFF5ANOI,购物服务,综合市场,果品市场,
116.37539489881844,39.97904025258257,阳澄湖大闸蟹(健翔桥店),祁家豁子8号健翔大厦1-3附近底商,北京市,北京市,祁家豁子,购物服务;综合市场;水产海鲜市场,060706,B0G295OETX,购物服务,综合市场,水产海鲜市场,
116.3698164102396,39.97721866715942,百菜宴(鲜美多生鲜超市店),牡丹园北里2号楼一层101室,北京市,北京市,牡丹园,购物服务;综合市场;蔬菜市场,060705,B0HAN1O5O5,购物服务,综合市场,蔬菜市场,
116.364238166735,39.97608211769094,果香四溢牡丹园(生鲜)店,花园东路11号泰兴大厦一层,北京市,北京市,牡丹园,购物服务;综合市场;果品市场,060704,B0G39YKJI8,购物服务,综合市场,果品市场,
116.37127982303706,39.97570322061243,安心菜场(乐享生鲜店),北土城西路119号乐享生鲜超市,北京市,北京市,牡丹园,购物服务;综合市场;果品市场,060704,B0GKUUIDT0,购物服务,综合市场,果品市场,
116.37573083506301,39.99257040823589,幸福生鲜超市,安翔北路,北京市,北京市,,购物服务;综合市场;农副产品市场|购物服务;超级市场;超市,060703|060400,B0G1LN5JJL,购物服务,综合市场,农副产品市场|购物服务,超级市场
116.35403762020113,39.979878096919684,京唯鲜(海民兴市场店),花园北路46号北京市海民兴市场,北京市,北京市,,购物服务;综合市场;果品市场,060704,B0GRD9L8ML,购物服务,综合市场,果品市场,
116.353669972608,39.990247230275344,赵姐水果干果店,北京科技大学操场北边,北京市,北京市,,购物服务;综合市场;果品市场,060704,B0FFI0HDQV,购物服务,综合市场,果品市场,
116.35927376505826,39.977600571734186,新发地果蔬社区便民店(海淀区006店),花园路3号附近,北京市,北京市,牡丹园,购物服务;综合市场;果品市场,060704,B0G0OSU6M5,购物服务,综合市场,果品市场,
116.35496649241388,39.97549587141943,好仁园糖炒栗子烤红薯,北土城西路,北京市,北京市,,购物服务;综合市场;农副产品市场,060703,B0FFK6JQGY,购物服务,综合市场,农副产品市场,
116.35870947503125,39.97158060003463,牛街大厂清真鲜牛羊肉,花园路13号,北京市,北京市,,购物服务;综合市场;农副产品市场,060703,B0FFHLU7TQ,购物服务,综合市场,农副产品市场,
116.38386708201821,39.979666343063066,美团买菜(北土城站),民族园路2号1层4号门市,北京市,北京市,北辰,购物服务;综合市场;蔬菜市场,060705,B0G3Y1UCYY,购物服务,综合市场,蔬菜市场,
116.37163084335975,39.995773040528356,果蔬会,科学园南里西街与南沙滩东路交叉路口西南侧,北京市,北京市,,购物服务;综合市场;综合市场,060700,B0FFFZDNXU,购物服务,综合市场,综合市场,
116.35248206124871,39.97549767148411,天天鲜果干果超市(塔院西街),塔院西街与北土城西路交叉路口北侧(塔院迎春园),北京市,北京市,,购物服务;综合市场;果品市场,060704,B0FFG7EQRD,购物服务,综合市场,果品市场,
116.35868352065029,39.971564637026205,平记鲜牛羊肉店,花园路美廉美超市西边门面房,北京市,北京市,,购物服务;综合市场;农副产品市场,060703,B0FFHD4C8T,购物服务,综合市场,农副产品市场,
116.36701205906964,40.008651429297245,菜鲜果美精品超市(科荟路店),科荟路林翠西里16号楼华创生活广场B1层,北京市,北京市,林萃,购物服务;综合市场;蔬菜市场|购物服务;超级市场;超市,060705|060400,B0FFH9E7TJ,购物服务,综合市场,蔬菜市场|购物服务,超级市场
116.37982889359382,39.971544126745705,干果烧饼,裕民路裕中西里小区旁,北京市,北京市,马甸,购物服务;综合市场;果品市场|购物服务;便民商店/便利店;便民商店/便利店,060704|060200,B0FFF63N8K,购物服务,综合市场,果品市场|购物服务,便民商店/便利店
116.36420584460963,39.97114735614886,乡巴佬栗子,北三环中路43号院北2号板楼一层105号,北京市,北京市,马甸,购物服务;综合市场;果品市场,060704,B0FFLLGBLR,购物服务,综合市场,果品市场,
116.37961031533708,39.97742004176715,吕齐蔬菜,祁家豁子街临10号(地震局黄楼家属院14号楼下),北京市,北京市,祁家豁子,购物服务;综合市场;农副产品市场,060703,B0FFJ67RRM,购物服务,综合市场,农副产品市场,
116.37799426060387,39.99623643850953,惠民果蔬,科学园南里东街4号,北京市,北京市,,购物服务;综合市场;果品市场,060704,B0FFIW2U9L,购物服务,综合市场,果品市场,
116.37608807068561,39.9723679367509,马甸年货大集,裕民路12号中国国际科技会展中心内,北京市,北京市,马甸,购物服务;综合市场;综合市场,060700,B0FFFSPGE4,购物服务,综合市场,综合市场,
116.3531062541368,39.97268781586527,便民一条街菜站,北影社区内,北京市,北京市,,购物服务;综合市场;综合市场,060700,B0FFI17HPT,购物服务,综合市场,综合市场,
116.38443961421976,39.980771002817356,果蔬生鲜超市,北土城路中华民族园大润发北门,北京市,北京市,北辰,购物服务;综合市场;果品市场,060704,B0FFL4E6SR,购物服务,综合市场,果品市场,
116.35928343371188,39.97223477468878,果香四溢生鲜超市(花园路店),北太平庄路四号楼,北京市,北京市,,购物服务;综合市场;农副产品市场,060703,B0G1P5LHTE,购物服务,综合市场,农副产品市场,
116.38390197247587,39.98036329635875,叮咚买菜(民族园店),朝阳民族园2号,北京市,北京市,北辰,购物服务;综合市场;蔬菜市场,060705,B0G1G9Q5K4,购物服务,综合市场,蔬菜市场,
116.35891678359198,39.99777822844498,二里庄北里便民菜店,清华东路二里庄北里6号,北京市,北京市,二里庄,购物服务;综合市场;蔬菜市场,060705,B0G3119931,购物服务,综合市场,蔬菜市场,
116.37257421464375,40.00003093732701,果蔬优品,南沙滩41号,北京市,北京市,,购物服务;综合市场;果品市场,060704,B0G2BZ8T2P,购物服务,综合市场,果品市场,
116.36093343,39.9668627439941,粒上皇(北太平庄店),北三环中路67号101-202,北京市,北京市,牡丹园,购物服务;综合市场;农副产品市场,060703,B0FFIIPDHX,购物服务,综合市场,农副产品市场,
116.35335977921373,39.97272642347588,东林水果店,北三环中路77号院北影小区商业街,北京市,北京市,,购物服务;综合市场;果品市场,060704,B0G0V4HXGK,购物服务,综合市场,果品市场,
116.36745158593061,39.999868313576194,小蜜蜂果蔬超市,南沙滩66号院1号楼1层1-411,北京市,北京市,,购物服务;综合市场;果品市场,060704,B0HGOXV9DR,购物服务,综合市场,果品市场,
116.38107648120813,39.97521015164096,阳澄湖牌大闸蟹(北土城西路店),北土城西路9号,北京市,北京市,祁家豁子,购物服务;综合市场;水产海鲜市场,060706,B0FFFW51GL,购物服务,综合市场,水产海鲜市场,
116.38471046334757,39.98078886702621,大红门冷鲜肉(唐人街购物广场店),民族园路2号唐人街购物广场1层,北京市,北京市,北辰,购物服务;综合市场;农副产品市场,060703,B0FFHWDH5S,购物服务,综合市场,农副产品市场,
116.36360046213517,39.96553933556963,果多美(北太平桥店),北太平街道新街口外大街19号北京师范大学浴室北侧,北京市,北京市,小西天,购物服务;综合市场;果品市场,060704,B0FFI5IETQ,购物服务,综合市场,果品市场,
116.36165752385844,40.004110238257866,利顺缘社区水果便利店,北沙滩路与京藏高速交叉路口东侧(如家快捷酒店),北京市,北京市,林萃,购物服务;综合市场;果品市场|购物服务;便民商店/便利店;便民商店/便利店,060704|060200,B0FFI05Y7O,购物服务,综合市场,果品市场|购物服务,便民商店/便利店
116.36498234535327,39.96616260257177,阳澄湖大闸蟹(北太店),新街口外大街2-21号北太平庄桥东南角,北京市,北京市,马甸,购物服务;综合市场;水产海鲜市场,060706,B0FFJG63E9,购物服务,综合市场,水产海鲜市场,
116.36730574158723,39.968894758065744,李记热力牛羊肉店(马甸西路店),马甸西路马甸桥西孔府酒店,北京市,北京市,马甸,购物服务;综合市场;农副产品市场,060703,B0FFH8NAJE,购物服务,综合市场,农副产品市场,
116.38881787035437,39.971464565521785,水果蔬菜超市,安贞路35号西南80米,北京市,北京市,安贞,购物服务;综合市场;农副产品市场,060703,B0FFHOKOXP,购物服务,综合市场,农副产品市场,
116.37874193774971,39.97029394758608,裕中西里社区菜市场,裕中西里甲47-3,北京市,北京市,马甸,购物服务;综合市场;蔬菜市场,060705,B000A7Z5I3,购物服务,综合市场,蔬菜市场,
116.3455365726211,39.96891829219263,蓟门里菜市场,蓟门里小区东区7号楼西侧,北京市,北京市,,购物服务;综合市场;蔬菜市场,060705,B0FFFAIALB,购物服务,综合市场,蔬菜市场,
116.38871990108288,39.97147659686178,蟹中汇阳澄湖大闸蟹,北辰路安贞西里21-1底商,北京市,北京市,安贞,购物服务;综合市场;水产海鲜市场,060706,B0FFHCPDYT,购物服务,综合市场,水产海鲜市场,
116.36902901449213,40.0037473958492,水果蔬菜店,林萃路21-2底商附近,北京市,北京市,林萃,购物服务;综合市场;蔬菜市场,060705,B0FFH17HCO,购物服务,综合市场,蔬菜市场,
116.35957406826773,39.963492722369416,励耘菜站,新街口外大街19号北京师范大学(海淀校区)内,北京市,北京市,小西天,购物服务;综合市场;蔬菜市场,060705,B0FFHQRL2O,购物服务,综合市场,蔬菜市场,
116.38740608943719,39.97377097063281,相阳阳澄湖大闸蟹(朝阳实体店),鼓楼外大街1号楼底商(地铁8号线、10号线北土城站E出口西南角),北京市,北京市,马甸,购物服务;综合市场;水产海鲜市场,060706,B0FFFZACD9,购物服务,综合市场,水产海鲜市场,
116.3599830833205,39.965951064141606,干果&水果,北三环中路与花园路交叉路口东南侧,北京市,北京市,小西天,购物服务;综合市场;果品市场|购物服务;专卖店;专营店,060704|061200,B0FFMA6IIF,购物服务,综合市场,果品市场|购物服务,专卖店
116.38717444293785,39.97174514137897,果甜菜美,裕民路甲1号附近,北京市,北京市,马甸,购物服务;综合市场;果品市场,060704,B0FFL1S0HJ,购物服务,综合市场,果品市场,
116.34543077044461,39.9690724665204,牛街牛羊肉,蓟门桥西土城路蓟门里(北区),北京市,北京市,,购物服务;综合市场;农副产品市场,060703,B0FFGIAIX8,购物服务,综合市场,农副产品市场,
116.3646763659001,39.96165115485124,二商大红门冷鲜肉,新街口外大街甲8-2号,北京市,北京市,德胜门,购物服务;综合市场;农副产品市场,060703,B0GRGOS41U,购物服务,综合市场,农副产品市场,
116.37020672754085,39.96311982178129,绿牧源牛羊肉,新风北街6-2号,北京市,北京市,德胜门,购物服务;综合市场;农副产品市场,060703,B0FFK6BUQW,购物服务,综合市场,农副产品市场,
116.37043403819514,39.966333458114114,百万鲜果生鲜超市,德胜街道新风北街六号楼百万鲜果,北京市,北京市,德胜门,购物服务;综合市场;农副产品市场,060703,B0G07C5CXV,购物服务,综合市场,农副产品市场,
116.3741472245289,39.963054990217266,大连海参,德胜门外大街8号(国动部招待所旁边),北京市,北京市,黄寺,购物服务;综合市场;水产海鲜市场,060706,B0FFI0JUEA,购物服务,综合市场,水产海鲜市场,
116.37143295682917,39.96541447876431,有厨生鲜,德胜街道马甸南村马甸南村小区,北京市,北京市,德胜门,购物服务;综合市场;农副产品市场,060703,B0G064NTJQ,购物服务,综合市场,农副产品市场,
116.37643815803467,39.9612360912191,新发地果蔬社区便民店(西城区第005店),黄寺大街(德胜置业大厦),北京市,北京市,马甸,购物服务;综合市场;果品市场,060704,B0G1SRALOO,购物服务,综合市场,果品市场,
116.38176975935471,39.96137426952967,菜篮子便民服务站(人定湖北巷),人定湖北巷11号,北京市,北京市,德胜门,购物服务;综合市场;果品市场,060704,B0FFH14Z3Q,购物服务,综合市场,果品市场,
116.37696665812597,39.96127066287775,北大杨哥农场食材(西城黄寺店),黄寺大街26号院,北京市,北京市,黄寺,购物服务;综合市场;果品市场,060704,B0G064MJIH,购物服务,综合市场,果品市场,
116.38502534489275,39.933457598568324,荷花市场,地安门西大街51-5号,北京市,北京市,,购物服务;综合市场;综合市场,060700,B000A5FA9E,购物服务,综合市场,综合市场,
116.36710653811018,39.933428395703174,水果食品超市,护国寺大街106-2号,北京市,北京市,,购物服务;综合市场;果品市场,060704,B000AAAY15,购物服务,综合市场,果品市场,
116.36633215887726,39.936924152658385,果香四溢(新街口店),新街口南大街甲57号,北京市,北京市,,购物服务;综合市场;果品市场,060704,B0FFFQ68XO,购物服务,综合市场,果品市场,
116.36994874189634,39.94984361715084,金耀路牛羊肉(冰窖口店),冰窖口胡同1号院1号楼1-3底商金耀路,北京市,北京市,德胜门,购物服务;综合市场;农副产品市场,060703,B000A85IH9,购物服务,综合市场,农副产品市场,
116.36690290860663,39.932703659080666,糖炒栗子,新街口南大街170号,北京市,北京市,,购物服务;综合市场;果品市场,060704,B0FFILENF7,购物服务,综合市场,果品市场,
116.36693187507012,39.932655627633785,百果园(平安里地铁站店),群力胡同23号,北京市,北京市,,购物服务;综合市场;果品市场,060704,B0FFIHL7V0,购物服务,综合市场,果品市场,
116.36380657047836,39.930908455577104,阳澄湖大闸蟹,前车胡同12-2,北京市,北京市,,购物服务;综合市场;水产海鲜市场,060706,B000A7ZVDY,购物服务,综合市场,水产海鲜市场,
116.36662358468783,39.938256759218525,粒上皇(新街口店),新街口南大街乙26号(新街口百货斜对面),北京市,北京市,,购物服务;综合市场;果品市场,060704,B0FFHGYG8C,购物服务,综合市场,果品市场,
116.3672536502879,39.93098132634017,阳澄湖大闸蟹,什刹海街道地安门西大街庚42,北京市,北京市,,购物服务;综合市场;水产海鲜市场,060706,B0FFH5O6LR,购物服务,综合市场,水产海鲜市场,
116.37011161349609,39.933595094188576,干鲜果品店,护国寺大街乙50号,北京市,北京市,,购物服务;综合市场;果品市场,060704,B0FFL7DFGR,购物服务,综合市场,果品市场,
116.36663060636319,39.93801076090533,义乌小商品超市,新街口南大街新时模型旁,北京市,北京市,,购物服务;综合市场;小商品市场,060701,B0FFHMOREF,购物服务,综合市场,小商品市场,
116.37037117227774,39.93455178542944,精品羊肉店,[],北京市,北京市,,购物服务;综合市场;农副产品市场,060703,B0FFH17BO0,购物服务,综合市场,农副产品市场,
116.3698469192357,39.93377336496122,食材商店,护国寺街75附近,北京市,北京市,,购物服务;综合市场;农副产品市场,060703,B0G3MC0595,购物服务,综合市场,农副产品市场,
116.36200245118577,39.92991580293459,果多美(赵登禹路店),赵登禹路西四北八条63号,北京市,北京市,,购物服务;综合市场;果品市场,060704,B0FFI5IEUA,购物服务,综合市场,果品市场,
116.36985333681292,39.9382761774177,果运来水果(新街口店),棉花胡同13号,北京市,北京市,,购物服务;综合市场;果品市场,060704,B0FFG7342Y,购物服务,综合市场,果品市场,
116.36964543100262,39.93957634540694,调料粮油,四环胡同29号4幢附近,北京市,北京市,,购物服务;综合市场;农副产品市场,060703,B0FFH12WXO,购物服务,综合市场,农副产品市场,
116.37330432038837,39.938079754001265,阳澄湖大闸蟹海鲜大礼包(什刹海店),德胜门内大街乙196号,北京市,北京市,,购物服务;综合市场;水产海鲜市场,060706,B0FFHDY00F,购物服务,综合市场,水产海鲜市场,
116.37019456100012,39.94104270915745,蔬菜水果,新街口东街26号附近,北京市,北京市,,购物服务;综合市场;农副产品市场,060703,B0FFFORR8B,购物服务,综合市场,农副产品市场,
116.37353132058855,39.93614062079128,固城湖螃蟹(德胜内大街店),德胜门内大街246号,北京市,北京市,,购物服务;综合市场;水产海鲜市场|购物服务;专卖店;专营店,060706|061200,B0FFFS3SWR,购物服务,综合市场,水产海鲜市场|购物服务,专卖店
116.37015743996808,39.93451200937743,水果,护国寺东巷与护国寺东街交叉口东100米,北京市,北京市,,购物服务;综合市场;果品市场,060704,B0FFKG8JA6,购物服务,综合市场,果品市场,
116.35774379008477,39.93487542513218,粮油店,金融街道羊肉胡同120号,北京市,北京市,西直门,购物服务;综合市场;农副产品市场,060703,B0FFHVGYM0,购物服务,综合市场,农副产品市场,
116.3701977952319,39.939175780286476,白雪利民鲜肉店,四环胡同与罗儿胡同交叉口东50米,北京市,北京市,,购物服务;综合市场;农副产品市场,060703,B0FFF5B94D,购物服务,综合市场,农副产品市场,
116.36634152641642,39.94178094759716,果多美(新街口店),新街口北大街86号一层,北京市,北京市,积水潭,购物服务;综合市场;果品市场,060704,B0FFI9PUP9,购物服务,综合市场,果品市场,
116.36710205509796,39.929421563099446,蔬访斋(金灜店),西四北大街46号16幢1层101,北京市,北京市,,购物服务;综合市场;果品市场,060704,B0GKNN3ZAY,购物服务,综合市场,果品市场,
116.37240944479731,39.92140628128673,美栗乡(西安门店),西安门大街93号(口腔医院南),北京市,北京市,,购物服务;综合市场;果品市场,060704,B000A7BK0B,购物服务,综合市场,果品市场,
116.36666387890963,39.927670140001155,meatballs丸类,复兴门内大街101号百盛购物中心北楼二层,北京市,北京市,,购物服务;综合市场;农副产品市场,060703,B0G2COAWFH,购物服务,综合市场,农副产品市场,
116.36657800807943,39.92758724319124,密云雾灵山散养农家土鸡,西四北大街101号,北京市,北京市,,购物服务;综合市场;农副产品市场,060703,B0FFKOAGUA,购物服务,综合市场,农副产品市场,
116.3581822589754,39.94103255545723,通达集贸菜市场(装修中),北草厂胡同与五根檩胡同交叉路口东南侧(如意里),北京市,北京市,西直门,购物服务;综合市场;农副产品市场,060703,B000A7QMXO,购物服务,综合市场,农副产品市场,
116.37018276806646,39.93953378165712,晏灵同利食品店,弘善胡同积水园旅馆西南100米,北京市,北京市,,购物服务;综合市场;农副产品市场,060703,B0FFFZB4AJ,购物服务,综合市场,农副产品市场,
116.35823390069365,39.927454030079886,鲜果汇水果干果,翠花街3号(翠花街与大茶叶胡同交叉口北行50米路西),北京市,北京市,西直门,购物服务;综合市场;果品市场,060704,B0FFHGOTO9,购物服务,综合市场,果品市场,
116.36655403028452,39.9276732675904,安心菜场(西四店),西四北大街101号1层101、2层201金瀛便民超市,北京市,北京市,,购物服务;综合市场;果品市场,060704,B0HA1PEUGQ,购物服务,综合市场,果品市场,
116.36714030403546,39.927060615525846,老农果园水果干果超市,西四北大街136号,北京市,北京市,,购物服务;综合市场;农副产品市场,060703,B0FFJX7TBM,购物服务,综合市场,农副产品市场,
116.36975039402307,39.938835263784924,旺隆发食品店,四环胡同与罗儿胡同交叉口南50米,北京市,北京市,,购物服务;综合市场;农副产品市场,060703,B000A7QP7I,购物服务,综合市场,农副产品市场,
116.3750829723309,39.93395431722764,天鲜郡果蔬(定阜街店),定阜街26号,北京市,北京市,,购物服务;综合市场;果品市场,060704,B0GKA6WC4W,购物服务,综合市场,果品市场,
116.37274359804385,39.9407681755291,聚宝源牛羊肉店,德胜门内大街169号,北京市,北京市,,购物服务;综合市场;农副产品市场,060703,B0H616MTSC,购物服务,综合市场,农副产品市场,
116.36071906774214,39.925332690404616,海鲜活鱼水产,赵登禹路180号百姓超市内,北京市,北京市,,购物服务;综合市场;水产海鲜市场,060706,B0FFKIWGN5,购物服务,综合市场,水产海鲜市场,
116.37319497536632,39.94172271087375,阳澄湖大闸蟹(德胜门订购店),德胜门内大街甲120号,北京市,北京市,,购物服务;综合市场;水产海鲜市场,060706,B0FFF5IKMX,购物服务,综合市场,水产海鲜市场,
116.36724224402097,39.926445524104324,老农果园(西四北大街),西四北大街136号,北京市,北京市,,购物服务;综合市场;果品市场,060704,B000AA0LUG,购物服务,综合市场,果品市场,
116.37572868974813,39.93895356377911,什刹海便民蔬菜连锁店(金奖胡同店),鼓楼西大街新开胡同28号西门,北京市,北京市,,购物服务;综合市场;蔬菜市场,060705,B0FFFLIQOV,购物服务,综合市场,蔬菜市场,
116.35384729679626,39.938056054994156,菜大全(半壁街店),后半壁街46号,北京市,北京市,西直门,购物服务;综合市场;果品市场,060704,B0HAMB11WG,购物服务,综合市场,果品市场,
116.36728236340556,39.925082534211285,7水果,西四北大街210号,北京市,北京市,,购物服务;综合市场;果品市场,060704,B0FFG4GA40,购物服务,综合市场,果品市场,
116.37274359090465,39.94082417330375,牛街老字号牛羊肉店(德内店),德胜门内大街181附近,北京市,北京市,,购物服务;综合市场;农副产品市场,060703,B0FFKS0UQH,购物服务,综合市场,农副产品市场,
116.36330581234324,39.942756610492914,牛羊肉店,新街口四条,北京市,北京市,积水潭,购物服务;综合市场;农副产品市场,060703,B0G3FCMCH4,购物服务,综合市场,农副产品市场,
116.36831689901148,39.917908669361616,羊皮市胡同,,北京市,北京市,,地名地址信息;交通地名;道路名|购物服务;综合市场;综合市场,190301|060700,B0FFGQ8HTR,地名地址信息,交通地名,道路名|购物服务,综合市场
116.36348747640263,39.943242361566114,菜市场,东教场胡同与新街口四条交叉路口往北约50米,北京市,北京市,积水潭,购物服务;综合市场;蔬菜市场,060705,B0FFL4C8EK,购物服务,综合市场,蔬菜市场,
116.36621223294533,39.94549595158381,同心果蔬超市,新街口北大街甲18号,北京市,北京市,积水潭,购物服务;综合市场;蔬菜市场|购物服务;综合市场;果品市场,060705|060704,B0FFHBBJKF,购物服务,综合市场,蔬菜市场|购物服务,综合市场
116.36628306884377,39.94600684812587,德芙利糖炒栗子,新街口北大街8号(近积水潭地铁C口),北京市,北京市,积水潭,购物服务;综合市场;果品市场,060704,B0FFF6PNEG,购物服务,综合市场,果品市场,
116.3752164818995,39.9289044059715,平房水果店,什刹海街道爱民里一号楼平房水果店,北京市,北京市,北海,购物服务;综合市场;果品市场,060704,B0FFMBD7KI,购物服务,综合市场,果品市场,
116.36729850012439,39.923838566992536,佰佳果蔬直营店,西四北大街甲246号,北京市,北京市,,购物服务;综合市场;蔬菜市场|购物服务;综合市场;果品市场,060705|060704,B0FFFPM64M,购物服务,综合市场,蔬菜市场|购物服务,综合市场
116.35647416438094,39.92563963337782,老汤便民水果蔬菜,东廊下胡同与中廊下胡同交叉口北50米,北京市,北京市,,购物服务;综合市场;果品市场|购物服务;综合市场;蔬菜市场,060704|060705,B0FFH16TRI,购物服务,综合市场,果品市场|购物服务,综合市场
116.35377875658058,39.95114263901443,佳果多生鲜超市,文慧园路北侧,北京市,北京市,西直门,购物服务;综合市场;果品市场|购物服务;综合市场;农副产品市场,060704|060703,B0FFHCZ5LL,购物服务,综合市场,果品市场|购物服务,综合市场
116.35956858684375,39.943808510016574,亿嘉生鲜超市,后英房胡同5号附近,北京市,北京市,西直门,购物服务;综合市场;农副产品市场,060703,B0GRDSGKNQ,购物服务,综合市场,农副产品市场,
116.36739445699698,39.92315948574824,百果园(西四地铁站店),西四北大街地铁4号线西四站B口东楼1段101,北京市,北京市,,购物服务;综合市场;果品市场,060704,B0FFIK5UDM,购物服务,综合市场,果品市场,
116.35949544118927,39.92234647900743,农家鲜果店(阜成门店),阜成门内大街乙170号,北京市,北京市,,购物服务;综合市场;果品市场,060704,B0FFFN461Y,购物服务,综合市场,果品市场,
116.36705517156055,39.92116395602584,栗栗皇(西四店),西四南大街33号,北京市,北京市,,购物服务;综合市场;果品市场,060704,B0FFHPEZRT,购物服务,综合市场,果品市场,
116.35344497579395,39.93068096858516,买鲜菜(车公庄店),官园南里三区一号楼1-4,北京市,北京市,官园,购物服务;综合市场;果品市场,060704,B0HBTP0MCL,购物服务,综合市场,果品市场,
116.35343499422507,39.930680983923665,蔬访斋(官园南里店),官园南里三区一号楼,北京市,北京市,西直门,购物服务;综合市场;果品市场,060704,B0HBKUPZDW,购物服务,综合市场,果品市场,
116.37780574055226,39.939022888008424,小白水果店,柳荫街1号,北京市,北京市,,购物服务;综合市场;果品市场,060704,B0FFKLAMHX,购物服务,综合市场,果品市场,
116.3562098375921,39.92399808787608,如意水果超市,宫门口西岔73号,北京市,北京市,,购物服务;综合市场;果品市场,060704,B0FFH021CU,购物服务,综合市场,果品市场,
116.35510334210356,39.92763957782538,万博天虹菜市场,西廊下胡同,北京市,北京市,西直门,购物服务;综合市场;蔬菜市场,060705,B0FFKVRFCJ,购物服务,综合市场,蔬菜市场,
116.3676110073758,39.91655551552605,百万鲜果生鲜超市,西单北大街甲18号,北京市,北京市,,购物服务;综合市场;果品市场,060704,B0FFLJHB99,购物服务,综合市场,果品市场,
116.34380227406017,39.944479246478124,微风市集(北下关店),高粱桥斜街交大东路62号,北京市,北京市,西直门,购物服务;综合市场;果品市场|购物服务;综合市场;农副产品市场|购物服务;便民商店/便利店;便民商店/便利店|购物服务;服装鞋帽皮具店;服装鞋帽皮具店,060704|060703|060200|061100,B0FFLI0ZZT,购物服务,综合市场,果品市场|购物服务,综合市场
116.37368201993887,39.95288581630794,阳澄湖大闸蟹(教场口订购店),教场口街9号院7号楼(北京银行旁),北京市,北京市,德胜门,购物服务;综合市场;水产海鲜市场,060706,B000ABCNHA,购物服务,综合市场,水产海鲜市场,
116.38693402826063,39.944485316268704,阳澄湖大闸蟹(鼓楼店),小石桥胡同2号,北京市,北京市,德胜门,购物服务;综合市场;水产海鲜市场,060706,B0FFJID70H,购物服务,综合市场,水产海鲜市场,
116.34411327936685,39.93145323005465,果蔬优鲜,车公庄大街甲5号-6,北京市,北京市,展览路,购物服务;综合市场;果品市场,060704,B0HA9Y6RNS,购物服务,综合市场,果品市场,
116.34482362613609,39.93285794835606,官批市场,北京新华里16号院6号楼,北京市,北京市,官园,购物服务;综合市场;综合市场,060700,B0HB2PTIOW,购物服务,综合市场,综合市场,
116.37751062308477,39.94983468648939,瓜果鲜,安德路122号安德馨居底商,北京市,北京市,德胜门,购物服务;综合市场;果品市场|购物服务;综合市场;农副产品市场,060704|060703,B0FFL6DV5T,购物服务,综合市场,果品市场|购物服务,综合市场
116.35318859715927,39.95309646791009,北京永旺百合水果商店,红联北村甲六号,北京市,北京市,西直门,购物服务;综合市场;果品市场,060704,B0FFHNZYZT,购物服务,综合市场,果品市场,
116.35513004998404,39.95312051776008,鲜美汇果蔬,北太平庄街道红联北村3号楼1层,北京市,北京市,小西天,购物服务;综合市场;蔬菜市场|购物服务;综合市场;农副产品市场,060705|060703,B0FFG73B4T,购物服务,综合市场,蔬菜市场|购物服务,综合市场
116.3428547743376,39.93258537549941,果鲜佳园水果干果超市,车公庄大街9号院2附近,北京市,北京市,展览路,购物服务;综合市场;果品市场,060704,B0G3JRA2PF,购物服务,综合市场,果品市场,
116.35741430380774,39.95098225473847,鲜果多水果蔬菜超市,[],北京市,北京市,小西天,购物服务;综合市场;果品市场,060704,B0HGRHO3M5,购物服务,综合市场,果品市场,
116.34350467782158,39.930457326838386,每日优鲜(月坛星店),车公庄大街4号27幢新华1949停车场,北京市,北京市,官园,购物服务;综合市场;果品市场,060704,B0H6DRA9M5,购物服务,综合市场,果品市场,
116.34627096968491,39.922509904181396,天天鲜果,阜成门外大街丙3号东润时代大厦,北京市,北京市,展览路,购物服务;综合市场;果品市场,060704,B0FFJ5CUWG,购物服务,综合市场,果品市场,
116.34556799223009,39.92577296320559,淘菜园,北礼士路北营房北街9号,北京市,北京市,百万庄,购物服务;综合市场;果品市场,060704,B0GRGKORXT,购物服务,综合市场,果品市场,
116.34960024787839,39.94671140551216,社区便民菜站,西直门北大街47号院1附近,北京市,北京市,西直门,购物服务;综合市场;农副产品市场,060703,B0GRDUJRIQ,购物服务,综合市场,农副产品市场,
116.34474546170749,39.943297664033565,悟空鲜果水果店,北下关街道交大东路62号智地钻河中心2号楼,北京市,北京市,西直门,购物服务;综合市场;果品市场,060704,B0FFLC3IXV,购物服务,综合市场,果品市场,
116.38754172663934,39.92923369069691,豆腐坊,[],北京市,北京市,北海,购物服务;综合市场;农副产品市场,060703,B0G04S8SDW,购物服务,综合市场,农副产品市场,
116.36762197623865,39.916684497706285,菜大全(百万鲜果西单店),西单北大街14号,北京市,北京市,,购物服务;综合市场;果品市场,060704,B0H6DLAH4V,购物服务,综合市场,果品市场,
116.36288581367303,39.91636322114023,金融街百姓生活服务中心,金融街街道宏英园小区13号楼宏英园13号楼,北京市,北京市,,购物服务;综合市场;农副产品市场,060703,B0FFGI903D,购物服务,综合市场,农副产品市场,
116.36460370806893,39.95196462727255,一果果切(新街口外大街店),新街口外大街25号幽雅迷丝商店(水果店),北京市,北京市,小西天,购物服务;综合市场;果品市场,060704,B0GKGR9ALO,购物服务,综合市场,果品市场,
116.37044229976607,39.95637684419546,水果蔬菜,德胜门桥新康路,北京市,北京市,德胜门,购物服务;综合市场;蔬菜市场,060705,B0FFI0YXHF,购物服务,综合市场,蔬菜市场,
116.38767019876188,39.94863386763334,新民菜市场,安定门西滨河路与鼓楼外大街交叉口西100米,北京市,北京市,德胜门,购物服务;综合市场;蔬菜市场,060705,B000A7Z24S,购物服务,综合市场,蔬菜市场,
116.34323368719473,39.9427383055106,长河湾便民果蔬店,高梁桥斜街路口交通银行东面,北京市,北京市,北下关,购物服务;综合市场;果品市场|购物服务;专卖店;专营店,060704|061200,B0FFKTPU85,购物服务,综合市场,果品市场|购物服务,专卖店
116.38759205875581,39.949967844040216,小张栗子,旧鼓楼外大街58号附近,北京市,北京市,德胜门,购物服务;综合市场;果品市场,060704,B0FFIGGEB7,购物服务,综合市场,果品市场,
116.37147411072593,39.91681439131148,安怡侬生鲜,[],北京市,北京市,,购物服务;综合市场;农副产品市场,060703,B0HGRHN8EL,购物服务,综合市场,农副产品市场,
116.37522449017101,39.95227646552862,果蔬有约,塔院胡同与弘慈巷交叉口西南100米,北京市,北京市,德胜门,购物服务;综合市场;农副产品市场,060703,B0G3MU1KY5,购物服务,综合市场,农副产品市场,
116.36919675289072,39.910130038997416,果乐美水果店,西单堂子胡同9号新一代商场七层,北京市,北京市,西单,购物服务;综合市场;果品市场,060704,B0FFFFN5GP,购物服务,综合市场,果品市场,
116.34967335747189,39.95258705389801,果蔬好(枫蓝国际店),西直门北大街32号枫蓝国际中心地下一层,北京市,北京市,西直门,购物服务;综合市场;果品市场,060704,B0FFKBD73F,购物服务,综合市场,果品市场,
116.35303089151985,39.95308471196931,水果超市,慧景路临33号附近,北京市,北京市,西直门,购物服务;综合市场;果品市场,060704,B0FFFPA9ET,购物服务,综合市场,果品市场,
116.35097502592568,39.95111201879673,果蔬好生活超市,[],北京市,北京市,小西天,购物服务;综合市场;果品市场,060704,B0FFLOG8RU,购物服务,综合市场,果品市场,
116.38279837789842,39.943354373954485,国安社区什刹海街道便民连锁菜店(后马厂菜店)(暂停营业),鼓楼西大街后马厂胡同28号,北京市,北京市,德胜门,购物服务;综合市场;蔬菜市场,060705,B0FFK15P0C,购物服务,综合市场,蔬菜市场,
116.37663859019086,39.956371120458805,五路通牛羊肉店,五路通街13号人定湖西里5号楼,北京市,北京市,德胜门,购物服务;综合市场;农副产品市场,060703,B0FFGYX1ML,购物服务,综合市场,农副产品市场,
116.38764720691701,39.9486398759369,缤纷精品水果(新民市场店),旧鼓楼外大街新民市场西门内5米,北京市,北京市,德胜门,购物服务;综合市场;果品市场,060704,B0FFHXQG7C,购物服务,综合市场,果品市场,
116.37302678518205,39.91331103199785,鲜驿站(灵境店),灵境胡同1号楼,北京市,北京市,,购物服务;综合市场;农副产品市场|购物服务;便民商店/便利店;便民商店/便利店,060703|060200,B0FFHE5G0W,购物服务,综合市场,农副产品市场|购物服务,便民商店/便利店
116.34467190404914,39.91738984607347,首蔬鲜果(月坛店),月坛北街辅路月坛北街3号楼,北京市,北京市,月坛,购物服务;综合市场;果品市场,060704,B0FFJKTKV6,购物服务,综合市场,果品市场,
116.35488008411652,39.9563837630602,干果张,学院南路西土城路10号,北京市,北京市,西直门,购物服务;综合市场;果品市场,060704,B0FFM0PN7W,购物服务,综合市场,果品市场,
116.3879231314552,39.94840678410866,小壹水果店,旧鼓楼外大街68号,北京市,北京市,德胜门,购物服务;综合市场;果品市场,060704,B0FFKQAFZB,购物服务,综合市场,果品市场,
116.37142513865038,39.91704743044842,西长安街街道百姓生活服务中心,西皇城根南街36号,北京市,北京市,,购物服务;综合市场;农副产品市场,060703,B0FFJ26FL7,购物服务,综合市场,农副产品市场,
116.37109051768061,39.956373181311115,德胜新康果蔬生鲜便民中心,新德街丙29-1号,北京市,北京市,德胜门,购物服务;综合市场;果品市场|购物服务;综合市场;蔬菜市场,060704|060705,B0FFJITA3T,购物服务,综合市场,果品市场|购物服务,综合市场
116.38881678350293,39.94867846803035,新民综合商场,鼓楼外大街66号,北京市,北京市,德胜门,购物服务;综合市场;蔬菜市场,060705,B0FFJISA20,购物服务,综合市场,蔬菜市场,
116.37512259183052,39.952285553303376,德胜教场口百姓生活服务中心,教场口街与林家胡同交叉口西50米,北京市,北京市,德胜门,购物服务;综合市场;农副产品市场,060703,B0FFH12T34,购物服务,综合市场,农副产品市场,
116.3683248852127,39.91008699256642,举个栗子(华威约饭街店),西单北大街130-152号7层732号,北京市,北京市,西单,购物服务;综合市场;果品市场,060704,B0FFJDSMKT,购物服务,综合市场,果品市场,
116.37663059668756,39.95637912662091,果果鲜水果干果店,五路通街13号南50米,北京市,北京市,德胜门,购物服务;综合市场;果品市场|购物服务;专卖店;专营店,060704|061200,B0FFKZ4A2B,购物服务,综合市场,果品市场|购物服务,专卖店
116.38763720633459,39.94867487827531,大名府香油,旧鼓楼外大街新民菜市场早市,北京市,北京市,德胜门,购物服务;综合市场;农副产品市场,060703,B0FFK9FM4G,购物服务,综合市场,农副产品市场,
116.37690631277387,39.95658489641851,小菓农,五路通街,北京市,北京市,德胜门,购物服务;综合市场;果品市场,060704,B0G3AZBQ8I,购物服务,综合市场,果品市场,
116.37804681225366,39.952462171272465,水果,[],北京市,北京市,德胜门,购物服务;综合市场;果品市场,060704,B0FFL6PJCX,购物服务,综合市场,果品市场,
116.3516103295544,39.954910860250195,玥驰生鲜,北太平庄街道学院南路乙32号院,北京市,北京市,小西天,购物服务;综合市场;农副产品市场,060703,B0GKNN64AW,购物服务,综合市场,农副产品市场,
116.34364101799414,39.95701902932894,果果美水果批发,学院南路明光村1号,北京市,北京市,北下关,购物服务;综合市场;果品市场,060704,B0FFFGR01F,购物服务,综合市场,果品市场,
116.34398629821897,39.95700243071875,菜篮子,学院南路17-2号附近,北京市,北京市,北下关,购物服务;综合市场;蔬菜市场,060705,B0FFKZLBXD,购物服务,综合市场,蔬菜市场,
116.37304907983669,39.910806117958266,府南社区水果蔬菜便民店,太仆寺街31号,北京市,北京市,,购物服务;综合市场;果品市场,060704,B0FFLH1JI3,购物服务,综合市场,果品市场,
116.34294835263277,39.91071112144618,丰大农业便民菜店,月坛街道南礼士路三条东里甲82号楼,北京市,北京市,三里河,购物服务;综合市场;蔬菜市场,060705,B0FFGZSV3O,购物服务,综合市场,蔬菜市场,
116.34670033859561,39.912736590462664,干果张,月坛南街5-1号,北京市,北京市,月坛,购物服务;综合市场;农副产品市场,060703,B0G1S7BLNM,购物服务,综合市场,农副产品市场,
116.35188727569884,39.91189717234857,金融市场交易中心,金融大街25号3楼,北京市,北京市,复兴门,购物服务;综合市场;综合市场,060700,B0HGO6TQHQ,购物服务,综合市场,综合市场,
116.3530430845541,39.912088361206386,D.K.uss营养水果(金融街店),金融大街甲9号平安大厦,北京市,北京市,金融街,购物服务;综合市场;农副产品市场,060703,B0FFGIPXID,购物服务,综合市场,农副产品市场,
116.34456584628325,39.91957693701571,展览路南营房百姓生活服务中心,南营房乙8号展览路,北京市,北京市,月坛,购物服务;综合市场;农副产品市场,060703,B0FFI19Z38,购物服务,综合市场,农副产品市场,
116.37130725848127,39.95638596237637,德胜新康果蔬生鲜便民中心西城中心站,[],北京市,北京市,德胜门,购物服务;综合市场;果品市场,060704,B0FFL6XCG4,购物服务,综合市场,果品市场,
116.38708260708736,39.955116836844496,便民果蔬,安德里北街2号楼北侧平房,北京市,北京市,黄寺,购物服务;综合市场;农副产品市场,060703,B0G1R94AOH,购物服务,综合市场,农副产品市场,
116.34393142471525,39.95690852954051,鲜多多(学院南路店),学院南路19号,北京市,北京市,北下关,购物服务;综合市场;农副产品市场,060703,B0G23AB918,购物服务,综合市场,农副产品市场,
116.34281475135327,39.957050470319615,老北京干果店,学院南路27号,北京市,北京市,北下关,购物服务;综合市场;果品市场,060704,B0HDKCEFL2,购物服务,综合市场,果品市场,
116.3429433435281,39.910866123550214,地藏庵便民菜店,二七剧场路东里甲82号,北京市,北京市,复兴门,购物服务;综合市场;蔬菜市场,060705,B0G0BS1L4T,购物服务,综合市场,蔬菜市场,
116.37862712514236,39.89908194736975,和平门菜市场,前门西大街79号,北京市,北京市,,购物服务;综合市场;蔬菜市场,060705,B000A1E868,购物服务,综合市场,蔬菜市场,
116.36742973145644,39.89708157020118,全国棉花交易市场,宣武门外大街甲1号环球财讯中心B座15层,北京市,北京市,宣武门,购物服务;综合市场;综合市场,060700,B0FFGH9T3K,购物服务,综合市场,综合市场,
116.3685456113838,39.90212309709961,天源酱园(宣内大街),宣内大街6号1层,北京市,北京市,,购物服务;综合市场;农副产品市场,060703,B0FFITCXQA,购物服务,综合市场,农副产品市场,
116.36761209361836,39.90016622464433,果栗园(宣武门店),宣武门内大街183号,北京市,北京市,,购物服务;综合市场;果品市场,060704,B0FFHGKXL1,购物服务,综合市场,果品市场,
116.36054711602361,39.89569919944419,国安社区广内街道便民菜店,上斜街与下斜街交叉路口北侧(三庙小区东侧),北京市,北京市,,购物服务;综合市场;蔬菜市场,060705,B0FFIIRJT4,购物服务,综合市场,蔬菜市场,
116.3626302294814,39.8926015959861,一二三惠民菜店,广安门内大街223-7号,北京市,北京市,,购物服务;综合市场;蔬菜市场|购物服务;专卖店;专营店,060705|061200,B0G3SUXIAT,购物服务,综合市场,蔬菜市场|购物服务,专卖店
116.36015316291541,39.90034752289678,建德汇生鲜超市,光彩胡同中段,北京市,北京市,,购物服务;综合市场;农副产品市场,060703,B0G2HMOJ1O,购物服务,综合市场,农副产品市场,
116.37331242290581,39.89799443440112,老羊菜店,椿树街道宣武门东大街12号楼,北京市,北京市,宣武门,购物服务;综合市场;蔬菜市场,060705,B0FFG73932,购物服务,综合市场,蔬菜市场,
116.35688909176777,39.89693026409741,乡巴佬栗子糖葫芦(长春街店),长椿街长西小区门口(近面爱面长椿街店),北京市,北京市,西便门,购物服务;综合市场;果品市场,060704,B000A7BF79,购物服务,综合市场,果品市场,
116.36072085890403,39.895521973663406,上斜街奶站,三庙街与顺河三巷交叉口东50米,北京市,北京市,,购物服务;综合市场;农副产品市场,060703,B000A80NDC,购物服务,综合市场,农副产品市场,
116.3573923744904,39.903589239748584,果多美(闹市口店),闹市口大街9号果多美闹市口店,北京市,北京市,,购物服务;综合市场;果品市场,060704,B0FFIRTI4N,购物服务,综合市场,果品市场,
116.37474327491917,39.90293591579025,绒益安食品店,北新华街3号,北京市,北京市,,购物服务;综合市场;农副产品市场,060703,B0FFFAJ7C6,购物服务,综合市场,农副产品市场,
116.3740954155907,39.89143901527651,常青蔬菜店(西草厂街店),西草厂街与魏染胡同交叉口西北50米,北京市,北京市,,购物服务;综合市场;蔬菜市场,060705,B0FFF5A20E,购物服务,综合市场,蔬菜市场,
116.35689766379981,39.892312463597186,水果超市(长椿街),长椿街长椿里7-1,北京市,北京市,广内大街,购物服务;综合市场;果品市场,060704,B0FFJK6Q6Z,购物服务,综合市场,果品市场,
116.35433517457217,39.90055588737788,丰大农业金融街便民蔬菜店,[],北京市,北京市,复兴门,购物服务;综合市场;蔬菜市场,060705,B0FFHGNQBK,购物服务,综合市场,蔬菜市场,
116.35336941769206,39.888964893810005,报国寺收藏市场,报国寺大街1号,北京市,北京市,广内大街,购物服务;综合市场;综合市场,060700,B000AA0AY1,购物服务,综合市场,综合市场,
116.35311102566045,39.89581897425168,天天鲜肉类超市,广安门内街道槐柏树后街相来家园对面,北京市,北京市,广安门,购物服务;综合市场;农副产品市场,060703,B0FFG4EEKX,购物服务,综合市场,农副产品市场,
116.36318747508467,39.891847918311825,金客隆生鲜超市(广安胡同便利店),老墙根街39号57号金客隆,北京市,北京市,,购物服务;超级市场;超市|购物服务;综合市场;综合市场,060400|060700,B0FFJGRSQU,购物服务,超级市场,超市|购物服务,综合市场
116.3751178829995,39.903013584923286,水果超市·西绒线社区菜市场,"西绒线胡同26号,四川饭店南侧",北京市,北京市,,购物服务;综合市场;蔬菜市场,060705,B000A7ZCIS,购物服务,综合市场,蔬菜市场,
116.37395758336098,39.891270148174804,芳邻亿嘉果蔬中心,西草厂街6号,北京市,北京市,,购物服务;综合市场;果品市场,060704,B0G0RPB1BT,购物服务,综合市场,果品市场,
116.3793916226457,39.89021980278559,福康切面铺,铁树斜街120号,北京市,北京市,大栅栏,购物服务;综合市场;农副产品市场|餐饮服务;餐饮相关场所;餐饮相关,060703|050000,B0FFF75P88,购物服务,综合市场,农副产品市场|餐饮服务,餐饮相关场所
116.37514486313047,39.90295556410451,麦青生鲜(西绒线胡同店),西绒线胡同29号西绒线社区菜市场7号摊位,北京市,北京市,,购物服务;综合市场;农副产品市场,060703,B0G3JK1SLH,购物服务,综合市场,农副产品市场,
116.34833731311083,39.89494564749191,北京二商便民菜店,西便门内大街天宁寺东里东一门,北京市,北京市,广安门,购物服务;综合市场;蔬菜市场,060705,B0FFH16VMU,购物服务,综合市场,蔬菜市场,
116.36635495584349,39.90688037466678,金融市场,华远街,北京市,北京市,,购物服务;综合市场;综合市场,060700,B0FFM9TYHV,购物服务,综合市场,综合市场,
116.367112594333,39.90938338832553,阳澄湖大闸蟹,西单北大街131号西单大悦城F1,北京市,北京市,西单,购物服务;综合市场;水产海鲜市场,060706,B0FFJBN4UU,购物服务,综合市场,水产海鲜市场,
116.37489311727302,39.90296778278914,李小菜(西绒线社区菜市场店),西绒线胡同29号西绒线社区菜市场6号摊位,北京市,北京市,,购物服务;综合市场;果品市场,060704,B0FFL6FMP0,购物服务,综合市场,果品市场,
116.35292270693085,39.90108302801355,胡氏菜车,鲍家街43号中央音乐学院,北京市,北京市,复兴门,购物服务;综合市场;果品市场,060704,B0FFKPLXGO,购物服务,综合市场,果品市场,
116.35311102933704,39.89578997556996,果色飘香百悦水果蔬菜便民店,槐柏树后街21号南院,北京市,北京市,西便门,购物服务;综合市场;蔬菜市场,060705,B0FFHMANA8,购物服务,综合市场,蔬菜市场,
116.35550673089755,39.887442733492485,阳澄湖大闸蟹(广内大街店),广安门内大街208信恒大厦底商,北京市,北京市,广内大街,购物服务;综合市场;水产海鲜市场,060706,B0FFKY80ZJ,购物服务,综合市场,水产海鲜市场,
116.34978663074521,39.90149498115522,邮政惠民·生活驿站,复兴门南大街3号楼1层,北京市,北京市,西便门,购物服务;综合市场;蔬菜市场|生活服务;生活服务场所;生活服务场所,060705|070000,B0FFIXKOUV,购物服务,综合市场,蔬菜市场|生活服务,生活服务场所
116.36303257874654,39.90859736520904,这是店名,石化写字楼一楼010,北京市,北京市,,购物服务;综合市场;果品市场,060704,B0HB6RMFJF,购物服务,综合市场,果品市场,
116.35769414351704,39.8855976340786,洪记牛羊肉店,牛街12号,北京市,北京市,牛街,购物服务;综合市场;农副产品市场,060703,B0FFHG95B5,购物服务,综合市场,农副产品市场,
116.37891535175318,39.88756026832331,干果张,虎坊桥大甲路2号,北京市,北京市,天桥,购物服务;综合市场;果品市场,060704,B0FFIT2H3Y,购物服务,综合市场,果品市场,
116.38310844606015,39.89426126510008,华都肉食店,延寿街128号,北京市,北京市,大栅栏,购物服务;综合市场;农副产品市场,060703,B0FFFLJHX7,购物服务,综合市场,农副产品市场,
116.3574013788268,39.90343323370693,金融街百姓生活服务中心(闹市口大街),闹市口中街33号4-1号,北京市,北京市,,购物服务;综合市场;农副产品市场,060703,B0FFH82YGK,购物服务,综合市场,农副产品市场,
116.3700837574221,39.90920513704188,星光行动扶贫商品明星馆,西单横二条59号西单明珠一层,北京市,北京市,西单,购物服务;综合市场;综合市场,060700,B0G3MU1QN1,购物服务,综合市场,综合市场,
116.35709216219111,39.88573549208942,北京糖炒栗子,牛街5号,北京市,北京市,广内大街,购物服务;综合市场;果品市场,060704,B0G29DNOMM,购物服务,综合市场,果品市场,
116.3830114856815,39.89442631187142,绿源便利店(延寿街),延寿街75号附近,北京市,北京市,大栅栏,购物服务;综合市场;果品市场|购物服务;便民商店/便利店;便民商店/便利店,060704|060200,B0FFFLJHWO,购物服务,综合市场,果品市场|购物服务,便民商店/便利店
116.34705486826016,39.895035776775224,香栗园干果店,槐柏树街北里甲2-5号,北京市,北京市,广安门,购物服务;综合市场;农副产品市场,060703,B0FFKIRDG8,购物服务,综合市场,农副产品市场,
116.37909588914064,39.890020022446166,蔬菜水果五道街(非餐),五道街2号福记缘饭店对面蔬菜水果,北京市,北京市,大栅栏,购物服务;综合市场;果品市场,060704,B0FFL5CT5T,购物服务,综合市场,果品市场,
116.35074401430232,39.89175388329091,山西老陈醋专卖店(广安门店),广义街4号华星大厦,北京市,北京市,广安门,购物服务;综合市场;农副产品市场,060703,B000A7Z8QX,购物服务,综合市场,农副产品市场,
116.36094152580628,39.88749705147559,北京广安菜市口百货商场中心,广安门内大街116号,北京市,北京市,牛街,购物服务;综合市场;综合市场,060700,B0FFIE7FG6,购物服务,综合市场,综合市场,
116.3496489267026,39.90127921408098,百菜宴(复外南大街店),复外南大街3号楼,北京市,北京市,西便门,购物服务;综合市场;蔬菜市场,060705,B0GRAC4R8O,购物服务,综合市场,蔬菜市场,
116.38625229116582,39.897779550073516,果蔬超市,前门西河沿街85号,北京市,北京市,大栅栏,购物服务;综合市场;果品市场,060704,B0FFFQWQ2N,购物服务,综合市场,果品市场,
116.38468168491973,39.8930354929113,菜篮子工程便民菜店,樱桃斜街1号(便民菜店),北京市,北京市,大栅栏,购物服务;综合市场;蔬菜市场,060705,B000AA0PYQ,购物服务,综合市场,蔬菜市场,
116.3831134847241,39.89393327734151,菜篮子工程便民菜店,延寿街138号,北京市,北京市,大栅栏,购物服务;综合市场;蔬菜市场,060705,B0FFK5CH3Q,购物服务,综合市场,蔬菜市场,
116.38300241694745,39.89501029024386,四季水果店,延寿街与茶儿胡同交叉口西50米,北京市,北京市,大栅栏,购物服务;综合市场;果品市场,060704,B0FFKWC0WG,购物服务,综合市场,果品市场,
116.3522696833463,39.887264680679166,进口商品折扣店,广安门内大街甲306号天缘生活广场B1-810,北京市,北京市,广内大街,购物服务;综合市场;综合市场,060700,B0HARM2E6B,购物服务,综合市场,综合市场,
116.36145073638444,39.887341381717434,菜批市场超市,牛街街道广安门内大街116号,北京市,北京市,广内大街,购物服务;综合市场;蔬菜市场,060705,B000AA0Y2B,购物服务,综合市场,蔬菜市场,
116.34311615343441,39.90161022613547,粮食调料,真武庙六里与真武庙路四条交叉口东50米,北京市,北京市,复兴门,购物服务;综合市场;农副产品市场,060703,B0FFH13OI7,购物服务,综合市场,农副产品市场,
116.34823761014597,39.89416584797931,逗逗水果屋,槐柏树街南里,北京市,北京市,广安门,购物服务;综合市场;农副产品市场,060703,B0FFM4XM6F,购物服务,综合市场,农副产品市场,
116.34695957378001,39.89887276225606,水果蔬菜,西便门内大街18号附近,北京市,北京市,复兴门,购物服务;综合市场;蔬菜市场,060705,B0HGFN4DHZ,购物服务,综合市场,蔬菜市场,
116.34623621168102,39.905405690832445,果多美(中化大厦店),真武庙头条1-2号1-2,北京市,北京市,西便门,购物服务;综合市场;果品市场,060704,B0HBB75LHE,购物服务,综合市场,果品市场,
116.38359046194836,39.89182611290906,生鲜菜,陕西巷2号附近,北京市,北京市,大栅栏,购物服务;综合市场;农副产品市场,060703,B0FFJKWZF8,购物服务,综合市场,农副产品市场,
116.38838973314685,39.88750720017029,东北食品(留学路店),留学路43号(丰泽园南侧),北京市,北京市,珠市口,购物服务;综合市场;果品市场,060704,B0FFF5DCX4,购物服务,综合市场,果品市场,
116.34600056890146,39.9063770475427,薛记炒货,月坛街道复兴门外大街甲3号,北京市,北京市,三里河,购物服务;综合市场;果品市场,060704,B0HATSX6UK,购物服务,综合市场,果品市场,
116.34288762834923,39.90165962370464,杨玉华水果店,真武庙六里6号,北京市,北京市,复兴门,购物服务;综合市场;果品市场,060704,B0FFIIYBOX,购物服务,综合市场,果品市场,
116.3884988350005,39.89425784876716,美味斋酱菜(大栅栏店),大栅栏商业街42号,北京市,北京市,珠市口,购物服务;综合市场;农副产品市场,060703,B0GK15X7T7,购物服务,综合市场,农副产品市场,
116.38798407191196,39.88599541384806,淼鑫鑫水果店,仁民路5号附近,北京市,北京市,珠市口,购物服务;综合市场;果品市场,060704,B0FFFLJHRZ,购物服务,综合市场,果品市场,
116.38800398337564,39.886632376390715,新世纪豆业,天桥香厂路5号,北京市,北京市,珠市口,购物服务;综合市场;农副产品市场,060703,B0FFFLJG2L,购物服务,综合市场,农副产品市场,
116.3884946391826,39.887959143243165,永顺切面店,留学路48号,北京市,北京市,珠市口,购物服务;综合市场;农副产品市场,060703,B0FFF77XT8,购物服务,综合市场,农副产品市场,
116.38810297250636,39.88643235074081,豫强果园,留学路与香厂路交叉口南50米,北京市,北京市,天桥,购物服务;综合市场;果品市场,060704,B0FFJLRN3U,购物服务,综合市场,果品市场,
116.38698236153077,39.88684575309816,华汇裕调料配送店,香厂路27号附近,北京市,北京市,珠市口,购物服务;综合市场;农副产品市场,060703,B0FFF5A15X,购物服务,综合市场,农副产品市场,
116.38680904210129,39.897780316959434,金麦吉祥便民果蔬店(前门西河沿街),前门西河沿街115号附近,北京市,北京市,大栅栏,购物服务;综合市场;果品市场|购物服务;综合市场;蔬菜市场,060704|060705,B0FFH13VSN,购物服务,综合市场,果品市场|购物服务,综合市场
116.3879270113624,39.88663740377922,贵恒达蔬菜店,香厂路7号,北京市,北京市,天桥,购物服务;综合市场;蔬菜市场,060705,B0FFFLJG28,购物服务,综合市场,蔬菜市场,
