lon,lat,name,address,pname,cityname,business_area,type,typecode,id,type1,type2,type3,type4
116.13491801136598,40.136612578285565,美乐电器,阳坊镇西贯市大街256号,北京市,北京市,阳坊村,购物服务;家电电子卖场;综合家电商场,060301,B0FFL9K4JI,购物服务,家电电子卖场,综合家电商场,
116.13572754603953,40.139792490406336,海尔专卖店(昌平阳坊店),阳坊镇阳坊村西大街22号农行对面,北京市,北京市,阳坊,购物服务;家电电子卖场;综合家电商场,060301,B0FFFAD8EJ,购物服务,家电电子卖场,综合家电商场,
116.13848956663278,40.13782297721473,新世纪商城中和超市阳坊,商业街路北临45号,北京市,北京市,阳坊,购物服务;商场;普通商场,060102,B0FFIQ1HG6,购物服务,商场,普通商场,
116.13162443460689,40.10450257856575,YUKI进口商品生活馆(同泽园店),同泽园西里1号楼1层正西方向5米,北京市,北京市,,购物服务;商场;免税品店,060103,B0FFKGBPHL,购物服务,商场,免税品店,
116.12741884970883,39.934775452216705,海尔专卖店,高井路29号院2号楼一号底商,北京市,北京市,广宁,购物服务;家电电子卖场;综合家电商场|生活服务;维修站点;维修站点,060301|071200,B000A8XMJR,购物服务,家电电子卖场,综合家电商场|生活服务,维修站点
116.09312339801534,39.94257942488149,大中电器(门头沟店),河滩路1号石龙大厦1-3层,北京市,北京市,门头沟,购物服务;家电电子卖场;大中|购物服务;家电电子卖场;综合家电商场,060303|060301,B000A8439V,购物服务,家电电子卖场,大中|购物服务,家电电子卖场
116.09463576223793,39.938526698746806,国泰百货(门头沟店),新桥大街57号(门头沟区政府对面),北京市,北京市,门头沟,购物服务;商场;普通商场,060102,B0FFF4NXXD,购物服务,商场,普通商场,
116.10715804702262,39.934091509611086,天盛生活广场,大峪街道双峪路熙旺中心大厦b座,北京市,北京市,门头沟,购物服务;商场;普通商场,060102,B0FFM3FZDR,购物服务,商场,普通商场,
116.1069988316638,39.934211406034215,永兴奥特莱斯购物广场,双峪路35号熙旺中心大厦5层,北京市,北京市,永定,购物服务;商场;普通商场,060102,B0FFFRHL17,购物服务,商场,普通商场,
116.09440163399258,39.94622937108444,雨润发购物广场,城子大街56号,北京市,北京市,门头沟,购物服务;商场;普通商场,060102,B000A87A4J,购物服务,商场,普通商场,
116.09813551300635,39.936064436082994,京力港商城,新桥大街84-2号,北京市,北京市,门头沟,购物服务;商场;普通商场,060102,B0FFFAELRP,购物服务,商场,普通商场,
116.10686849946057,39.91211422960912,永兴嘉园商城,石担路永兴小区15号楼,北京市,北京市,永定,购物服务;商场;普通商场,060102,B0FFFACYMA,购物服务,商场,普通商场,
116.10404346205509,39.909936749659906,多点商城,永定镇冯村冯石环线PLUS365购物中心一层物美超市里面,北京市,北京市,永定,购物服务;商场;商场,060100,B0FFGY79VI,购物服务,商场,商场,
116.11715388419613,39.90395886252643,北京长安天街,新城大街与金安路交叉口,北京市,北京市,永定,购物服务;商场;购物中心,060101,B0FFIPZTQU,购物服务,商场,购物中心,
116.10389635366927,39.90952169418698,Plus365购物中心(门头沟店),北京市门头沟区西北环线(润西山别墅区对面),北京市,北京市,门头沟,购物服务;商场;购物中心,060101,B0FFFACYHM,购物服务,商场,购物中心,
116.10239173522432,39.89414267309651,欢乐大都汇,[],北京市,北京市,永定,购物服务;商场;普通商场,060102,B0GUR9OMAM,购物服务,商场,普通商场,
116.1756645295256,40.09140265726337,CMB广场,苏家坨镇稻香湖路28号稻香·湖景酒店北区-7号楼,北京市,北京市,,购物服务;商场;普通商场,060102,B0FFLHSKVX,购物服务,商场,普通商场,
116.18406594559298,40.03890290573751,天兰商场,温泉路59号,北京市,北京市,,购物服务;商场;普通商场,060102,B0FFKVK43X,购物服务,商场,普通商场,
116.16558667895916,39.9216851138771,喜隆多新国际购物中心,金顶街街道阜石路300号,北京市,北京市,石景山,购物服务;商场;购物中心,060101,B000A87APX,购物服务,商场,购物中心,
116.18992042761252,39.92436367888989,当代商城(鼎城店)(装修中),阜石路165号,北京市,北京市,石景山,购物服务;商场;购物中心,060101,B000A87C6F,购物服务,商场,购物中心,
116.15614110536457,39.921650574943136,金安环宇荟购物中心(装修中),阜石路与北辛安路交叉口,北京市,北京市,石景山,购物服务;商场;购物中心,060101,B0GDSHS2FJ,购物服务,商场,购物中心,
116.1623899242694,39.92743891027952,北京2022官方特许商品零售店(金顶街店),金顶街邮政支局,北京市,北京市,金顶街,购物服务;商场;商场,060100,B0HBPRC5UR,购物服务,商场,商场,
116.15265220933162,39.93136883670564,小家电,模式口南里小区6号楼东侧底商二楼小家电,北京市,北京市,,购物服务;家电电子卖场;综合家电商场,060301,B0HBMYKJDF,购物服务,家电电子卖场,综合家电商场,
116.1854788353262,39.91006678845975,七月泽豪商场(装修中),古城南路11-2号,北京市,北京市,古城,购物服务;商场;普通商场,060102,B0FFIBOBNS,购物服务,商场,普通商场,
116.16658345438579,39.92199896392032,PERFECT DIARY,喜隆多购物广场,北京市,北京市,石景山,购物服务;商场;免税品店,060103,B0GKHU0EE6,购物服务,商场,免税品店,
116.19106263383497,39.92953334013907,天宇市场,苹果园南路东口11号,北京市,北京市,石景山,购物服务;商场;普通商场,060102,B0FFIS6NCX,购物服务,商场,普通商场,
116.18437897910034,39.90985289676204,萬荟MART,古城南路21号1层8号,北京市,北京市,石景山,购物服务;商场;商场,060100,B0GK05A9XZ,购物服务,商场,商场,
116.18462504167927,39.90653446569439,星座大厦,石景山路45号,北京市,北京市,石景山,购物服务;商场;普通商场|商务住宅;楼宇;商务写字楼,060102|120201,B000A7BVBW,购物服务,商场,普通商场|商务住宅,楼宇
116.18332424706269,39.909417076581114,华荣商场,古城南路48号,北京市,北京市,石景山,购物服务;商场;普通商场,060102,B0G1HDJHPA,购物服务,商场,普通商场,
116.21182272838811,40.1120667201029,志军电器,世纪华联超市(皂甲屯店),北京市,北京市,,购物服务;家电电子卖场;综合家电商场,060301,B0FFH5SLYV,购物服务,家电电子卖场,综合家电商场,
116.24205199556582,40.07442560697407,壹号商业广场,北清路,北京市,北京市,西北旺,购物服务;商场;商场,060100,B0G3XDE7J9,购物服务,商场,商场,
116.23114107791973,40.06517641551014,数法金服,永腾南路与丰滢中路交叉路口往北约100米,北京市,北京市,西北旺,购物服务;商场;免税品店,060103,B0GKVK26UU,购物服务,商场,免税品店,
116.21508727594947,40.03300031003351,家电维修,西北旺镇泉北公寓家电技术服务,北京市,北京市,西北旺,购物服务;家电电子卖场;综合家电商场,060301,B0HGRYNEPC,购物服务,家电电子卖场,综合家电商场,
116.19383518088517,40.011277465779635,青春力量,香山卧佛寺路北京植物园内,北京市,北京市,香山,购物服务;商场;免税品店,060103,B0FFI6SCJQ,购物服务,商场,免税品店,
116.24211056686903,39.9658558985273,开明商城,四季青闵庄南路天香颐北里19号楼,北京市,北京市,,购物服务;商场;普通商场,060102,B0HG6LE9F8,购物服务,商场,普通商场,
116.20142316108564,39.9190835051602,京成商厦,八角东路12号京成城市广场,北京市,北京市,石景山,购物服务;商场;购物中心,060101,B0FFG8SFJX,购物服务,商场,购物中心,
116.22240518155556,39.929203193916806,柏盛竹木,锦绣大地物流港,北京市,北京市,,购物服务;商场;商场,060100,B0GRGKMVRF,购物服务,商场,商场,
116.2097525018388,39.931645740206875,BYD(北京鹏天奥),田村廖公庄,北京市,北京市,,购物服务;商场;商场,060100,B0FFJ1RS7W,购物服务,商场,商场,
116.20124483036794,39.942650308000665,广运兴程海尔专卖店,香山南路164附近,北京市,北京市,香山,购物服务;家电电子卖场;综合家电商场,060301,B0FFHTNQ7E,购物服务,家电电子卖场,综合家电商场,
116.19346049153638,39.9217215031322,Haier集成吊顶,居然之家(八角店)2-A,北京市,北京市,石景山,购物服务;家电电子卖场;综合家电商场,060301,B0H6CYW3VE,购物服务,家电电子卖场,综合家电商场,
116.19432684445925,39.919590952333564,全球优品代购,阜石路166号泽洋大厦601室,北京市,北京市,石景山,购物服务;商场;免税品店,060103,B000A840P6,购物服务,商场,免税品店,
116.21971643222442,39.905094010920116,万达广场(北京石景山店),石景山路乙18号院,北京市,北京市,石景山,购物服务;商场;购物中心,060101,B000ABBXKM,购物服务,商场,购物中心,
116.21382409831484,39.905148372823525,华联商厦(石景山店)(装修中),石景山路22号,北京市,北京市,石景山,购物服务;商场;购物中心,060101,B000A8UMEV,购物服务,商场,购物中心,
116.22589005203598,39.89293321286934,永辉广场,鲁谷东街84号附近,北京市,北京市,石景山,购物服务;商场;普通商场,060102,B0FFIL2ZAQ,购物服务,商场,普通商场,
116.21365406183261,39.903101283103595,泰禾新天地,银河大街106-20号,北京市,北京市,石景山,购物服务;商场;购物中心,060101,B0FFLCKPB4,购物服务,商场,购物中心,
116.2255842189906,39.88868821020135,创意商城,鲁谷大街53号,北京市,北京市,石景山,购物服务;商场;普通商场,060102,B0FFLHNC5Z,购物服务,商场,普通商场,
116.23046677294141,39.902080388567505,玉泉电器,八宝山街道鲁谷路东街8号三层,北京市,北京市,石景山,购物服务;家电电子卖场;综合家电商场,060301,B000A7ORZ8,购物服务,家电电子卖场,综合家电商场,
116.2139645740178,39.903250602943714,日日顺电器,银河大街106号,北京市,北京市,石景山,购物服务;家电电子卖场;综合家电商场,060301,B0G0DCBLVI,购物服务,家电电子卖场,综合家电商场,
116.21382108620173,39.90520436722422,毛戈平华联商厦(暂停营业),二七路230号,北京市,北京市,石景山,购物服务;商场;商场,060100,B0FFJ7NCCD,购物服务,商场,商场,
116.2306551239599,39.90874118884187,郎园Park,上庄大街18号附近,北京市,北京市,石景山,购物服务;商场;普通商场,060102,B0FFICU4LH,购物服务,商场,普通商场,
116.26188412095432,40.125615224800626,新世纪商城(朝宗桥商场),沙河镇巩华大街76号西北方向151米一层出入口,北京市,北京市,沙河,购物服务;商场;普通商场,060102,B0G2U95AGG,购物服务,商场,普通商场,
116.28190487654082,40.149134401109514,隆兴购物广场,南丰路与百沙路交汇处,北京市,北京市,沙河,购物服务;商场;购物中心,060101,B0FFGEOL20,购物服务,商场,购物中心,
116.2905371349397,40.1463982135893,minigood时尚百货,于新庄路(北京市昌平职业学校西南侧),北京市,北京市,沙河,购物服务;商场;商场,060100,B0GKHS0G4W,购物服务,商场,商场,
116.28741109936207,40.14189041175879,缤纷汇生活广场,于辛庄路赋腾国际创客中心A座,北京市,北京市,沙河,购物服务;商场;商场,060100,B0G0A7WUDN,购物服务,商场,商场,
116.28907674828422,40.14597449825204,北京世纪百汇商贸中心,沙河于新庄线难50米,北京市,北京市,沙河,购物服务;商场;普通商场,060102,B0FFGBC69A,购物服务,商场,普通商场,
116.29050519290585,40.14638826415996,永强电器(于新庄线),于新庄路(北京市昌平职业学校南侧),北京市,北京市,沙河,购物服务;家电电子卖场;综合家电商场,060301,B0FFG43MUJ,购物服务,家电电子卖场,综合家电商场,
116.28347033429603,40.095037130099556,永旺国际商城购物中心,北清路1号楼1号院,北京市,北京市,回龙观,购物服务;商场;购物中心,060101,B000A856YA,购物服务,商场,购物中心,
116.28239668835214,40.0972064276642,珠江·摩尔时尚谷,京藏高速公路珠江摩尔国际大厦6号楼,北京市,北京市,回龙观,购物服务;商场;普通商场,060102,B0FFGJ4HSL,购物服务,商场,普通商场,
116.2673276030584,40.065706463568496,唐家岭奥特莱斯,西北旺镇友谊路115号院1号楼,北京市,北京市,西北旺,购物服务;商场;购物中心,060101,B0HB6SLWIB,购物服务,商场,购物中心,
116.28281009309754,40.096997884765656,迷你奥莱,史各庄街道永旺珠江摩尔6号楼,北京市,北京市,回龙观,购物服务;商场;普通商场,060102,B0FFIAOWFY,购物服务,商场,普通商场,
116.28318060568054,40.09640242501315,BEIJING AEON SHOPPING CENTER,[],北京市,北京市,回龙观,购物服务;商场;普通商场,060102,B0FFLHNE39,购物服务,商场,普通商场,
116.28348825001896,40.095488071776565,kk进口品集合(北京昌平永旺店铺),北清路永旺梦乐城2F238B店铺,北京市,北京市,回龙观,购物服务;商场;免税品店,060103,B0FFL79TCG,购物服务,商场,免税品店,
116.24379777771836,40.0647882409869,海淀社区商业中心,丰智东路,北京市,北京市,西北旺,购物服务;商场;普通商场,060102,B0GRPOO88E,购物服务,商场,普通商场,
116.24675640300468,40.072782524499644,CCAP,丰豪东路1号西90米,北京市,北京市,西北旺,购物服务;商场;免税品店,060103,B0HB399JOA,购物服务,商场,免税品店,
116.27077810548995,40.027708313369835,中发百旺商城,圆明园西路18号,北京市,北京市,西北旺,购物服务;商场;普通商场,060102,B0FFFV52S6,购物服务,商场,普通商场,
116.26060581339321,40.03824813673219,LANDZ,永丰路德惠路1号院底商14号楼1层,北京市,北京市,西北旺,购物服务;商场;免税品店,060103,B0FFFYL0LS,购物服务,商场,免税品店,
116.25372224122096,40.047917186196585,西北旺万象汇,德政路(冠城大通),北京市,北京市,西北旺,购物服务;商场;商场,060100,B0HBO6GWU7,购物服务,商场,商场,
116.28253917764192,40.0359270597354,goodview体验中心,东北旺西路58号尚科办公社区A楼1F-1028,北京市,北京市,西北旺,购物服务;商场;免税品店,060103,B0FFLKM1B0,购物服务,商场,免税品店,
116.28292986910078,40.041661231333975,Hi-FlVE,东北旺路与软件园三号路交叉路口往西约150米,北京市,北京市,西北旺,购物服务;商场;免税品店,060103,B0HB3M6DYF,购物服务,商场,免税品店,
116.27393607497875,40.04838593892272,CREAT,软件园西一路与软件园北街交叉路口往西北约50米,北京市,北京市,西北旺,购物服务;商场;免税品店,060103,B0FFLHZKJ8,购物服务,商场,免税品店,
116.28295429326708,40.04595196762885,Bll lowera,东北旺西路8号院,北京市,北京市,西北旺,购物服务;商场;免税品店,060103,B0FFK94JP6,购物服务,商场,免税品店,
116.28828057965885,40.02320750914718,happinessmar,农大南路43号,北京市,北京市,上地,购物服务;商场;免税品店,060103,B0FFI0H66M,购物服务,商场,免税品店,
116.28915652940462,39.97180640961286,BHG Mall北京华联万柳购物中心,巴沟路2号,北京市,北京市,万柳,购物服务;商场;购物中心,060101,B0FFFAI76D,购物服务,商场,购物中心,
116.28439826542909,39.996568335855194,龙湖星悦荟,颐和园路208号,北京市,北京市,西苑,购物服务;商场;普通商场,060102,B0FFHR72JX,购物服务,商场,普通商场,
116.24549039687204,39.974993478926564,玉泉商业广场,北坞嘉园东小街北坞嘉园南里35号楼,北京市,北京市,,购物服务;商场;普通商场,060102,B0FFIYK0YB,购物服务,商场,普通商场,
116.29077842189984,39.98986017954394,万泉河商城,万柳镇新建宫门路1号麦德龙,北京市,北京市,西苑,购物服务;商场;普通商场,060102,B0HG6RFIKW,购物服务,商场,普通商场,
116.2914345484206,39.96355721973663,First Leap,万柳中路,北京市,北京市,万柳,购物服务;商场;免税品店,060103,B0FFMGUQX3,购物服务,商场,免税品店,
116.26552641803364,39.94303664467439,金四季购物中心,西四环北路117号,北京市,北京市,四季青,购物服务;商场;购物中心,060101,B000A7HZFM,购物服务,商场,购物中心,
116.2822404687279,39.95735788588165,世纪金源购物中心,远大路1号,北京市,北京市,世纪城,购物服务;商场;购物中心,060101,B000A83JJ1,购物服务,商场,购物中心,
116.28223047831723,39.95739989761462,金源新燕莎Mall,远大路1号金源购物中心中区B1、5层,北京市,北京市,世纪城,购物服务;商场;购物中心,060101,B000A80CIU,购物服务,商场,购物中心,
116.27316156362075,39.9315788863385,五路居地下菜市场,北京市 海淀区 北京市海淀区四季青乡五路居地铁站便民商业街,北京市,北京市,四季青,购物服务;商场;普通商场,060102,B0FFMGMK4P,购物服务,商场,普通商场,
116.24786637746078,39.92962797948268,京粮广场,田村路43号,北京市,北京市,,购物服务;商场;购物中心,060101,B000A9PREQ,购物服务,商场,购物中心,
116.26653403683834,39.93958894156918,YADE DENTAL,通汇路123号附近,北京市,北京市,四季青,购物服务;商场;免税品店,060103,B0G2T18FKJ,购物服务,商场,免税品店,
116.27106525841145,39.92806420229231,辰颐物语(八里庄实体店),八里庄路63号院2号楼底商,北京市,北京市,,购物服务;商场;免税品店,060103,B0HBPYCXTV,购物服务,商场,免税品店,
116.2862571884798,39.95750627795186,燕莎友谊商城东广场,远大路1号,北京市,北京市,世纪城,购物服务;商场;购物中心,060101,B0FFIVNIBN,购物服务,商场,购物中心,
116.27264838283979,39.9215588411506,定慧桥商场,阜城路68号集美家居城,北京市,北京市,五棵松,购物服务;商场;普通商场,060102,B0FFIFZVHR,购物服务,商场,普通商场,
116.27438353309203,39.912557342470215,五棵松购物中心C座,[],北京市,北京市,五棵松,购物服务;商场;普通商场,060102,B0G0B72TYQ,购物服务,商场,普通商场,
116.25888646874974,39.919734232126714,鲜乐安民永定路生活广场,永定路24号院,北京市,北京市,,购物服务;商场;商场,060100,B0HA2CSCTE,购物服务,商场,商场,
116.27259682991212,39.950498731662236,嘉禾四季汇商场,昆明湖南路51号下沉广场,北京市,北京市,四季青,购物服务;商场;普通商场,060102,B0FFLOCKT2,购物服务,商场,普通商场,
116.27027315822683,39.91926034885186,奥巴(北京)旗舰店(正远光大),五棵松摄影城特10号奥林巴斯旗舰店新厅1号,北京市,北京市,五棵松,购物服务;家电电子卖场;综合家电商场,060301,B0H69YIREW,购物服务,家电电子卖场,综合家电商场,
116.24955901520615,39.92502382424483,酒酷空间商业中心,玉泉路2号,北京市,北京市,,购物服务;商场;商场,060100,B0G33YTR1P,购物服务,商场,商场,
116.2705878717995,39.910998388770885,五棵松998,复兴路69号,北京市,北京市,五棵松,购物服务;商场;购物中心,060101,B0FFGJET3K,购物服务,商场,购物中心,
116.27056888958312,39.91100940703039,五棵松购物中心-南区,玉渊潭南路,北京市,北京市,五棵松,购物服务;商场;商场,060100,B0HB379PU7,购物服务,商场,商场,
116.2850381652385,39.95738102794938,OGAWA奥佳华(金源燕莎店),远大路1号金源时代购物中心贵友1层,北京市,北京市,世纪城,购物服务;家电电子卖场;综合家电商场,060301,B0FFGDUPX2,购物服务,家电电子卖场,综合家电商场,
116.28188899117951,39.957338356208325,TIGER(金源新燕莎MALL店),远大路1号金源燕莎购物中心三层3091,北京市,北京市,世纪城,购物服务;家电电子卖场;综合家电商场,060301,B0FFILFQL7,购物服务,家电电子卖场,综合家电商场,
116.2849852276869,39.95755309605663,荣泰(金源燕莎店),远大路1号燕莎友谊商城B1,北京市,北京市,世纪城,购物服务;家电电子卖场;综合家电商场|购物服务;专卖店;专营店,060301|061200,B0FFJ5J640,购物服务,家电电子卖场,综合家电商场|购物服务,专卖店
116.2862032507912,39.95771034789755,北京咖啡机咖啡豆专卖,远大路1号金源茶城T17,北京市,北京市,世纪城,购物服务;家电电子卖场;综合家电商场,060301,B0GUXY7GSA,购物服务,家电电子卖场,综合家电商场,
116.25696666557066,39.9165814111298,康宏逸团购,金沟河路15号院附近,北京市,北京市,,购物服务;商场;免税品店,060103,B0G3A7HDMV,购物服务,商场,免税品店,
116.28079958775484,39.95722379425307,派高雁专柜,远大路东口金源贵友1层,北京市,北京市,世纪城,购物服务;商场;免税品店,060103,B0FFGBPPNZ,购物服务,商场,免税品店,
116.28098116437242,39.95852550617718,fhsbmAD,海淀南路rado购物中心肆0090贰057零34号,北京市,北京市,世纪城,购物服务;商场;免税品店,060103,B0G2NC4YI0,购物服务,商场,免税品店,
116.27494450494876,39.899425289196415,上品折扣(五棵松店),西翠路5号,北京市,北京市,,购物服务;商场;普通商场,060102,B000A8425Y,购物服务,商场,普通商场,
116.29134677037277,39.90714765218652,凯德晶品购物中心,复兴路51号,北京市,北京市,公主坟,购物服务;商场;购物中心,060101,B000A8VS2Y,购物服务,商场,购物中心,
116.24571409086887,39.889330998280556,久隆百货(青塔店)(暂停营业),小屯路兆丰园3区1号楼1-3层,北京市,北京市,石景山,购物服务;商场;普通商场,060102,B000A87QZF,购物服务,商场,普通商场,
116.25923834342068,39.8872194620385,翠微百货(大成路店),大成路8号,北京市,北京市,青塔,购物服务;商场;普通商场,060102,B000A8W57P,购物服务,商场,普通商场,
116.27686012788021,39.899504071545394,今日商业中心,西翠路5号,北京市,北京市,,购物服务;商场;普通商场,060102,B000AA16SN,购物服务,商场,普通商场,
116.24629685563798,39.90010544802282,远洋时代广场,玉泉路63号,北京市,北京市,石景山,购物服务;商场;购物中心,060101,B0FFGYZYFP,购物服务,商场,购物中心,
116.2776541514696,39.899113138670536,北京陶朱商贸中心,西翠路5号今日家园6号楼1层,北京市,北京市,,购物服务;商场;商场,060100,B0FFHPDFYG,购物服务,商场,商场,
116.25918627979777,39.904028726680664,西点茂MALL,永定路88号,北京市,北京市,,购物服务;商场;购物中心,060101,B0FFHVOP8D,购物服务,商场,购物中心,
116.27701390792235,39.899691880534554,创维电视(苏宁易购西翠路店),西翠路5号今日家园底商,北京市,北京市,,购物服务;家电电子卖场;综合家电商场,060301,B0FFHUAHDW,购物服务,家电电子卖场,综合家电商场,
116.25897039426215,39.90393285771366,西点百货美食广场,五棵松玉渊谭南路,北京市,北京市,,购物服务;商场;普通商场,060102,B0FFM5HRCV,购物服务,商场,普通商场,
116.27356792073225,39.9089863895813,华熙LIVE·五棵松hi·up,复兴路69号华熙LIVE 1层西侧园林处,北京市,北京市,五棵松,购物服务;商场;购物中心,060101,B0FFHWHXXF,购物服务,商场,购物中心,
116.27661277143946,39.888833853978745,千禧购物中心,靛厂路11号附近,北京市,北京市,郑常庄村,购物服务;商场;购物中心,060101,B000AA1BWB,购物服务,商场,购物中心,
116.27307847687749,39.90895391735514,LIVE HI-UP广场,西翠路与玉渊潭南路交叉口南200米,北京市,北京市,五棵松,购物服务;商场;商场,060100,B0FFLI99BR,购物服务,商场,商场,
116.24985254519936,39.8885283448503,天泰商场手机店,卢沟桥街道大成路天泰大厦23号天泰商城,北京市,北京市,青塔,购物服务;商场;普通商场,060102,B0FFHSZ0UI,购物服务,商场,普通商场,
116.27751063154479,39.88873778911047,千禧商业街B座,靛厂路千禧购物中心,北京市,北京市,郑常庄村,购物服务;商场;普通商场,060102,B0FFH13C0S,购物服务,商场,普通商场,
116.24644792587833,39.89973044757965,骏毅潮社,玉泉路南63号院,北京市,北京市,石景山,购物服务;商场;商场,060100,B0GKSBCUMJ,购物服务,商场,商场,
116.24372582377615,39.88763417947756,贺子的店铺,吴家村路2号院,北京市,北京市,,购物服务;商场;免税品店,060103,B0FFL9Z407,购物服务,商场,免税品店,
116.31586564085465,40.13750832340632,园林圣懋m,河堤路(园林圣懋),北京市,北京市,,购物服务;商场;商场,060100,B0G2X7LPAZ,购物服务,商场,商场,
116.31380633840409,40.08221982527144,庄盛奥特莱斯(装修中),回龙观三合庄园9号楼北侧(近回龙观小区),北京市,北京市,回龙观,购物服务;商场;普通商场,060102,B000A7X3XA,购物服务,商场,普通商场,
116.32903095055472,40.077806945586744,上品折扣(回龙观店),回龙观西大街龙冠商务中心B座1-4层,北京市,北京市,回龙观,购物服务;商场;普通商场,060102,B0FFF00WDC,购物服务,商场,普通商场,
116.32997463504748,40.07903106901396,北店时代广场,回龙观西大街19号,北京市,北京市,回龙观,购物服务;商场;购物中心,060101,B000A8UFWJ,购物服务,商场,购物中心,
116.31330934750326,40.07522223708347,BHG Mall北京华联回龙观购物中心,回龙观西大街,北京市,北京市,回龙观,购物服务;商场;购物中心,060101,B000A7WROU,购物服务,商场,购物中心,
116.3241004480569,40.07662446651765,港龙商业中心1段,回龙观西大街18号港龙商业中心,北京市,北京市,回龙观,购物服务;商场;购物中心,060101,B0FFHOKZ4Z,购物服务,商场,购物中心,
116.32618754876974,40.0773074136863,港龙商业中心2段,回龙观西大街18号港龙商业中心,北京市,北京市,回龙观,购物服务;商场;购物中心,060101,B0FFHOKZ50,购物服务,商场,购物中心,
116.3313685031543,40.07081396668221,BHG Mall北京华联同成街购物中心,育知东路30号院5号楼华联商场B1层,北京市,北京市,回龙观,购物服务;商场;购物中心,060101,B0FFG1L4VR,购物服务,商场,购物中心,
116.34035351280107,40.07869187452581,乐物汇新商业孵化平台,回龙观街道回龙观东大街回龙观创客广场B座,北京市,北京市,回龙观,购物服务;商场;普通商场,060102,B0FFJGM8CH,购物服务,商场,普通商场,
116.34098979395576,40.06575257072976,龙旗购物中心,黄平路19号院,北京市,北京市,西三旗,购物服务;商场;购物中心,060101,B000A8XIDX,购物服务,商场,购物中心,
116.33068601432615,40.0790047216633,创维电视,东小口镇东三区2号楼苏宁易购2层,北京市,北京市,回龙观,购物服务;家电电子卖场;综合家电商场,060301,B0FFJOYB3Z,购物服务,家电电子卖场,综合家电商场,
116.33678626758321,40.086949777963795,禧乐汇,文华路89号院1,北京市,北京市,回龙观,购物服务;商场;购物中心,060101,B0FFFZDN3B,购物服务,商场,购物中心,
116.33630477944767,40.05995141667471,三旗百汇商品城二号厅,西三旗太平庄北街与文博路交汇处南三旗百汇商品城,北京市,北京市,西三旗,购物服务;商场;普通商场|购物服务;商场;购物中心,060102|060101,B0FFHOL3V8,购物服务,商场,普通商场|购物服务,商场
116.30972066695013,40.064936638931016,昌发展·万科广场,龙域中街1号,北京市,北京市,回龙观,购物服务;商场;购物中心,060101,B0FFJCSPT1,购物服务,商场,购物中心,
116.33720263295616,40.06118569327834,百汇购物中心,西三旗太平庄北街与文博路交汇处南,北京市,北京市,西三旗,购物服务;商场;普通商场,060102,B0FFI1XKZJ,购物服务,商场,普通商场,
116.33523303889989,40.06096233759766,三旗百汇商品城三号厅,西三旗太平庄北街与文博路交汇处南三旗百汇商品城,北京市,北京市,回龙观,购物服务;商场;普通商场,060102,B0FFH14XLK,购物服务,商场,普通商场,
116.34240780583367,40.06543908020551,艾兰慕德,回龙观街道龙旗广场D座,北京市,北京市,西三旗,购物服务;商场;免税品店,060103,B0FFLPACA6,购物服务,商场,免税品店,
116.30569220611407,40.02728612915383,BHG Mall北京华联上地购物中心,农大南路1号院1号楼B1-4层,北京市,北京市,上地,购物服务;商场;购物中心,060101,B000A819SN,购物服务,商场,购物中心,
116.32827091870188,40.02885220356417,北京清河万象汇,清河中街68号,北京市,北京市,清河,购物服务;商场;购物中心,060101,B0H6TD635N,购物服务,商场,购物中心,
116.33815954104341,40.029676663163286,清河百货商场,清河三街98号,北京市,北京市,清河,购物服务;商场;普通商场,060102,B000A7LJ5F,购物服务,商场,普通商场,
116.32076705225249,40.03000555220943,清河街道社区商业中心,五彩城朱房路,北京市,北京市,清河,购物服务;商场;普通商场,060102,B0FFKF2IKX,购物服务,商场,普通商场,
116.30853047561982,40.039731282228125,冬奥特许商品经营店,清河站西南,北京市,北京市,,购物服务;商场;免税品店,060103,B0GRAC5EBG,购物服务,商场,免税品店,
116.32653132575554,40.041370889156276,清河商业城,安宁庄东路18号,北京市,北京市,清河,购物服务;商场;普通商场,060102,B000A9HF89,购物服务,商场,普通商场,
116.3077127201226,40.051943129013196,西二旗益民商城,西二旗中路与西二旗大街交叉口西南150米,北京市,北京市,西二旗,购物服务;商场;普通商场,060102,B000A9I3WW,购物服务,商场,普通商场,
116.30698122569733,40.03678929386888,虚实空间,创业中路32号中关村虚拟现实文化产业园3层303,北京市,北京市,上地,购物服务;商场;免税品店,060103,B0FFI9EZWQ,购物服务,商场,免税品店,
116.33440194926075,40.037021213933976,海淀社区商业e中心,[],北京市,北京市,清河,购物服务;商场;普通商场,060102,B0G0P7EGEZ,购物服务,商场,普通商场,
116.33098852044253,40.04604714530337,通厦·公元99商业中心,悦秀路99(通厦·公元99),北京市,北京市,西三旗,购物服务;商场;商场,060100,B0FFL8WTV9,购物服务,商场,商场,
116.32819405347682,40.0291793340766,Pay in Paw(北京清河万象汇东区),清河中街68号北京清河万象汇东区L4层,北京市,北京市,清河,购物服务;商场;免税品店,060103,B0HBR63Q1C,购物服务,商场,免税品店,
116.33549764369428,40.059425938752376,三旗百汇商品城一号厅,建材城西路与育新花园西路交叉口西北150米,北京市,北京市,西三旗,购物服务;商场;普通商场,060102,B0FFFAFEX1,购物服务,商场,普通商场,
116.29681050074392,40.05071949483251,ManiSun,上地九街九号数码科技广场,北京市,北京市,上地,购物服务;商场;免税品店,060103,B0FFLDK57S,购物服务,商场,免税品店,
116.30820397431313,39.97805668839885,欧美汇购物中心,丹棱街甲1号,北京市,北京市,中关村,购物服务;商场;购物中心,060101,B000A85J2J,购物服务,商场,购物中心,
116.30916299888013,39.97704495060245,新中关购物中心,中关村大街19号,北京市,北京市,,购物服务;商场;购物中心,060101,B000A83RWS,购物服务,商场,购物中心,
116.33316563397052,39.990585669826686,五道口购物中心,成府路28号,北京市,北京市,五道口,购物服务;商场;购物中心,060101,B000A80D2Q,购物服务,商场,购物中心,
116.31473552620201,39.96926676743929,当代商城,中关村大街40号,北京市,北京市,双榆树,购物服务;商场;购物中心,060101,B000A384A3,购物服务,商场,购物中心,
116.3196767808773,39.96504447674287,双安商场,北三环西路38号,北京市,北京市,北下关,购物服务;商场;购物中心,060101,B000A7AFF1,购物服务,商场,购物中心,
116.33380502185399,39.984063744081766,五道口购物广场,五道口新村4号,北京市,北京市,五道口,购物服务;商场;购物中心,060101,B000A8VSQE,购物服务,商场,购物中心,
116.31735123375135,39.96404997951492,华宇时尚购物中心,中关村南大街2号数码大厦B座,北京市,北京市,北下关,购物服务;商场;购物中心,060101,B000A81JYG,购物服务,商场,购物中心,
116.31610968373467,39.99081826675907,今日电器,成府路280号(五道口),北京市,北京市,,购物服务;家电电子卖场;综合家电商场,060301,B000A0C21F,购物服务,家电电子卖场,综合家电商场,
116.30669879697655,39.98162131496096,中关村广场购物中心(装修中),中关村西区善缘街1号,北京市,北京市,中关村,购物服务;商场;普通商场,060102,B0FFHH33DG,购物服务,商场,普通商场,
116.33553159151289,39.964877307172216,大钟寺中坤广场(装修中),北三环西路甲18号,北京市,北京市,北下关,购物服务;商场;购物中心,060101,B000A87LZS,购物服务,商场,购物中心,
116.31226215767033,39.976720156126305,新中关系购物中心,中关村街道,北京市,北京市,,购物服务;商场;购物中心,060101,B0HA21RTI7,购物服务,商场,购物中心,
116.30922870519038,39.978227780427964,Z中关村广场PLAZA,丹棱街与海淀南大街交叉口西北100米,北京市,北京市,中关村,购物服务;商场;商场,060100,B0FFGBC3MN,购物服务,商场,商场,
116.31736373561402,39.95984912238921,东方天作商城,中关村南大街12号(近中国农业科学院西门),北京市,北京市,北下关,购物服务;商场;普通商场,060102,B000A81BD0,购物服务,商场,普通商场,
116.3099110034648,39.979788445377494,中关村西区,海淀大街3号,北京市,北京市,中关村,购物服务;商场;普通商场,060102,B0FFH12MRQ,购物服务,商场,普通商场,
116.31127060139559,39.9828357741339,UNITEK优越者旗舰店,中关村大街科贸电子城3楼3a132,北京市,北京市,中关村,购物服务;商场;免税品店,060103,B0G29HMW0P,购物服务,商场,免税品店,
116.31849646965557,39.96519073803927,楼上精品购物中心,北三环西路会展公寓内,北京市,北京市,北下关,购物服务;商场;购物中心,060101,B0G0PCE785,购物服务,商场,购物中心,
116.31404634412307,39.97513584210343,时尚中心,中关村街道中关村大街甲28号海淀文化艺术大厦b座,北京市,北京市,双榆树,购物服务;商场;普通商场,060102,B0FFIVWN4N,购物服务,商场,普通商场,
116.33293421156942,39.990150122104765,U-CRNTER,成府路122号,北京市,北京市,五道口,购物服务;商场;商场,060100,B0FFLNKYVZ,购物服务,商场,商场,
116.31825602722769,39.96513620161824,北京科技会展中心精品购物中心,[],北京市,北京市,北下关,购物服务;商场;购物中心|购物服务;超级市场;超市,060101|060400,B000A7TSMR,购物服务,商场,购物中心|购物服务,超级市场
116.32853361683222,39.994972249339874,捌食捌街生活广场,双清路88号华源世纪商务楼2层,北京市,北京市,五道口,购物服务;商场;商场,060100,B0HGVUP99A,购物服务,商场,商场,
116.30960340477607,39.98199292918525,MEGVII,中关村海龙大厦h座5室,北京市,北京市,中关村,购物服务;商场;免税品店,060103,B0GU51U01H,购物服务,商场,免税品店,
116.32903398301853,39.967270431235896,金五星购物广场,中关村东路118号,北京市,北京市,大钟寺村,购物服务;商场;普通商场,060102,B0FFM6IS64,购物服务,商场,普通商场,
116.31470959602335,39.969178820310155,OSIM傲胜(当代商城店),中关村大街40号当代商城6层,北京市,北京市,双榆树,购物服务;家电电子卖场;综合家电商场,060301,B0FFI211P8,购物服务,家电电子卖场,综合家电商场,
116.33470336065832,39.965512818724626,西点mall,四道口北街与北三环西路交叉路口南侧(中鼎大厦),北京市,北京市,北下关,购物服务;商场;普通商场,060102,B0FFL6FM7C,购物服务,商场,普通商场,
116.3181266080277,39.96288353949671,海淀社区商业中心,中关村南大街友谊宾馆东门对面路口内,北京市,北京市,北下关,购物服务;商场;普通商场,060102,B0G33SXXO2,购物服务,商场,普通商场,
116.31995609747281,39.965375926618265,DeLonghi(双安商场店),北三环西路38号双安商场5层,北京市,北京市,北下关,购物服务;家电电子卖场;综合家电商场,060301,B000ABBY8U,购物服务,家电电子卖场,综合家电商场,
116.320047888381,39.965361750705746,飞利浦(双安商场店),北三环西路38号双安商场5层,北京市,北京市,北下关,购物服务;家电电子卖场;综合家电商场,060301,B000AAAUCQ,购物服务,家电电子卖场,综合家电商场,
116.32019655375714,39.965306467056195,西门子(双安商场店),北三环西路38号双安商场5层,北京市,北京市,北下关,购物服务;家电电子卖场;综合家电商场,060301,B000ABBY8W,购物服务,家电电子卖场,综合家电商场,
116.3332622092389,40.000089084023394,凯时广场,清华东路甲1号,北京市,北京市,五道口,购物服务;商场;普通商场,060102,B0FFHCPH5O,购物服务,商场,普通商场,
116.32932425077324,39.96781085711249,伊莱克斯(联想桥),中关村东路118号,北京市,北京市,大钟寺村,购物服务;家电电子卖场;综合家电商场,060301,B0G33GV8DT,购物服务,家电电子卖场,综合家电商场,
116.32020055971742,39.96518646413142,LIEBHERR(双安商场),北三环西路38号F5层,北京市,北京市,北下关,购物服务;家电电子卖场;综合家电商场,060301,B000ABBY8X,购物服务,家电电子卖场,综合家电商场,
116.31988625246586,39.96541905917542,象印(双安商场店),北三环西路38号双安商场5层,北京市,北京市,北下关,购物服务;家电电子卖场;综合家电商场,060301,B000ABBY9A,购物服务,家电电子卖场,综合家电商场,
116.32892325305492,39.967138647404376,LEXY莱克,中关村东路118号苏宁易购内莱克,北京市,北京市,大钟寺村,购物服务;家电电子卖场;综合家电商场,060301,B0FFHLGHL2,购物服务,家电电子卖场,综合家电商场,
116.32006682705274,39.965502708679026,SISMENS(双安商场),北三环西路38号双安商场5F层,北京市,北京市,双榆树,购物服务;家电电子卖场;综合家电商场,060301,B0FFJN6WAF,购物服务,家电电子卖场,综合家电商场,
116.32897113299775,39.96722155288989,中央集成馆,中关村东路118号苏宁易购,北京市,北京市,大钟寺村,购物服务;家电电子卖场;综合家电商场,060301,B0H6TY6V8P,购物服务,家电电子卖场,综合家电商场,
116.32894021500735,39.967132615332815,ASD爱仕达,中关村东路118号苏宁易购,北京市,北京市,大钟寺村,购物服务;家电电子卖场;综合家电商场,060301,B0H6FY27IH,购物服务,家电电子卖场,综合家电商场,
116.32906592920722,39.96711837646737,Midea水波炉,中关村东路118号联想桥苏宁易购,北京市,北京市,大钟寺村,购物服务;家电电子卖场;综合家电商场,060301,B0H6FY2LZ9,购物服务,家电电子卖场,综合家电商场,
116.30058463240643,39.98185926334687,Free Zone Store,中关村创业大街1号楼小二层A03,北京市,北京市,,购物服务;商场;免税品店,060103,B0FFJUZ8Q9,购物服务,商场,免税品店,
116.3395797771193,39.97201262463134,高价废品回收空调冰箱洗衣机,知春路太月园垃圾站,北京市,北京市,,购物服务;家电电子卖场;综合家电商场,060301,B0HAPYTLDE,购物服务,家电电子卖场,综合家电商场,
116.3027015669236,39.963543266227674,关于它,北三环西路三义庙2号院YOU青年社区内,北京市,北京市,,购物服务;商场;免税品店,060103,B0H6PSOHL2,购物服务,商场,免税品店,
116.31844566893594,39.93284612362971,肥桃生活广场,首体南路9号主语国际中心B1层,北京市,北京市,车公庄,购物服务;商场;普通商场,060102,B0FFG4JJ01,购物服务,商场,普通商场,
116.32972361553163,39.9577304984254,法雅体育(皂君庙店),皂君庙路28号,北京市,北京市,大钟寺村,购物服务;商场;普通商场,060102,B000A44F25,购物服务,商场,普通商场,
116.3271135857104,39.92616874103168,甘家口百货,三里河路17号,北京市,北京市,三里河,购物服务;商场;普通商场,060102,B0FFGOI1V3,购物服务,商场,普通商场,
116.33499646996323,39.91213643442176,万方西单商场,月坛南街30号,北京市,北京市,三里河,购物服务;商场;普通商场,060102,B000A6516F,购物服务,商场,普通商场,
116.2958843204487,39.92321063530638,华光商厦邻里购物中心,阜成路61号,北京市,北京市,,购物服务;商场;购物中心,060101,B000A46E27,购物服务,商场,购物中心,
116.3314244287394,39.93652511944826,元沃天地地铁商城,西直门外大街,北京市,北京市,车公庄,购物服务;商场;普通商场,060102,B000A8YACG,购物服务,商场,普通商场,
116.32718442541115,39.92615060621943,纯渡跨境特卖汇,增光路甘家口大厦地下一层,北京市,北京市,三里河,购物服务;商场;免税品店,060103,B0FFL6DSAP,购物服务,商场,免税品店,
116.29884996775256,39.94341580331268,Midea空调,北洼路4号紫竹桥西行200米苏宁易购,北京市,北京市,,购物服务;家电电子卖场;综合家电商场,060301,B0H6TY5U47,购物服务,家电电子卖场,综合家电商场,
116.29874309454024,39.9441069593082,林内(苏宁易购紫竹桥店),紫竹院路苏宁易购紫竹桥店,北京市,北京市,,购物服务;家电电子卖场;综合家电商场,060301,B0H6TY4PCD,购物服务,家电电子卖场,综合家电商场,
116.29899959192271,39.94402452186513,法迪欧(苏宁易购紫竹桥店),紫竹院路甲39苏宁易购紫竹桥店,北京市,北京市,,购物服务;家电电子卖场;综合家电商场,060301,B0H6TY6NS6,购物服务,家电电子卖场,综合家电商场,
116.31028016150863,39.92441397426077,拾全拾美生活馆,阜成路23-8号附近,北京市,北京市,,购物服务;商场;免税品店,060103,B0FFJRV86T,购物服务,商场,免税品店,
116.29774213361223,39.94368768475845,伊莱克斯(紫竹桥苏宁店),北洼路4号苏宁易购,北京市,北京市,,购物服务;家电电子卖场;综合家电商场,060301,B0G274DCV9,购物服务,家电电子卖场,综合家电商场,
116.29895768198723,39.94397559590038,阿里斯顿(苏宁易购紫竹桥店),紫竹院路甲39苏宁易购紫竹桥店,北京市,北京市,,购物服务;家电电子卖场;综合家电商场,060301,B0H6TY4PII,购物服务,家电电子卖场,综合家电商场,
116.297953772398,39.911337652226194,崇尚凯德Mall店,翠微路12号楼新华联国际凯德mall4楼,北京市,北京市,公主坟,购物服务;商场;商场,060100,B0FFHLUFWX,购物服务,商场,商场,
116.30312625444635,39.91120462967271,海尔中央空调,复兴路甲23号北京城乡贸易中心地下一层,北京市,北京市,公主坟,购物服务;家电电子卖场;综合家电商场,060301,B0FFFDMH3B,购物服务,家电电子卖场,综合家电商场,
116.29732003576154,39.911210732572904,印象城(苹果体验店),翠微路12号,北京市,北京市,公主坟,购物服务;商场;普通商场,060102,B0FFJOOHAR,购物服务,商场,普通商场,
116.3167504594174,39.95728139831061,遇见你,中关村南大街7号,北京市,北京市,北下关,购物服务;商场;免税品店,060103,B0G2JAHO44,购物服务,商场,免税品店,
116.33896942409363,39.90643639311081,长安商场,复兴门外大街15号,北京市,北京市,三里河,购物服务;商场;购物中心,060101,B000A4E931,购物服务,商场,购物中心,
116.31653760540823,39.89650132843878,西新隆商场(装修中),莲花池东路31号中裕大厦1层,北京市,北京市,,购物服务;商场;普通商场,060102,B000A8441H,购物服务,商场,普通商场,
116.29721176983657,39.90704409558051,翠微百货(翠微店),复兴路33号,北京市,北京市,公主坟,购物服务;商场;普通商场,060102,B000A83JRQ,购物服务,商场,普通商场,
116.31401234021958,39.896412145863415,瑞海商城,羊坊店路21号,北京市,北京市,,购物服务;商场;普通商场,060102,B0FFH05IR8,购物服务,商场,普通商场,
116.29935451893063,39.9070384367581,翠微广场,复兴路29号,北京市,北京市,公主坟,购物服务;商场;购物中心,060101,B000A84NIS,购物服务,商场,购物中心,
116.31509748323097,39.89167529984574,北京西站商业广场,莲花池东路118号北京西站B2层,北京市,北京市,太平桥,购物服务;商场;购物中心,060101,B0FFFQ09YP,购物服务,商场,购物中心,
116.32252159458028,39.898859729077955,松下电器(东双贝子坟路),北蜂窝中路甲8号院-3,北京市,北京市,,购物服务;家电电子卖场;综合家电商场,060301,B0FFG0ZRW8,购物服务,家电电子卖场,综合家电商场,
116.33516919512529,39.887551219543205,天虹,广安门外大街168号朗琴国际大厦,北京市,北京市,红莲,购物服务;商场;购物中心,060101,B000A84F3V,购物服务,商场,购物中心,
116.3033849791436,39.8931339709463,悦邻百姓广场,吴家场路1号院,北京市,北京市,,购物服务;商场;普通商场,060102,B0FFF2DNG7,购物服务,商场,普通商场,
116.29634684927467,39.88790441720922,广亨商场莲香园超市,莲香园1-1号广亨商场,北京市,北京市,,购物服务;便民商店/便利店;便民商店/便利店|购物服务;商场;普通商场,060200|060102,B000A21B20,购物服务,便民商店/便利店,便民商店/便利店|购物服务,商场
116.32976327856117,39.89643796697901,海淀社区商业e中心,莲花池东路,北京市,北京市,,购物服务;商场;商场,060100,B0G1998CBR,购物服务,商场,商场,
116.30135339098575,39.907547930426695,城乡购物中心(公主坟店),复兴路甲23号,北京市,北京市,公主坟,购物服务;商场;普通商场,060102,B0FFFFOZCS,购物服务,商场,普通商场,
116.33044079703886,39.88803007167999,一商广安商城,广外大街182号,北京市,北京市,红莲,购物服务;商场;商场,060100,B0GU31KI2Z,购物服务,商场,商场,
116.33133177013812,39.88804738454269,北京越都荟,广安门外大街180号,北京市,北京市,红莲,购物服务;商场;商场,060100,B0FFK08QZ2,购物服务,商场,商场,
116.32098847946621,39.88807317718216,法迪欧专柜,广安门外大街248号机械大厦苏宁一层,北京市,北京市,红莲,购物服务;商场;免税品店,060103,B0FFIF0WEC,购物服务,商场,免税品店,
116.332044234186,39.88742606978698,北京华联购物中心(广安门店),广安门外街道广安门外大街178号180号,北京市,北京市,红莲,购物服务;商场;购物中心,060101,B0FFL17QW2,购物服务,商场,购物中心,
116.29462472239275,39.907234391127496,凯德MALL翠微路,翠微路20号院2号楼名剪美发,北京市,北京市,公主坟,购物服务;商场;商场,060100,B0G0BZ073A,购物服务,商场,商场,
116.2974572577562,39.907289669868376,孩视宝(翠微百货店),复兴路33号翠微百货5层,北京市,北京市,公主坟,购物服务;家电电子卖场;综合家电商场,060301,B0FFH13PF4,购物服务,家电电子卖场,综合家电商场,
116.33899835463957,39.90648733853431,王府井百货集团,复兴门外大街15号,北京市,北京市,三里河,购物服务;商场;普通商场,060102,B0FFFWHV5F,购物服务,商场,普通商场,
116.29716485999771,39.90705717418915,BRAUN,复兴路33号翠微百货(翠微路店)F5,北京市,北京市,公主坟,购物服务;家电电子卖场;综合家电商场,060301,B0HA7YZ032,购物服务,家电电子卖场,综合家电商场,
116.29338412670116,39.906572436483934,Joyful Life,复兴路甲49-1号附近,北京市,北京市,公主坟,购物服务;商场;免税品店,060103,B0G0XNUUU8,购物服务,商场,免税品店,
116.35232256382308,40.11470897424292,白各庄商业中心,白各庄185号,北京市,北京市,,购物服务;商场;普通商场,060102,B0FFFADFNC,购物服务,商场,普通商场,
116.38216964424966,40.1160744148504,五月花街,S327(定泗路),北京市,北京市,北七家,购物服务;商场;商场,060100,B0HGFN2H0T,购物服务,商场,商场,
116.35811107675777,40.11543627865254,宏福亿发购物中心,定泗路2-220号靠近郑各庄温榆公园,北京市,北京市,北七家,购物服务;商场;普通商场,060102,B000A8XEEI,购物服务,商场,普通商场,
116.36083790751645,40.08159111295697,兴业商业广场,黄平路202号院1号楼,北京市,北京市,东小口,购物服务;商场;普通商场,060102,B000A9IQW0,购物服务,商场,普通商场,
116.36570479603544,40.087347547316234,龙锦市场,东小口镇回龙观龙锦市场西门7475 76号,北京市,北京市,北七家,购物服务;商场;购物中心|购物服务;便民商店/便利店;便民商店/便利店|购物服务;综合市场;综合市场,060101|060200|060700,B000A8X48H,购物服务,商场,购物中心|购物服务,便民商店/便利店
116.36142597152114,40.07377585077631,永辉堂新世纪商城新晨商场,回龙观霍营西大街1层,北京市,北京市,东小口,购物服务;商场;普通商场,060102,B000A18C6C,购物服务,商场,普通商场,
116.3694646438966,40.080335785366756,MoreColorFul,霍营街道天鑫家园6号楼底商,北京市,北京市,东小口,购物服务;商场;免税品店,060103,B0G0PYCBLO,购物服务,商场,免税品店,
116.365587588316,40.10583829083832,温都水城旅游景区水城广场,温都水城旅游景区内,北京市,北京市,北七家,购物服务;商场;普通商场,060102,B0FFFE020I,购物服务,商场,普通商场,
116.34954752281644,40.078608132062776,益客空间,回龙观东大街首开广场东门四层,北京市,北京市,回龙观,购物服务;商场;免税品店,060103,B0FFK2SVI9,购物服务,商场,免税品店,
116.36523411588934,40.10567372840786,温都水城文化广场,北七家镇平西府街55号宏福创业园8号,北京市,北京市,北七家,购物服务;商场;购物中心,060101,B0FFFDR12O,购物服务,商场,购物中心,
116.36725618335971,40.05973653046596,东升生活广场,西三旗(地铁8号线西小口站北侧150米),北京市,北京市,东小口,购物服务;商场;商场,060100,B0FFGRD56N,购物服务,商场,商场,
116.36275200956129,40.03391841117871,宝盛里社区生活广场,宝盛路(宝盛西里),北京市,北京市,清河,购物服务;商场;普通商场,060102,B0FFK5VRDH,购物服务,商场,普通商场,
116.35906780530587,40.05818601279837,新都生活广场(建材城中路),西三旗建材城中路6号,北京市,北京市,西三旗,购物服务;商场;购物中心,060101,B000A8UFCR,购物服务,商场,购物中心,
116.34532043115796,40.02846706411375,新业广场,风尚798创意百货一楼kama,北京市,北京市,永泰,购物服务;商场;商场,060100,B0FFGSORCH,购物服务,商场,商场,
116.34352043116323,40.042139467736526,悦茂购物中心,后屯路文龙家园四里4号楼,北京市,北京市,清河,购物服务;商场;购物中心,060101,B0FFIPF8SN,购物服务,商场,购物中心,
116.36237429677972,40.0127759147423,dsstore,林萃西里三号路与林萃西里二号路交叉口西北150米,北京市,北京市,林萃,购物服务;商场;免税品店,060103,B0FFI0HDLF,购物服务,商场,免税品店,
116.36088034007714,39.97606944590939,翠微百货(牡丹园店),花园路2号(近牡丹园地铁站西北口),北京市,北京市,牡丹园,购物服务;商场;普通商场,060102,B000A7COFT,购物服务,商场,普通商场,
116.35860655070769,39.98018039687988,花园路百货商场,花园路1-35号,北京市,北京市,牡丹园,购物服务;商场;普通商场,060102,B000A443C6,购物服务,商场,普通商场,
116.38439876207755,39.97979306321618,唐人街购物中心,民族园路2号唐人街大厦3层北侧,北京市,北京市,北辰,购物服务;商场;购物中心,060101,B000A84CKO,购物服务,商场,购物中心,
116.36022305862397,39.97875222340127,同观商业中心,花园路街道花园路甲2号院4号楼3层,北京市,北京市,牡丹园,购物服务;商场;购物中心|购物服务;特色商业街;特色商业街|公司企业;公司;公司,060101|061000|170200,B000A8VOF6,购物服务,商场,购物中心|购物服务,特色商业街
116.38789271379434,39.99866976013622,新奥购物中心,湖景东路9号,北京市,北京市,北辰,购物服务;商场;购物中心,060101,B000A87QIT,购物服务,商场,购物中心,
116.347682326045,40.00732107095479,圣熙8号购物中心,学清路甲8号,北京市,北京市,,购物服务;商场;购物中心,060101,B000A88DTH,购物服务,商场,购物中心,
116.3799593139262,39.96745720041322,云米全屋互联网家电马甸大中旗舰店,北三环中路25号,北京市,北京市,马甸,购物服务;家电电子卖场;大中|购物服务;家电电子卖场;综合家电商场,060303|060301,B0FFKHAJKT,购物服务,家电电子卖场,大中|购物服务,家电电子卖场
116.36625209899884,40.00873230846486,华创生活广场(林萃路店),林萃路林萃西里16号楼,北京市,北京市,林萃,购物服务;商场;普通商场,060102,B0FFFSIS11,购物服务,商场,普通商场,
116.38279400764607,39.96192564206565,佰隆大厦,黄寺大街15号楼,北京市,北京市,德胜门,购物服务;商场;普通商场,060102,B0FFGIGBOC,购物服务,商场,普通商场,
116.36363485920849,40.00116982323064,方太(皇苹果家居店),北沙滩桥1号红星美凯龙B1层,北京市,北京市,,购物服务;家电电子卖场;综合家电商场,060301,B0FFF3JESL,购物服务,家电电子卖场,综合家电商场,
116.35161811653455,39.98001784407399,喜爱生活(花园北路店),学院路街道花园北路48号(北医六院对面),北京市,北京市,,购物服务;商场;免税品店,060103,B0FFHDL3K1,购物服务,商场,免税品店,
116.36358792097035,40.001237879279195,博世壁挂炉(红星美凯龙),北沙滩红星美凯龙负一层暖气片区,北京市,北京市,林萃,购物服务;家电电子卖场;综合家电商场|购物服务;家居建材市场;厨卫市场,060301|060604,B0FFFEO65I,购物服务,家电电子卖场,综合家电商场|购物服务,家居建材市场
116.37856542183691,39.967673181592716,添可科沃斯,商房大厦国美电器一层,北京市,北京市,马甸,购物服务;家电电子卖场;综合家电商场,060301,B0H6XYUETQ,购物服务,家电电子卖场,综合家电商场,
116.3459681232419,39.996919405728455,电器(苏宁易购学院路店),学院路9号学府大厦苏宁易购,北京市,北京市,五道口,购物服务;家电电子卖场;综合家电商场,060301,B0FFIDB9TG,购物服务,家电电子卖场,综合家电商场,
116.37991635453292,39.967402231978745,卡萨帝衣物护理中心,北三环中路辅路25号英斯泰克大厦3层,北京市,北京市,马甸,购物服务;家电电子卖场;综合家电商场,060301,B0HAXDKXDY,购物服务,家电电子卖场,综合家电商场,
116.34586033549674,39.99698458595115,法迪欧(苏宁易购学院路店),学院路9号学府大厦苏宁易购,北京市,北京市,五道口,购物服务;家电电子卖场;综合家电商场,060301,B0H6TY5N9B,购物服务,家电电子卖场,综合家电商场,
116.3886395155762,39.99814152454404,傲胜(新奥购物中心B区),湖景东路9号新奥购物中心B区H1层H1-04,北京市,北京市,北辰,购物服务;家电电子卖场;综合家电商场,060301,B0HGMXZEWJ,购物服务,家电电子卖场,综合家电商场,
116.3490436377085,40.007181831235464,商业广场,学清路甲8号,北京市,北京市,,购物服务;商场;商场,060100,B0FFFYSYR4,购物服务,商场,商场,
116.36370776362443,40.00106273636874,努奥罗散热器(北沙滩红星美凯龙)(红星美凯龙北四环店),北沙滩桥1号红星美凯龙B1层B1095,北京市,北京市,,购物服务;家电电子卖场;综合家电商场|购物服务;家居建材市场;家居建材市场,060301|060600,B0FFF3JJ0U,购物服务,家电电子卖场,综合家电商场|购物服务,家居建材市场
116.38650910508647,39.976628214983,AnnieMark|(北土城店),民族园路2号民族珠宝城B1层75号,北京市,北京市,北辰,购物服务;商场;免税品店,060103,B0FFG1K5P7,购物服务,商场,免税品店,
116.38853258230095,39.99790357028096,天淇·乐(新奥购物中心店),湖景东路新奥购物中心2层,北京市,北京市,北辰,购物服务;商场;普通商场,060102,B0FFJFNRQT,购物服务,商场,普通商场,
116.38877693761404,39.97104359558989,SEEU进口商品生活馆,安贞西里二区21号楼底商一层,北京市,北京市,安贞,购物服务;商场;免税品店,060103,B0HGSU6NCO,购物服务,商场,免税品店,
116.36614918423851,39.9387292952813,新街口百货,新街口南大街7号,北京市,北京市,,购物服务;商场;商场,060100,B000A7ZUZI,购物服务,商场,商场,
116.35563310671043,39.914185348798675,金融街购物中心,金城坊街2号,北京市,北京市,金融街,购物服务;商场;购物中心,060101,B000A62FA1,购物服务,商场,购物中心,
116.36495396092602,39.94598743640274,新华百货,新街口北大街1号,北京市,北京市,积水潭,购物服务;商场;普通商场,060102,B000A7QVCB,购物服务,商场,普通商场,
116.35040306607452,39.9515929150775,枫蓝国际购物中心,西直门北大街32号院,北京市,北京市,西直门,购物服务;商场;购物中心,060101,B000A84154,购物服务,商场,购物中心,
116.36834185965961,39.91011297267601,西单购物中心,西单北大街132号,北京市,北京市,西单,购物服务;商场;购物中心,060101,B000A83RUT,购物服务,商场,购物中心,
116.34667589475329,39.94023850112062,凯德MALL,西直门外大街1号,北京市,北京市,展览路,购物服务;商场;购物中心,060101,B000A8VSXA,购物服务,商场,购物中心,
116.36845657322445,39.911183800082746,西单商场(西单北大街店),西单北大街120号,北京市,北京市,西单,购物服务;商场;普通商场,060102,B000A6F85C,购物服务,商场,普通商场,
116.34807926280321,39.92301285670246,华联商厦(阜成门店),阜成门外大街1号,北京市,北京市,展览路,购物服务;商场;购物中心,060101,B000A7CI7F,购物服务,商场,购物中心,
116.36639125426268,39.93553113940008,一商创信·质极,大杨家胡同与新街口南大街交叉口西北100米,北京市,北京市,,购物服务;商场;商场,060100,B0FFLIQ6XC,购物服务,商场,商场,
116.36675265862797,39.91274465890032,西单婚庆大楼,西单北大街109号,北京市,北京市,西单,购物服务;商场;购物中心,060101,B000A7ZUN6,购物服务,商场,购物中心,
116.36639404928665,39.937108072836,百隆正泰电器有限公司,新街口南大街51号,北京市,北京市,,购物服务;家电电子卖场;综合家电商场|公司企业;公司;公司,060301|170200,B000A7CHTH,购物服务,家电电子卖场,综合家电商场|公司企业,公司
116.36803091953978,39.93638923091861,xinjiekouband,新街口南大街与新太平胡同交叉路口往东约100米,北京市,北京市,,购物服务;商场;免税品店,060103,B0FFLAGE5T,购物服务,商场,免税品店,
116.36659444576571,39.93966173692591,创时尚特卖场,新街口北大街150号,北京市,北京市,,购物服务;商场;普通商场,060102,B000A87G54,购物服务,商场,普通商场,
116.3686641045121,39.91274350548498,老佛爷百货(北京西单),西单北大街110号,北京市,北京市,,购物服务;商场;普通商场,060102,B000A8W5MU,购物服务,商场,普通商场,
116.36506172909763,39.946583281951405,物美新街口广场(德胜门西大街店),新街口北大街1号,北京市,北京市,积水潭,购物服务;商场;普通商场,060102,B0FFL6FULM,购物服务,商场,普通商场,
116.36906392502333,39.91011018319012,西单新一代商城,堂子胡同9号,北京市,北京市,西单,购物服务;商场;普通商场,060102,B000A8WAIN,购物服务,商场,普通商场,
116.35455832715095,39.943340764545056,甲子商城,德胜门西大街74-4底商,北京市,北京市,西直门,购物服务;商场;普通商场,060102,B0FFL6SP5W,购物服务,商场,普通商场,
116.34347284346529,39.93755409582129,金贸广场,西直门外大街18号,北京市,北京市,西直门,购物服务;商场;普通商场,060102,B0FFHOKQAZ,购物服务,商场,普通商场,
116.34583046155225,39.957192258071935,海淀社区商业中心,[],北京市,北京市,北下关,购物服务;商场;普通商场,060102,B0G0G7L8FZ,购物服务,商场,普通商场,
116.36819990092474,39.91125208106215,春天百货(西单北大街店),"西单横二条,明珠市场4楼,东区1号",北京市,北京市,西单,购物服务;商场;普通商场,060102,B0FFI9AELK,购物服务,商场,普通商场,
116.36813603867724,39.910831170090304,西单商场北5楼,西单北大街120号,北京市,北京市,西单,购物服务;商场;普通商场,060102,B0G2DOPB0D,购物服务,商场,普通商场,
116.34266916495463,39.956215758677686,哇沃生活广场,学院南路50号,北京市,北京市,西直门,购物服务;商场;普通商场,060102,B0FFJNDV2U,购物服务,商场,普通商场,
116.36941137281617,39.895273466811254,北京庄胜广场,宣武门外大街8号SOGO本馆,北京市,北京市,宣武门,购物服务;商场;商场,060100,B000A88EAP,购物服务,商场,商场,
116.36673609501237,39.90949781729135,西单大悦城,西单北大街131号,北京市,北京市,西单,购物服务;商场;购物中心,060101,B000A80NIV,购物服务,商场,购物中心,
116.35769561672701,39.89759007364111,国华商场,宣武门西大街18号,北京市,北京市,,购物服务;商场;普通商场,060102,B000A7BLUY,购物服务,商场,普通商场,
116.36685509623312,39.9082047355437,北京君太百货,西单北大街133号,北京市,北京市,西单,购物服务;商场;购物中心,060101,B000A6534B,购物服务,商场,购物中心,
116.36896431907685,39.908019381362436,汉光百货,西单北大街176号华南大厦,北京市,北京市,西单,购物服务;商场;普通商场,060102,B000A8UM79,购物服务,商场,普通商场,
116.36887747949193,39.891932196642216,富卓商厦,宣武门外大街32号富卓大厦,北京市,北京市,宣武门,购物服务;商场;普通商场,060102,B000A7WHGG,购物服务,商场,普通商场,
116.35316098665234,39.887522283255635,菜市口百货(菜百店),广安门内大街306号,北京市,北京市,牛街,购物服务;商场;普通商场,060102,B000A816L0,购物服务,商场,普通商场,
116.36967729165146,39.9089835748546,西单明珠市场(堂子胡同),西单广场横二条59号,北京市,北京市,西单,购物服务;商场;普通商场,060102,B000A83ZOG,购物服务,商场,普通商场,
116.36934956298084,39.89439457324753,庄胜崇光百货本馆,宣武门外大街8号庄胜崇光百货商场一层,北京市,北京市,宣武门,购物服务;商场;商场,060100,B0FFK0L51Z,购物服务,商场,商场,
116.34272848973436,39.90540073725425,复兴商业城,复兴门外大街4号楼,北京市,北京市,西便门,购物服务;商场;普通商场,060102,B000A36372,购物服务,商场,普通商场,
116.36942144170254,39.89463248538581,TERMINUS(庄胜崇光百货新馆),宣武门外大街12号庄胜崇光百货新馆F1层,北京市,北京市,宣武门,购物服务;商场;商场,060100,B0G1RD0JT0,购物服务,商场,商场,
116.35189291824105,39.90675638555845,微软百盛购物中心,复兴门内大街101号,北京市,北京市,金融街,购物服务;商场;购物中心,060101,B0HGTU9WP5,购物服务,商场,购物中心,
116.37301684401898,39.89724174578926,昆明大厦sogo百货,香炉营头条,北京市,北京市,宣武门,购物服务;商场;普通商场,060102,B0G1Z42C25,购物服务,商场,普通商场,
116.36923613884251,39.906707144785884,西单更新场,西单北大街180号,北京市,北京市,西单,购物服务;商场;商场,060100,B0HALZ4694,购物服务,商场,商场,
116.35152603286676,39.88770782952727,天缘生活广场,广安门内大街甲306号,北京市,北京市,牛街,购物服务;商场;普通商场,060102,B0GK9ZOQRM,购物服务,商场,普通商场,
116.36935982664397,39.90792495907558,飞利浦(汉光百货店),西单北大街176号汉光百货6楼,北京市,北京市,西单,购物服务;家电电子卖场;综合家电商场,060301,B0FFJKC1LG,购物服务,家电电子卖场,综合家电商场,
116.36943273451337,39.90792388110234,dyson购物店(汉光百货店),西单北大街176号汉光百货F6,北京市,北京市,西单,购物服务;家电电子卖场;综合家电商场,060301,B0FFFDMZH1,购物服务,家电电子卖场,综合家电商场,
116.35213742982816,39.90696799234393,百盛购物中心(复兴门店),复兴门内大街101号,北京市,北京市,金融街,购物服务;商场;购物中心,060101,B000A9Q0XX,购物服务,商场,购物中心,
116.36900531605629,39.8919260581498,步步高专柜(宣武门沃尔玛店),宣武门外大街32号沃尔玛超市店内B1层,北京市,北京市,宣武门,购物服务;商场;免税品店,060103,B0FFH9EJJA,购物服务,商场,免税品店,
116.35859374095534,39.892495035316465,向日葵家,广安门内街道长椿街感化胡同14号,北京市,北京市,广内大街,购物服务;商场;免税品店,060103,B0FFHESL6N,购物服务,商场,免税品店,
116.36968128409929,39.90900356975707,西单明珠大厦,西单横二条59号,北京市,北京市,西单,购物服务;商场;普通商场,060102,B0FFGPUL4A,购物服务,商场,普通商场,
116.34287617971627,39.90538847894759,复兴门外大街甲4号楼,复兴门外大街4号,北京市,北京市,西便门,购物服务;商场;普通商场,060102,B0FFG4L33L,购物服务,商场,普通商场,
